{
"type": "FeatureCollection",
"name": "geo_39_介護老人保健施設",
"crs": { "type": "name", "properties": { "name": "urn:ogc:def:crs:OGC:1.3:CRS84" } },
"features": [
{ "type": "Feature", "properties": { "内容": "介護老人保健施設こうせい【介護老人保健施設】高知県高知市葛島1丁目9-50高知厚生病院内３階", "url": "https://www.kaigokensaku.mhlw.go.jp/39/index.php?action_kouhyou_detail_004_kani=true&JigyosyoCd=3950180103-00&ServiceCd=520&Type=search", "url2": "http://www.kochi-koseihp.jp" }, "geometry": { "type": "Point", "coordinates": [ 133.572205108182999, 33.559247380486603 ] } },
{ "type": "Feature", "properties": { "内容": "老人保健施設　あうん高知【介護老人保健施設】高知県高知市一宮西町１丁目７番２５号", "url": "https://www.kaigokensaku.mhlw.go.jp/39/index.php?action_kouhyou_detail_004_kani=true&JigyosyoCd=3950180079-00&ServiceCd=520&Type=search", "url2": "http://www.sanai-hospital.jp/cont3/cont3.html" }, "geometry": { "type": "Point", "coordinates": [ 133.567434952136637, 33.583369500744098 ] } },
{ "type": "Feature", "properties": { "内容": "介護老人保健施設　あったかケアみずき【介護老人保健施設】高知市一宮中町2丁目９・４", "url": "https://www.kaigokensaku.mhlw.go.jp/39/index.php?action_kouhyou_detail_004_kani=true&JigyosyoCd=3950180061-00&ServiceCd=520&Type=search", "url2": "http://www.attakacaremizuki.jp/" }, "geometry": { "type": "Point", "coordinates": [ 133.572749599999952, 33.5820905 ] } },
{ "type": "Feature", "properties": { "内容": "老人保健施設　シルバーマリン【介護老人保健施設】高知市仁井田１６１２－２１", "url": "https://www.kaigokensaku.mhlw.go.jp/39/index.php?action_kouhyou_detail_004_kani=true&JigyosyoCd=3950180038-00&ServiceCd=520&Type=search", "url2": "http://www.marine-hosp.jp/silver-marine/index.html" }, "geometry": { "type": "Point", "coordinates": [ 133.57295739999995, 33.514232 ] } },
{ "type": "Feature", "properties": { "内容": "介護老人保健施設　ピアハウス高知【介護老人保健施設】高知県高知市塚ノ原３６番地", "url": "https://www.kaigokensaku.mhlw.go.jp/39/index.php?action_kouhyou_detail_004_kani=true&JigyosyoCd=3950180046-00&ServiceCd=520&Type=search", "url2": "http://jyosenkai-piahouse.jp" }, "geometry": { "type": "Point", "coordinates": [ 133.494866600000023, 33.561191 ] } },
{ "type": "Feature", "properties": { "内容": "老人保健施設　優【介護老人保健施設】高知県高知市長浜小日出1681-1", "url": "https://www.kaigokensaku.mhlw.go.jp/39/index.php?action_kouhyou_detail_004_kani=true&JigyosyoCd=3950180095-00&ServiceCd=520&Type=search", "url2": "http://www.rouken-yu.jp" }, "geometry": { "type": "Point", "coordinates": [ 133.537437486508225, 33.499459946591728 ] } },
{ "type": "Feature", "properties": { "内容": "介護老人保健施設　あいおい【介護老人保健施設】高知県高知市相生町１番３５号", "url": "https://www.kaigokensaku.mhlw.go.jp/39/index.php?action_kouhyou_detail_004_kani=true&JigyosyoCd=3950180087-00&ServiceCd=520&Type=search", "url2": "http://www.nonami-kai.com/aioi/" }, "geometry": { "type": "Point", "coordinates": [ 133.544382664417981, 33.56464755016011 ] } },
{ "type": "Feature", "properties": { "内容": "介護老人保健施設　梅壽苑【介護老人保健施設】高知県高知市土居町９－１８", "url": "https://www.kaigokensaku.mhlw.go.jp/39/index.php?action_kouhyou_detail_004_kani=true&JigyosyoCd=3950180012-00&ServiceCd=520&Type=search", "url2": "https://www.takashiokai.jp" }, "geometry": { "type": "Point", "coordinates": [ 133.544569435581934, 33.554295589959317 ] } },
{ "type": "Feature", "properties": { "内容": "介護老人保健施設　あさひ【介護老人保健施設】高知県室戸市領家１番１", "url": "https://www.kaigokensaku.mhlw.go.jp/39/index.php?action_kouhyou_detail_004_kani=true&JigyosyoCd=3950280010-00&ServiceCd=520&Type=search", "url2": "http://muroto-aiseikai.com" }, "geometry": { "type": "Point", "coordinates": [ 134.165496800000028, 33.2944285 ] } },
{ "type": "Feature", "properties": { "内容": "介護老人保健施設　ケアポート南国【介護老人保健施設】高知県南国市大そね乙1069-1", "url": "https://www.kaigokensaku.mhlw.go.jp/39/index.php?action_kouhyou_detail_004_kani=true&JigyosyoCd=3950480016-00&ServiceCd=520&Type=search", "url2": null }, "geometry": { "type": "Point", "coordinates": [ 133.650386900000058, 33.5659386 ] } },
{ "type": "Feature", "properties": { "内容": "介護老人保健施設　夢の里【介護老人保健施設】高知県南国市岡豊町中島1521-1", "url": "https://www.kaigokensaku.mhlw.go.jp/39/index.php?action_kouhyou_detail_004_kani=true&JigyosyoCd=3950480024-00&ServiceCd=520&Type=search", "url2": "http://www.chisio-group.or.jp" }, "geometry": { "type": "Point", "coordinates": [ 133.6163037, 33.5902185 ] } },
{ "type": "Feature", "properties": { "内容": "介護老人保健施設　JAいなほ【介護老人保健施設】高知県南国市明見字八反田６４５－１", "url": "https://www.kaigokensaku.mhlw.go.jp/39/index.php?action_kouhyou_detail_004_kani=true&JigyosyoCd=3950480032-00&ServiceCd=520&Type=search", "url2": "http://www.kouseiren.ja-kochi.or.jp/inaho/index.html" }, "geometry": { "type": "Point", "coordinates": [ 133.631002, 33.5678045 ] } },
{ "type": "Feature", "properties": { "内容": "介護老人保健施設　ヴィラフローラ【介護老人保健施設】高知県土佐市新居274-1", "url": "https://www.kaigokensaku.mhlw.go.jp/39/index.php?action_kouhyou_detail_004_kani=true&JigyosyoCd=3950580013-00&ServiceCd=520&Type=search", "url2": "http://siragiku.jp/Vila_flora/villa_flora_top.html" }, "geometry": { "type": "Point", "coordinates": [ 133.458787499999971, 33.4492283 ] } },
{ "type": "Feature", "properties": { "内容": "老人保健施設　暖流【介護老人保健施設】高知県須崎市緑町4-30", "url": "https://www.kaigokensaku.mhlw.go.jp/39/index.php?action_kouhyou_detail_004_kani=true&JigyosyoCd=3950680011-00&ServiceCd=520&Type=search", "url2": "http://susaki-kuroshio-hp.or.jp/publics/index/13/" }, "geometry": { "type": "Point", "coordinates": [ 133.2894632, 33.4120161 ] } },
{ "type": "Feature", "properties": { "内容": "老人保健施設　ぎんなん荘【介護老人保健施設】高知県宿毛市平田町戸内1802", "url": "https://www.kaigokensaku.mhlw.go.jp/39/index.php?action_kouhyou_detail_004_kani=true&JigyosyoCd=3950980015-00&ServiceCd=520&Type=search", "url2": "http://goseikai.jp/ginnan.html" }, "geometry": { "type": "Point", "coordinates": [ 132.797928800000022, 32.9593806 ] } },
{ "type": "Feature", "properties": { "内容": "介護老人保健施設サンケアしみず【介護老人保健施設】高知県土佐清水市天神町１４番１８号", "url": "https://www.kaigokensaku.mhlw.go.jp/39/index.php?action_kouhyou_detail_004_kani=true&JigyosyoCd=3950880017-00&ServiceCd=520&Type=search", "url2": "http://matsutani-hp.or.jp/" }, "geometry": { "type": "Point", "coordinates": [ 132.9543529, 32.7827583 ] } },
{ "type": "Feature", "properties": { "内容": "介護老人保健施設　いろは館【介護老人保健施設】高知県四万十市不破巾着島2050-20", "url": "https://www.kaigokensaku.mhlw.go.jp/39/index.php?action_kouhyou_detail_004_kani=true&JigyosyoCd=3950780027-00&ServiceCd=520&Type=search", "url2": null }, "geometry": { "type": "Point", "coordinates": [ 132.92818778173978, 32.98121711079196 ] } },
{ "type": "Feature", "properties": { "内容": "老人保健施設　治優園【介護老人保健施設】高知県四万十市中村愛宕町２９", "url": "https://www.kaigokensaku.mhlw.go.jp/39/index.php?action_kouhyou_detail_004_kani=true&JigyosyoCd=3950780019-00&ServiceCd=520&Type=search", "url2": "https://kuroshiofukushikai.com/index.html" }, "geometry": { "type": "Point", "coordinates": [ 132.933041034393369, 32.994056980001098 ] } },
{ "type": "Feature", "properties": { "内容": "介護老人保健施設　あいの里【介護老人保健施設】高知県香南市香我美町岸本328-174", "url": "https://www.kaigokensaku.mhlw.go.jp/39/index.php?action_kouhyou_detail_004_kani=true&JigyosyoCd=3952180028-00&ServiceCd=520&Type=search", "url2": "https://www.chisio-group.or.jp/ainosato/" }, "geometry": { "type": "Point", "coordinates": [ 133.731544500000041, 33.5393098 ] } },
{ "type": "Feature", "properties": { "内容": "老人保健施設　しお風【介護老人保健施設】高知県香南市赤岡町1186番地1", "url": "https://www.kaigokensaku.mhlw.go.jp/39/index.php?action_kouhyou_detail_004_kani=true&JigyosyoCd=3952180036-00&ServiceCd=520&Type=search", "url2": "https://www.kounankai.jp/" }, "geometry": { "type": "Point", "coordinates": [ 133.730138899999929, 33.54697 ] } },
{ "type": "Feature", "properties": { "内容": "介護老人保健施設　あじさいの里【介護老人保健施設】高知県香美市香北町美良布1317番地", "url": "https://www.kaigokensaku.mhlw.go.jp/39/index.php?action_kouhyou_detail_004_kani=true&JigyosyoCd=3952180044-00&ServiceCd=520&Type=search", "url2": "https://www.iwagawakai.com/" }, "geometry": { "type": "Point", "coordinates": [ 133.779593100000056, 33.6482639 ] } },
{ "type": "Feature", "properties": { "内容": "介護老人保健施設　とさやまだファミリア【介護老人保健施設】高知県香美市土佐山田町548", "url": "https://www.kaigokensaku.mhlw.go.jp/39/index.php?action_kouhyou_detail_004_kani=true&JigyosyoCd=3952180010-00&ServiceCd=520&Type=search", "url2": "http://www.welplaza.or.jp" }, "geometry": { "type": "Point", "coordinates": [ 133.675557, 33.6085984 ] } },
{ "type": "Feature", "properties": { "内容": "介護老人保健施設ヘルシーケアなはり【介護老人保健施設】高知県安芸郡奈半利町乙３７４０－１", "url": "https://www.kaigokensaku.mhlw.go.jp/39/index.php?action_kouhyou_detail_004_kani=true&JigyosyoCd=3952080012-00&ServiceCd=520&Type=search", "url2": "http://www.ccc-21.co.jp" }, "geometry": { "type": "Point", "coordinates": [ 134.027749099999966, 33.4365547 ] } },
{ "type": "Feature", "properties": { "内容": "介護老人保健施設リゾートヒルやわらぎ【介護老人保健施設】高知県安芸郡芸西村和食甲4249", "url": "https://www.kaigokensaku.mhlw.go.jp/39/index.php?action_kouhyou_detail_004_kani=true&JigyosyoCd=3952080038-00&ServiceCd=520&Type=search", "url2": "https：//okura-kai.com/" }, "geometry": { "type": "Point", "coordinates": [ 133.820118500000035, 33.5210571 ] } },
{ "type": "Feature", "properties": { "内容": "介護老人保健施設　レイクビューさめうら【介護老人保健施設】高知県土佐郡土佐町田井１３７２番地", "url": "https://www.kaigokensaku.mhlw.go.jp/39/index.php?action_kouhyou_detail_004_kani=true&JigyosyoCd=3952380016-00&ServiceCd=520&Type=search", "url2": "http://juzen-kai.or.jp/LV/index.html" }, "geometry": { "type": "Point", "coordinates": [ 133.557353499999977, 33.7468936 ] } },
{ "type": "Feature", "properties": { "内容": "いの町立介護老人保健施設仁淀清流苑【介護老人保健施設】高知県吾川郡いの町1482-2", "url": "https://www.kaigokensaku.mhlw.go.jp/39/index.php?action_kouhyou_detail_004_kani=true&JigyosyoCd=3952480022-00&ServiceCd=520&Type=search", "url2": "http://www.town.ino.kochi.jp/niyodo-hospital/seiryuen.html" }, "geometry": { "type": "Point", "coordinates": [ 133.432886300000064, 33.5477047 ] } },
{ "type": "Feature", "properties": { "内容": "介護老人保健施設　希望【介護老人保健施設】高知県高岡郡佐川町甲１６８７番地", "url": "https://www.kaigokensaku.mhlw.go.jp/39/index.php?action_kouhyou_detail_004_kani=true&JigyosyoCd=3952580052-00&ServiceCd=520&Type=search", "url2": "http://www.town.sakawa.lg.jp/kouhoku_hospital/" }, "geometry": { "type": "Point", "coordinates": [ 133.287196162813188, 33.503859828730185 ] } },
{ "type": "Feature", "properties": { "内容": "介護老人保健施設　ライブリーハウス輝【介護老人保健施設】高岡郡越知町越知甲１６６７番地３", "url": "https://www.kaigokensaku.mhlw.go.jp/39/index.php?action_kouhyou_detail_004_kani=true&JigyosyoCd=3952580011-00&ServiceCd=520&Type=search", "url2": "http://www.kitajima-hp.com" }, "geometry": { "type": "Point", "coordinates": [ 133.253018500000053, 33.5307477 ] } }
]
}
