{
"type": "FeatureCollection",
"name": "geo_39_福祉用具貸与",
"crs": { "type": "name", "properties": { "name": "urn:ogc:def:crs:OGC:1.3:CRS84" } },
"features": [
{ "type": "Feature", "properties": { "内容": "株式会社　ＰＬＡＳＳＧ【福祉用具貸与】高知県高知市昭和町17番22号", "url": "https://www.kaigokensaku.mhlw.go.jp/39/index.php?action_kouhyou_detail_004_kani=true&JigyosyoCd=3970106120-00&ServiceCd=170&Type=search", "url2": null }, "geometry": { "type": "Point", "coordinates": [ 133.539086839632063, 33.570413466384302 ] } },
{ "type": "Feature", "properties": { "内容": "ザ　コンシェルジュ【福祉用具貸与】高知県高知市新田町19-23", "url": "https://www.kaigokensaku.mhlw.go.jp/39/index.php?action_kouhyou_detail_004_kani=true&JigyosyoCd=3970106567-00&ServiceCd=170&Type=search", "url2": null }, "geometry": { "type": "Point", "coordinates": [ 133.556610877909861, 33.549965447551131 ] } },
{ "type": "Feature", "properties": { "内容": "株式会社トーカイ高知営業所【福祉用具貸与】高知県高知市南久保14-10", "url": "https://www.kaigokensaku.mhlw.go.jp/39/index.php?action_kouhyou_detail_004_kani=true&JigyosyoCd=3970104919-00&ServiceCd=170&Type=search", "url2": "http://www.tokai-corp.com/silver/office/htm/sdetail.php?idx=46" }, "geometry": { "type": "Point", "coordinates": [ 133.564669800000047, 33.5676562 ] } },
{ "type": "Feature", "properties": { "内容": "土佐ガス株式会社　ａｉｃｏ【福祉用具貸与】高知県高知市朝倉西町1丁目10-16", "url": "https://www.kaigokensaku.mhlw.go.jp/39/index.php?action_kouhyou_detail_004_kani=true&JigyosyoCd=3970102830-00&ServiceCd=170&Type=search", "url2": "https://aico.tosagas.co.jp" }, "geometry": { "type": "Point", "coordinates": [ 133.481845799999974, 33.5399626 ] } },
{ "type": "Feature", "properties": { "内容": "福祉用具　ミカリ【福祉用具貸与】高知県高知市北新田町9-23", "url": "https://www.kaigokensaku.mhlw.go.jp/39/index.php?action_kouhyou_detail_004_kani=true&JigyosyoCd=3970106377-00&ServiceCd=170&Type=search", "url2": null }, "geometry": { "type": "Point", "coordinates": [ 133.550782352843044, 33.553265288680315 ] } },
{ "type": "Feature", "properties": { "内容": "有限会社　オフィス　ウエハラ　ケア　カンパニー【福祉用具貸与】高知県高知市高見町１９２－５", "url": "https://www.kaigokensaku.mhlw.go.jp/39/index.php?action_kouhyou_detail_004_kani=true&JigyosyoCd=3970101477-00&ServiceCd=170&Type=search", "url2": null }, "geometry": { "type": "Point", "coordinates": [ 133.53962839999997, 33.5405532 ] } },
{ "type": "Feature", "properties": { "内容": "株式会社ライフケア高知営業所【福祉用具貸与】高知県高知市天神町3番16号", "url": "https://www.kaigokensaku.mhlw.go.jp/39/index.php?action_kouhyou_detail_004_kani=true&JigyosyoCd=3970108142-00&ServiceCd=170&Type=search", "url2": "https://lifecare-ok.co.jp/" }, "geometry": { "type": "Point", "coordinates": [ 133.5411028, 33.5545575 ] } },
{ "type": "Feature", "properties": { "内容": "グッドコレクト【福祉用具貸与】高知県高知市潮新町１丁目１３番５号第一土南ビル102号", "url": "https://www.kaigokensaku.mhlw.go.jp/39/index.php?action_kouhyou_detail_004_kani=true&JigyosyoCd=3970108050-00&ServiceCd=170&Type=search", "url2": null }, "geometry": { "type": "Point", "coordinates": [ 133.547290299999986, 33.5516864 ] } },
{ "type": "Feature", "properties": { "内容": "有限会社　昭和メディカル【福祉用具貸与】高知市長浜1630-5", "url": "https://www.kaigokensaku.mhlw.go.jp/39/index.php?action_kouhyou_detail_004_kani=true&JigyosyoCd=3970100735-00&ServiceCd=170&Type=search", "url2": null }, "geometry": { "type": "Point", "coordinates": [ 133.539871799999986, 33.4998634 ] } },
{ "type": "Feature", "properties": { "内容": "株式会社マサキ・ウェルフェア春野事業所【福祉用具貸与】高知市春野町平和3393番地11", "url": "https://www.kaigokensaku.mhlw.go.jp/39/index.php?action_kouhyou_detail_004_kani=true&JigyosyoCd=3970103093-00&ServiceCd=170&Type=search", "url2": "http://masaki-welfare.com/" }, "geometry": { "type": "Point", "coordinates": [ 133.51634260000003, 33.5037928 ] } },
{ "type": "Feature", "properties": { "内容": "あじさいレンタルサービス【福祉用具貸与】高知県高知市朝倉丙534-1ケアビレッジあさくら内", "url": "https://www.kaigokensaku.mhlw.go.jp/39/index.php?action_kouhyou_detail_004_kani=true&JigyosyoCd=3970108191-00&ServiceCd=170&Type=search", "url2": "www.mizuho-medicare.com/" }, "geometry": { "type": "Point", "coordinates": [ 133.486434248224441, 33.555506360960834 ] } },
{ "type": "Feature", "properties": { "内容": "有限会社　共栄医療器店【福祉用具貸与】高知県高知市薊野北町２丁目１７番１０号", "url": "https://www.kaigokensaku.mhlw.go.jp/39/index.php?action_kouhyou_detail_004_kani=true&JigyosyoCd=3970100669-00&ServiceCd=170&Type=search", "url2": null }, "geometry": { "type": "Point", "coordinates": [ 133.5568343, 33.5814068 ] } },
{ "type": "Feature", "properties": { "内容": "ｱﾙﾌﾚｯｻ篠原化学株式会社【福祉用具貸与】高知県高知市大津甲264番地12", "url": "https://www.kaigokensaku.mhlw.go.jp/39/index.php?action_kouhyou_detail_004_kani=true&JigyosyoCd=3970100206-00&ServiceCd=170&Type=search", "url2": "http://www.e-shinohara.co.jp" }, "geometry": { "type": "Point", "coordinates": [ 133.62194244194481, 33.574872864507306 ] } },
{ "type": "Feature", "properties": { "内容": "株式会社TECHNOCRAFTKOCHI【福祉用具貸与】高知県高知市春野町弘岡中1716-3", "url": "https://www.kaigokensaku.mhlw.go.jp/39/index.php?action_kouhyou_detail_004_kani=true&JigyosyoCd=3970107649-00&ServiceCd=170&Type=search", "url2": null }, "geometry": { "type": "Point", "coordinates": [ 133.4651828, 33.5057853 ] } },
{ "type": "Feature", "properties": { "内容": "四国医療サービス　株式会社　福祉事業部　高知本部【福祉用具貸与】高知県高知市新田町20-24", "url": "https://www.kaigokensaku.mhlw.go.jp/39/index.php?action_kouhyou_detail_004_kani=true&JigyosyoCd=3970100370-00&ServiceCd=170&Type=search", "url2": "http://www.shikoku-ms.jp/" }, "geometry": { "type": "Point", "coordinates": [ 133.556337799999937, 33.5490749 ] } },
{ "type": "Feature", "properties": { "内容": "よこはまほっとステーション【福祉用具貸与】高知県高知市横浜東町２番47", "url": "https://www.kaigokensaku.mhlw.go.jp/39/index.php?action_kouhyou_detail_004_kani=true&JigyosyoCd=3970107862-00&ServiceCd=170&Type=search", "url2": "http://www.hottostation.com/rent/" }, "geometry": { "type": "Point", "coordinates": [ 133.5452305, 33.5226605 ] } },
{ "type": "Feature", "properties": { "内容": "まかせちょき【福祉用具貸与】高知市鴨部１丁目１１番２-２１０３号鏡川ｺｰﾎﾟ", "url": "https://www.kaigokensaku.mhlw.go.jp/39/index.php?action_kouhyou_detail_004_kani=true&JigyosyoCd=3970100578-00&ServiceCd=170&Type=search", "url2": null }, "geometry": { "type": "Point", "coordinates": [ 133.50442929999997, 33.5508425 ] } },
{ "type": "Feature", "properties": { "内容": "福祉用具レンタル・販売　心愛【福祉用具貸与】高知県高知市大津甲515番地1", "url": "https://www.kaigokensaku.mhlw.go.jp/39/index.php?action_kouhyou_detail_004_kani=true&JigyosyoCd=3970108084-00&ServiceCd=170&Type=search", "url2": "https://www.kochi-cocoa.com/rental-sale" }, "geometry": { "type": "Point", "coordinates": [ 133.6140298, 33.5771125 ] } },
{ "type": "Feature", "properties": { "内容": "有限会社石原産業福祉用具貸与販売事業所【福祉用具貸与】高知市北本町1丁目1-10", "url": "https://www.kaigokensaku.mhlw.go.jp/39/index.php?action_kouhyou_detail_004_kani=true&JigyosyoCd=3970100685-00&ServiceCd=170&Type=search", "url2": null }, "geometry": { "type": "Point", "coordinates": [ 133.541500566656509, 33.56492536571924 ] } },
{ "type": "Feature", "properties": { "内容": "ラミコジャパン株式会社　シルバーサポート高知店【福祉用具貸与】高知県高知市若草南町１７番１３号", "url": "https://www.kaigokensaku.mhlw.go.jp/39/index.php?action_kouhyou_detail_004_kani=true&JigyosyoCd=3970105841-00&ServiceCd=170&Type=search", "url2": "https://www.ramico.co.jp/" }, "geometry": { "type": "Point", "coordinates": [ 133.491098045403646, 33.541173155487783 ] } },
{ "type": "Feature", "properties": { "内容": "四国医療サービス株式会社　福祉事業部　安芸営業所【福祉用具貸与】高知県安芸市矢ノ丸1丁目７－８", "url": "https://www.kaigokensaku.mhlw.go.jp/39/index.php?action_kouhyou_detail_004_kani=true&JigyosyoCd=3970300251-00&ServiceCd=170&Type=search", "url2": null }, "geometry": { "type": "Point", "coordinates": [ 133.908590900000036, 33.5016326 ] } },
{ "type": "Feature", "properties": { "内容": "ミニパック株式会社【福祉用具貸与】高知県南国市岡豊町定林寺57-3", "url": "https://www.kaigokensaku.mhlw.go.jp/39/index.php?action_kouhyou_detail_004_kani=true&JigyosyoCd=3970400069-00&ServiceCd=170&Type=search", "url2": "http://www.minipack.co.jp" }, "geometry": { "type": "Point", "coordinates": [ 133.602021899999954, 33.5974282 ] } },
{ "type": "Feature", "properties": { "内容": "四国医療サービス株式会社　福祉事業部　須崎営業所【福祉用具貸与】大間西町２－１３", "url": "https://www.kaigokensaku.mhlw.go.jp/39/index.php?action_kouhyou_detail_004_kani=true&JigyosyoCd=3970600379-00&ServiceCd=170&Type=search", "url2": "http//www.shikoku-ms.jp" }, "geometry": { "type": "Point", "coordinates": [ 133.2841138, 33.4026031 ] } },
{ "type": "Feature", "properties": { "内容": "有限会社　あさひサービス【福祉用具貸与】高知県宿毛市高砂7-11", "url": "https://www.kaigokensaku.mhlw.go.jp/39/index.php?action_kouhyou_detail_004_kani=true&JigyosyoCd=3970900258-00&ServiceCd=170&Type=search", "url2": null }, "geometry": { "type": "Point", "coordinates": [ 132.704308500000025, 32.9265003 ] } },
{ "type": "Feature", "properties": { "内容": "株式会社マサキ・ウェルフェア西南事業所【福祉用具貸与】高知県宿毛市平田町東平1丁目5番11号", "url": "https://www.kaigokensaku.mhlw.go.jp/39/index.php?action_kouhyou_detail_004_kani=true&JigyosyoCd=3970900274-00&ServiceCd=170&Type=search", "url2": "http://masaki-welfare.com/" }, "geometry": { "type": "Point", "coordinates": [ 132.810532500000022, 32.9630448 ] } },
{ "type": "Feature", "properties": { "内容": "四国医療サービス株式会社四万十営業所【福祉用具貸与】高知県四万十市具同田黒1丁目14-39", "url": "https://www.kaigokensaku.mhlw.go.jp/39/index.php?action_kouhyou_detail_004_kani=true&JigyosyoCd=3971000090-00&ServiceCd=170&Type=search", "url2": "ｈｔｔｐ//www.shikoku-ms.jp" }, "geometry": { "type": "Point", "coordinates": [ 132.917387400000052, 32.9793265 ] } },
{ "type": "Feature", "properties": { "内容": "土佐ガス株式会社ａｉｃｏしまんと【福祉用具貸与】高知県四万十市古津賀1丁目139", "url": "https://www.kaigokensaku.mhlw.go.jp/39/index.php?action_kouhyou_detail_004_kani=true&JigyosyoCd=3971000447-00&ServiceCd=170&Type=search", "url2": "https://aico.tosagas.co.jp/" }, "geometry": { "type": "Point", "coordinates": [ 132.955932, 32.9848251 ] } },
{ "type": "Feature", "properties": { "内容": "株式会社トーカイ　四万十営業所【福祉用具貸与】高知県四万十市右山363-2", "url": "https://www.kaigokensaku.mhlw.go.jp/39/index.php?action_kouhyou_detail_004_kani=true&JigyosyoCd=3971000264-00&ServiceCd=170&Type=search", "url2": "http://www.tokai-corp.com/silver/office/htm/sdetail.php?idx=47" }, "geometry": { "type": "Point", "coordinates": [ 132.945562600000017, 32.9815853 ] } },
{ "type": "Feature", "properties": { "内容": "有限会社　第一四国【福祉用具貸与】吾川郡いの町6483-8", "url": "https://www.kaigokensaku.mhlw.go.jp/39/index.php?action_kouhyou_detail_004_kani=true&JigyosyoCd=3972400430-00&ServiceCd=170&Type=search", "url2": "https://www.daiichishikoku.com" }, "geometry": { "type": "Point", "coordinates": [ 133.446313061637852, 33.5479990878341 ] } }
]
}
