{
"type": "FeatureCollection",
"name": "geo_39_特定施設入居者生活介護（軽費老人ホーム）",
"crs": { "type": "name", "properties": { "name": "urn:ogc:def:crs:OGC:1.3:CRS84" } },
"features": [
{ "type": "Feature", "properties": { "内容": "ケアハウス　集家【特定施設入居者生活介護（軽費老人ホーム）】高知県高知市円行寺52-13", "url": "https://www.kaigokensaku.mhlw.go.jp/39/index.php?action_kouhyou_detail_004_kani=true&JigyosyoCd=3970100149-00&ServiceCd=332&Type=search", "url2": "http://www.sanjyukai.com/annai/syuke.htm" }, "geometry": { "type": "Point", "coordinates": [ 133.514018383695827, 33.583568007713616 ] } },
{ "type": "Feature", "properties": { "内容": "ケアハウス花の郷高知【特定施設入居者生活介護（軽費老人ホーム）】高知県高知市横浜20番１", "url": "https://www.kaigokensaku.mhlw.go.jp/39/index.php?action_kouhyou_detail_004_kani=true&JigyosyoCd=3970102236-00&ServiceCd=332&Type=search", "url2": "http://furusatokai.or.jp/" }, "geometry": { "type": "Point", "coordinates": [ 133.553691599999979, 33.5286189 ] } },
{ "type": "Feature", "properties": { "内容": "ケアハウス安芸【特定施設入居者生活介護（軽費老人ホーム）】高知県安芸市川北甲1812-15", "url": "https://www.kaigokensaku.mhlw.go.jp/39/index.php?action_kouhyou_detail_004_kani=true&JigyosyoCd=3970300160-00&ServiceCd=332&Type=search", "url2": "http://f-shizenmura.or.jp" }, "geometry": { "type": "Point", "coordinates": [ 133.915295600000036, 33.498 ] } },
{ "type": "Feature", "properties": { "内容": "ケアハウス　たんぽぽ【特定施設入居者生活介護（軽費老人ホーム）】高知県南国市岡豊町常通寺島335-3", "url": "https://www.kaigokensaku.mhlw.go.jp/39/index.php?action_kouhyou_detail_004_kani=true&JigyosyoCd=3970400184-00&ServiceCd=332&Type=search", "url2": "http://f-shizenmura.or.jp" }, "geometry": { "type": "Point", "coordinates": [ 133.617673, 33.5898936 ] } },
{ "type": "Feature", "properties": { "内容": "ケアハウス　つくしんぼ【特定施設入居者生活介護（軽費老人ホーム）】高知県南国市岡豊町中島1535番地", "url": "https://www.kaigokensaku.mhlw.go.jp/39/index.php?action_kouhyou_detail_004_kani=true&JigyosyoCd=3970400176-00&ServiceCd=332&Type=search", "url2": "http://f-shizenmura.or.jp" }, "geometry": { "type": "Point", "coordinates": [ 133.615562100000034, 33.5904046 ] } },
{ "type": "Feature", "properties": { "内容": "ケアハウス　白山荘【特定施設入居者生活介護（軽費老人ホーム）】高知県南国市稲生１３０３－１", "url": "https://www.kaigokensaku.mhlw.go.jp/39/index.php?action_kouhyou_detail_004_kani=true&JigyosyoCd=3970400549-00&ServiceCd=332&Type=search", "url2": "http://www.wakokai.net" }, "geometry": { "type": "Point", "coordinates": [ 133.6121822, 33.5451629 ] } },
{ "type": "Feature", "properties": { "内容": "ケアハウスすさき【特定施設入居者生活介護（軽費老人ホーム）】高知県須崎市多ノ郷甲562番地１", "url": "https://www.kaigokensaku.mhlw.go.jp/39/index.php?action_kouhyou_detail_004_kani=true&JigyosyoCd=3970600262-00&ServiceCd=332&Type=search", "url2": "http://www.kochi-aoba.com" }, "geometry": { "type": "Point", "coordinates": [ 133.2847137, 33.4121605 ] } },
{ "type": "Feature", "properties": { "内容": "ケアハウス　すくも【特定施設入居者生活介護（軽費老人ホーム）】高知県宿毛市平田町戸内1824番地", "url": "https://www.kaigokensaku.mhlw.go.jp/39/index.php?action_kouhyou_detail_004_kani=true&JigyosyoCd=3970900175-00&ServiceCd=332&Type=search", "url2": "https://www.aiseifukusikai.com/" }, "geometry": { "type": "Point", "coordinates": [ 132.7989493, 32.9599361 ] } },
{ "type": "Feature", "properties": { "内容": "ケアハウス四万十【特定施設入居者生活介護（軽費老人ホーム）】高知県四万十市中村山手通45-2ケアハウス四万十", "url": "https://www.kaigokensaku.mhlw.go.jp/39/index.php?action_kouhyou_detail_004_kani=true&JigyosyoCd=3971000454-00&ServiceCd=332&Type=search", "url2": "http://www.gallery.ne.jp/~hojuen/" }, "geometry": { "type": "Point", "coordinates": [ 132.9316816, 32.9923904 ] } },
{ "type": "Feature", "properties": { "内容": "ケアハウス虹の丘【特定施設入居者生活介護（軽費老人ホーム）】四万十市右山１９７３－６", "url": "https://www.kaigokensaku.mhlw.go.jp/39/index.php?action_kouhyou_detail_004_kani=true&JigyosyoCd=3971000074-00&ServiceCd=332&Type=search", "url2": "http://yusunoki.or.jp/" }, "geometry": { "type": "Point", "coordinates": [ 132.945226600000069, 32.9779495 ] } },
{ "type": "Feature", "properties": { "内容": "ケアハウス　菜の花【特定施設入居者生活介護（軽費老人ホーム）】高知県香南市野市町東野1632番地3", "url": "https://www.kaigokensaku.mhlw.go.jp/39/index.php?action_kouhyou_detail_004_kani=true&JigyosyoCd=3972100238-00&ServiceCd=332&Type=search", "url2": "http://f-shizenmura.or.jp" }, "geometry": { "type": "Point", "coordinates": [ 133.704396399999951, 33.558785 ] } },
{ "type": "Feature", "properties": { "内容": "ケアハウス好日館【特定施設入居者生活介護（軽費老人ホーム）】高知県香美市土佐山田町550番6", "url": "https://www.kaigokensaku.mhlw.go.jp/39/index.php?action_kouhyou_detail_004_kani=true&JigyosyoCd=3971200088-00&ServiceCd=332&Type=search", "url2": "http://www.welplaza.or.jp" }, "geometry": { "type": "Point", "coordinates": [ 133.675462499999981, 33.6090039 ] } },
{ "type": "Feature", "properties": { "内容": "社会福祉法人伊野福祉会　ケアハウスいの【特定施設入居者生活介護（軽費老人ホーム）】高知県吾川郡いの町波川560番2ケアハウスいの", "url": "https://www.kaigokensaku.mhlw.go.jp/39/index.php?action_kouhyou_detail_004_kani=true&JigyosyoCd=3972400844-00&ServiceCd=332&Type=search", "url2": "http://www.inofukushikai.com/" }, "geometry": { "type": "Point", "coordinates": [ 133.41085697074729, 33.546462663224048 ] } }
]
}
