{
"type": "FeatureCollection",
"name": "geo_39_認知症対応型共同生活介護",
"crs": { "type": "name", "properties": { "name": "urn:ogc:def:crs:OGC:1.3:CRS84" } },
"features": [
{ "type": "Feature", "properties": { "内容": "グループホーム絆・もりやま【認知症対応型共同生活介護】高知県高知市春野町森山3070－1", "url": "https://www.kaigokensaku.mhlw.go.jp/39/index.php?action_kouhyou_detail_004_kani=true&JigyosyoCd=3990100897-00&ServiceCd=320&Type=search", "url2": null }, "geometry": { "type": "Point", "coordinates": [ 133.459227700000042, 33.4948312 ] } },
{ "type": "Feature", "properties": { "内容": "グループホーム　絆・いしだて【認知症対応型共同生活介護】高知市東城山町115-5", "url": "https://www.kaigokensaku.mhlw.go.jp/39/index.php?action_kouhyou_detail_004_kani=true&JigyosyoCd=3990101283-00&ServiceCd=320&Type=search", "url2": "http://www.unvs.co.jp/" }, "geometry": { "type": "Point", "coordinates": [ 133.51713, 33.5496122 ] } },
{ "type": "Feature", "properties": { "内容": "グループホームうしおえ【認知症対応型共同生活介護】高知市梅ノ辻７－２", "url": "https://www.kaigokensaku.mhlw.go.jp/39/index.php?action_kouhyou_detail_004_kani=true&JigyosyoCd=3970101287-00&ServiceCd=320&Type=search", "url2": "takashiokai.jp" }, "geometry": { "type": "Point", "coordinates": [ 133.544449799999938, 33.5535462 ] } },
{ "type": "Feature", "properties": { "内容": "グループホーム春の森【認知症対応型共同生活介護】高知市春野町東諸木３１６３", "url": "https://www.kaigokensaku.mhlw.go.jp/39/index.php?action_kouhyou_detail_004_kani=true&JigyosyoCd=3990100228-00&ServiceCd=320&Type=search", "url2": null }, "geometry": { "type": "Point", "coordinates": [ 133.511087699999962, 33.4920854 ] } },
{ "type": "Feature", "properties": { "内容": "グループホーム　三つ星日記【認知症対応型共同生活介護】高知市一宮東町５丁目１－１５", "url": "https://www.kaigokensaku.mhlw.go.jp/39/index.php?action_kouhyou_detail_004_kani=true&JigyosyoCd=3990100368-00&ServiceCd=320&Type=search", "url2": "http://hata‐daialife.jp" }, "geometry": { "type": "Point", "coordinates": [ 133.577779700000065, 33.5889368 ] } },
{ "type": "Feature", "properties": { "内容": "グループホーム　朋楽【認知症対応型共同生活介護】高知県高知市はりまや町３丁目１６－８", "url": "https://www.kaigokensaku.mhlw.go.jp/39/index.php?action_kouhyou_detail_004_kani=true&JigyosyoCd=3970100636-00&ServiceCd=320&Type=search", "url2": "http://factory-com.co.jp" }, "geometry": { "type": "Point", "coordinates": [ 133.545871600000083, 33.5637783 ] } },
{ "type": "Feature", "properties": { "内容": "グループホーム　神田【認知症対応型共同生活介護】高知県高知市神田２３２２－１", "url": "https://www.kaigokensaku.mhlw.go.jp/39/index.php?action_kouhyou_detail_004_kani=true&JigyosyoCd=3990100012-00&ServiceCd=320&Type=search", "url2": "http://www.chisio-group.or.jp/" }, "geometry": { "type": "Point", "coordinates": [ 133.518610800000033, 33.5474128 ] } },
{ "type": "Feature", "properties": { "内容": "医療法人山村会　あさひ【認知症対応型共同生活介護】高知県高知市下島町124番1号介護複合施設　輝１F", "url": "https://www.kaigokensaku.mhlw.go.jp/39/index.php?action_kouhyou_detail_004_kani=true&JigyosyoCd=3990100715-00&ServiceCd=320&Type=search", "url2": "kagayaki@ia6.itkeeper.ne.jp" }, "geometry": { "type": "Point", "coordinates": [ 133.50713159999998, 33.5545922 ] } },
{ "type": "Feature", "properties": { "内容": "グループホーム浦戸の里【認知症対応型共同生活介護】高知市横浜20番1", "url": "https://www.kaigokensaku.mhlw.go.jp/39/index.php?action_kouhyou_detail_004_kani=true&JigyosyoCd=3970100990-00&ServiceCd=320&Type=search", "url2": "http://furusatokai.or.jp/publics/index/21" }, "geometry": { "type": "Point", "coordinates": [ 133.554190490876749, 33.528274568199194 ] } },
{ "type": "Feature", "properties": { "内容": "グループホームぐりーんはうす【認知症対応型共同生活介護】高知市瀬戸2丁目13番47号", "url": "https://www.kaigokensaku.mhlw.go.jp/39/index.php?action_kouhyou_detail_004_kani=true&JigyosyoCd=3970101923-00&ServiceCd=320&Type=search", "url2": "http://www.kochi-web.com/hp1/care/html1/html/g_hausu.html" }, "geometry": { "type": "Point", "coordinates": [ 133.545040800000038, 33.5048271 ] } },
{ "type": "Feature", "properties": { "内容": "グループホーム　あさくら【認知症対応型共同生活介護】高知県高知市朝倉丙533-1", "url": "https://www.kaigokensaku.mhlw.go.jp/39/index.php?action_kouhyou_detail_004_kani=true&JigyosyoCd=3990100517-00&ServiceCd=320&Type=search", "url2": "https://mizuhogroup.jp/vacancy_info/cv_asakura/cv_asakura_gh/" }, "geometry": { "type": "Point", "coordinates": [ 133.484992052639768, 33.555712746574009 ] } },
{ "type": "Feature", "properties": { "内容": "グループホーム　大津【認知症対応型共同生活介護】高知県高知市大津乙９２２－１", "url": "https://www.kaigokensaku.mhlw.go.jp/39/index.php?action_kouhyou_detail_004_kani=true&JigyosyoCd=3990100160-00&ServiceCd=320&Type=search", "url2": "http://f-shizenmura.or.jp" }, "geometry": { "type": "Point", "coordinates": [ 133.597386, 33.5711398 ] } },
{ "type": "Feature", "properties": { "内容": "グループホームほっと館【認知症対応型共同生活介護】高知市春野町秋山１５９９－１", "url": "https://www.kaigokensaku.mhlw.go.jp/39/index.php?action_kouhyou_detail_004_kani=true&JigyosyoCd=3990100210-00&ServiceCd=320&Type=search", "url2": null }, "geometry": { "type": "Point", "coordinates": [ 133.506552, 33.4879552 ] } },
{ "type": "Feature", "properties": { "内容": "グループホーム萠【認知症対応型共同生活介護】高知県高知市春野町西分2401-2", "url": "https://www.kaigokensaku.mhlw.go.jp/39/index.php?action_kouhyou_detail_004_kani=true&JigyosyoCd=3990100236-00&ServiceCd=320&Type=search", "url2": "http://www.moe-gh.com" }, "geometry": { "type": "Point", "coordinates": [ 133.49994659999993, 33.4946763 ] } },
{ "type": "Feature", "properties": { "内容": "グループホーム夕やけ小やけ【認知症対応型共同生活介護】高知市神田1002-1", "url": "https://www.kaigokensaku.mhlw.go.jp/39/index.php?action_kouhyou_detail_004_kani=true&JigyosyoCd=3990100459-00&ServiceCd=320&Type=search", "url2": "http://f-shizenmura.or.jp" }, "geometry": { "type": "Point", "coordinates": [ 133.505053076686409, 33.540472512762953 ] } },
{ "type": "Feature", "properties": { "内容": "グループホームやさしい里【認知症対応型共同生活介護】高知県高知市朝倉己７７１－１", "url": "https://www.kaigokensaku.mhlw.go.jp/39/index.php?action_kouhyou_detail_004_kani=true&JigyosyoCd=3970101634-00&ServiceCd=320&Type=search", "url2": "https://yasashii-group.jimdosite.com/" }, "geometry": { "type": "Point", "coordinates": [ 133.4897145, 33.5347412 ] } },
{ "type": "Feature", "properties": { "内容": "グループホーム　ひまわりの家【認知症対応型共同生活介護】高知市塚ノ原33-1", "url": "https://www.kaigokensaku.mhlw.go.jp/39/index.php?action_kouhyou_detail_004_kani=true&JigyosyoCd=3970100560-00&ServiceCd=320&Type=search", "url2": "http://www3.ocn.ne.jp/^josenkai/index.html" }, "geometry": { "type": "Point", "coordinates": [ 133.4949305, 33.5614937 ] } },
{ "type": "Feature", "properties": { "内容": "グループホーム西町【認知症対応型共同生活介護】高知市西町１１５番地グループホーム西町", "url": "https://www.kaigokensaku.mhlw.go.jp/39/index.php?action_kouhyou_detail_004_kani=true&JigyosyoCd=3970100396-00&ServiceCd=320&Type=search", "url2": "http://homepage2.nifty.com/jinseikai/" }, "geometry": { "type": "Point", "coordinates": [ 133.5220683, 33.5601753 ] } },
{ "type": "Feature", "properties": { "内容": "IMCグループホーム札場ハウス【認知症対応型共同生活介護】高知県高知市札場14番3号", "url": "https://www.kaigokensaku.mhlw.go.jp/39/index.php?action_kouhyou_detail_004_kani=true&JigyosyoCd=3970101329-00&ServiceCd=320&Type=search", "url2": "imc-ls.com" }, "geometry": { "type": "Point", "coordinates": [ 133.563456200000019, 33.5630845 ] } },
{ "type": "Feature", "properties": { "内容": "グループホーム　かづらしま【認知症対応型共同生活介護】高知県高知市葛島４丁目2番36号", "url": "https://www.kaigokensaku.mhlw.go.jp/39/index.php?action_kouhyou_detail_004_kani=true&JigyosyoCd=3990100350-00&ServiceCd=320&Type=search", "url2": "http://www.kounankai.jp/group_home.html" }, "geometry": { "type": "Point", "coordinates": [ 133.571544600000038, 33.5553254 ] } },
{ "type": "Feature", "properties": { "内容": "社会福祉法人　香南会　グループホームななつかたばみ【認知症対応型共同生活介護】高知県高知市長浜4972-5", "url": "https://www.kaigokensaku.mhlw.go.jp/39/index.php?action_kouhyou_detail_004_kani=true&JigyosyoCd=3990101168-00&ServiceCd=320&Type=search", "url2": "http://www.kounankai.jp/group_home.html" }, "geometry": { "type": "Point", "coordinates": [ 133.550864100000013, 33.5002621 ] } },
{ "type": "Feature", "properties": { "内容": "IMCグループホームうぐるすの家【認知症対応型共同生活介護】高知県高知市鵜来巣11番38-7号", "url": "https://www.kaigokensaku.mhlw.go.jp/39/index.php?action_kouhyou_detail_004_kani=true&JigyosyoCd=3970102103-00&ServiceCd=320&Type=search", "url2": "http://www.ugurusu@imc‐ls.com" }, "geometry": { "type": "Point", "coordinates": [ 133.484023400000069, 33.5403821 ] } },
{ "type": "Feature", "properties": { "内容": "グループホームいろは丸【認知症対応型共同生活介護】高知県高知市一宮西町１丁目５番１７号", "url": "https://www.kaigokensaku.mhlw.go.jp/39/index.php?action_kouhyou_detail_004_kani=true&JigyosyoCd=3990100061-00&ServiceCd=320&Type=search", "url2": "http://www.sanai-hospital.jp/cont3/cont3.html" }, "geometry": { "type": "Point", "coordinates": [ 133.566378185612052, 33.583402538641401 ] } },
{ "type": "Feature", "properties": { "内容": "グループホームしあわせ村【認知症対応型共同生活介護】高知市浦戸８３７－３０", "url": "https://www.kaigokensaku.mhlw.go.jp/39/index.php?action_kouhyou_detail_004_kani=true&JigyosyoCd=3990100129-00&ServiceCd=320&Type=search", "url2": "https://www.fuku-cij.jp/siawasemura/" }, "geometry": { "type": "Point", "coordinates": [ 133.561878799999931, 33.4932727 ] } },
{ "type": "Feature", "properties": { "内容": "グループホームつくしの里【認知症対応型共同生活介護】高知県高知市鴨部１０７９番地１", "url": "https://www.kaigokensaku.mhlw.go.jp/39/index.php?action_kouhyou_detail_004_kani=true&JigyosyoCd=3910117815-00&ServiceCd=320&Type=search", "url2": null }, "geometry": { "type": "Point", "coordinates": [ 133.504979300000059, 33.5475735 ] } },
{ "type": "Feature", "properties": { "内容": "IMCグループホーム一宮南【認知症対応型共同生活介護】高知県高知市一宮南町1丁目6-42", "url": "https://www.kaigokensaku.mhlw.go.jp/39/index.php?action_kouhyou_detail_004_kani=true&JigyosyoCd=3990101473-00&ServiceCd=320&Type=search", "url2": "https://imc-ls.com/" }, "geometry": { "type": "Point", "coordinates": [ 133.5676028, 33.5792239 ] } },
{ "type": "Feature", "properties": { "内容": "グループホーム憩いの生活館いっく【認知症対応型共同生活介護】高知県高知市一宮東町一丁目26-3", "url": "https://www.kaigokensaku.mhlw.go.jp/39/index.php?action_kouhyou_detail_004_kani=true&JigyosyoCd=3990100418-00&ServiceCd=320&Type=search", "url2": "http://www.life-tellus.jp" }, "geometry": { "type": "Point", "coordinates": [ 133.576640900000029, 33.5831321 ] } },
{ "type": "Feature", "properties": { "内容": "医療法人弘仁会　かもだの杜【認知症対応型共同生活介護】高知県高知市神田706-1", "url": "https://www.kaigokensaku.mhlw.go.jp/39/index.php?action_kouhyou_detail_004_kani=true&JigyosyoCd=3990100152-00&ServiceCd=320&Type=search", "url2": "http://www.kochikc.co.jp/okabayashihp/kamoda/kamoda.html" }, "geometry": { "type": "Point", "coordinates": [ 133.515425100000016, 33.5462517 ] } },
{ "type": "Feature", "properties": { "内容": "グループホーム虹の夢桟橋【認知症対応型共同生活介護】高知県高知市桟橋通1丁目12-17オリザビル", "url": "https://www.kaigokensaku.mhlw.go.jp/39/index.php?action_kouhyou_detail_004_kani=true&JigyosyoCd=3990100335-00&ServiceCd=320&Type=search", "url2": null }, "geometry": { "type": "Point", "coordinates": [ 133.5449999, 33.5509132 ] } },
{ "type": "Feature", "properties": { "内容": "グループホーム赤とんぼ【認知症対応型共同生活介護】高知県高知市万々３９７", "url": "https://www.kaigokensaku.mhlw.go.jp/39/index.php?action_kouhyou_detail_004_kani=true&JigyosyoCd=3970101188-00&ServiceCd=320&Type=search", "url2": null }, "geometry": { "type": "Point", "coordinates": [ 133.516525073016368, 33.576040879471478 ] } },
{ "type": "Feature", "properties": { "内容": "グループホーム　ほのぼのの家【認知症対応型共同生活介護】高知市朝倉丙1633-17", "url": "https://www.kaigokensaku.mhlw.go.jp/39/index.php?action_kouhyou_detail_004_kani=true&JigyosyoCd=3970100271-00&ServiceCd=320&Type=search", "url2": "http://www.nagaisakanokai.com/honobononoie/" }, "geometry": { "type": "Point", "coordinates": [ 133.475874746971613, 33.553364271490764 ] } },
{ "type": "Feature", "properties": { "内容": "ＩＭＣグループホームセゾン薊野【認知症対応型共同生活介護】高知市薊野東町２－１０", "url": "https://www.kaigokensaku.mhlw.go.jp/39/index.php?action_kouhyou_detail_004_kani=true&JigyosyoCd=3970101311-00&ServiceCd=320&Type=search", "url2": "http://www.medicalpark-imc.com/ls/business2/2.html" }, "geometry": { "type": "Point", "coordinates": [ 133.5605951, 33.5821012 ] } },
{ "type": "Feature", "properties": { "内容": "グループホームさくらんぼ【認知症対応型共同生活介護】高知県高知市上町3丁目4-24", "url": "https://www.kaigokensaku.mhlw.go.jp/39/index.php?action_kouhyou_detail_004_kani=true&JigyosyoCd=3970102061-00&ServiceCd=320&Type=search", "url2": "http://hosogi-hospital.jp/atc000003.htm" }, "geometry": { "type": "Point", "coordinates": [ 133.521457290178347, 33.557892351593971 ] } },
{ "type": "Feature", "properties": { "内容": "ニチイケアセンター高知桂浜【認知症対応型共同生活介護】高知市長浜5887-14", "url": "https://www.kaigokensaku.mhlw.go.jp/39/index.php?action_kouhyou_detail_004_kani=true&JigyosyoCd=3990100343-00&ServiceCd=320&Type=search", "url2": null }, "geometry": { "type": "Point", "coordinates": [ 133.55723480000006, 33.4932615 ] } },
{ "type": "Feature", "properties": { "内容": "ＩＭＣグループホーム大原【認知症対応型共同生活介護】高知県高知市大原町８８－２", "url": "https://www.kaigokensaku.mhlw.go.jp/39/index.php?action_kouhyou_detail_004_kani=true&JigyosyoCd=3990100327-00&ServiceCd=320&Type=search", "url2": null }, "geometry": { "type": "Point", "coordinates": [ 133.527057, 33.5521431 ] } },
{ "type": "Feature", "properties": { "内容": "グループホームいこいの森【認知症対応型共同生活介護】旭町2丁目38－5", "url": "https://www.kaigokensaku.mhlw.go.jp/39/index.php?action_kouhyou_detail_004_kani=true&JigyosyoCd=3990100566-00&ServiceCd=320&Type=search", "url2": "http://www.151.ecweb.jp/" }, "geometry": { "type": "Point", "coordinates": [ 133.508953600000041, 33.5556227 ] } },
{ "type": "Feature", "properties": { "内容": "グループホームいこいの森福井町【認知症対応型共同生活介護】高知県高知市福井町1432番地1", "url": "https://www.kaigokensaku.mhlw.go.jp/39/index.php?action_kouhyou_detail_004_kani=true&JigyosyoCd=3990100574-00&ServiceCd=320&Type=search", "url2": "http://www.151.ecweb.jp" }, "geometry": { "type": "Point", "coordinates": [ 133.514216499999947, 33.5674297 ] } },
{ "type": "Feature", "properties": { "内容": "グループホーム　絆・じょうやま【認知症対応型共同生活介護】高知県高知市東城山町121-6グループホーム　絆・じょうやま", "url": "https://www.kaigokensaku.mhlw.go.jp/39/index.php?action_kouhyou_detail_004_kani=true&JigyosyoCd=3990101812-00&ServiceCd=320&Type=search", "url2": "http://unvs.co.jp/" }, "geometry": { "type": "Point", "coordinates": [ 133.5175399, 33.5494058 ] } },
{ "type": "Feature", "properties": { "内容": "グループホーム絆・きのせ【認知症対応型共同生活介護】高知県高知市春野町森山3076-3", "url": "https://www.kaigokensaku.mhlw.go.jp/39/index.php?action_kouhyou_detail_004_kani=true&JigyosyoCd=3990101838-00&ServiceCd=320&Type=search", "url2": "http://unvs.co.jp/" }, "geometry": { "type": "Point", "coordinates": [ 133.4696475, 33.4911707 ] } },
{ "type": "Feature", "properties": { "内容": "けあビジョンホーム高知【認知症対応型共同生活介護】高知県高知市神田２２５７－１", "url": "https://www.kaigokensaku.mhlw.go.jp/39/index.php?action_kouhyou_detail_004_kani=true&JigyosyoCd=3990101804-00&ServiceCd=320&Type=search", "url2": null }, "geometry": { "type": "Point", "coordinates": [ 133.5204769, 33.5445165 ] } },
{ "type": "Feature", "properties": { "内容": "社会福祉法人伊野福祉会　グループホームあさかぜ【認知症対応型共同生活介護】高知県高知市槇山町12-5", "url": "https://www.kaigokensaku.mhlw.go.jp/39/index.php?action_kouhyou_detail_004_kani=true&JigyosyoCd=3990101770-00&ServiceCd=320&Type=search", "url2": "https://www.inofukushikai.com/" }, "geometry": { "type": "Point", "coordinates": [ 133.484084, 33.5363518 ] } },
{ "type": "Feature", "properties": { "内容": "高知市御畳瀬192－1【認知症対応型共同生活介護】高知県高知市御畳瀬192－1", "url": "https://www.kaigokensaku.mhlw.go.jp/39/index.php?action_kouhyou_detail_004_kani=true&JigyosyoCd=3990100673-00&ServiceCd=320&Type=search", "url2": null }, "geometry": { "type": "Point", "coordinates": [ 133.556398400000035, 33.5047218 ] } },
{ "type": "Feature", "properties": { "内容": "グループホーム針木虹の夢【認知症対応型共同生活介護】高知県高知市針木東町7番32号", "url": "https://www.kaigokensaku.mhlw.go.jp/39/index.php?action_kouhyou_detail_004_kani=true&JigyosyoCd=3970101212-00&ServiceCd=320&Type=search", "url2": null }, "geometry": { "type": "Point", "coordinates": [ 133.476051900000016, 33.534638 ] } },
{ "type": "Feature", "properties": { "内容": "グループホーム　やすらぎ【認知症対応型共同生活介護】高知県高知市塩田町　１９－２６", "url": "https://www.kaigokensaku.mhlw.go.jp/39/index.php?action_kouhyou_detail_004_kani=true&JigyosyoCd=3910116395-00&ServiceCd=320&Type=search", "url2": "http://www.shimazuhp.jp/yasuragi.htm" }, "geometry": { "type": "Point", "coordinates": [ 133.546726900000067, 33.5725439 ] } },
{ "type": "Feature", "properties": { "内容": "グループホームハッピー万々【認知症対応型共同生活介護】高知県高知市万々４８４－１", "url": "https://www.kaigokensaku.mhlw.go.jp/39/index.php?action_kouhyou_detail_004_kani=true&JigyosyoCd=3970100776-00&ServiceCd=320&Type=search", "url2": "http://hosogi-hospital.jp/atc000005.htm" }, "geometry": { "type": "Point", "coordinates": [ 133.515810800000054, 33.576787 ] } },
{ "type": "Feature", "properties": { "内容": "IMCグループホーム高須【認知症対応型共同生活介護】高知市高須２丁目１４－７", "url": "https://www.kaigokensaku.mhlw.go.jp/39/index.php?action_kouhyou_detail_004_kani=true&JigyosyoCd=3990100277-00&ServiceCd=320&Type=search", "url2": "http://www.medicalpark-imc.com/ls/business2/4.html" }, "geometry": { "type": "Point", "coordinates": [ 133.586262499999947, 33.561927 ] } },
{ "type": "Feature", "properties": { "内容": "グループホーム　あざみの家【認知症対応型共同生活介護】高知県高知市薊野北町2丁目25番8号", "url": "https://www.kaigokensaku.mhlw.go.jp/39/index.php?action_kouhyou_detail_004_kani=true&JigyosyoCd=3970101352-00&ServiceCd=320&Type=search", "url2": "https://hata-dialife.jp" }, "geometry": { "type": "Point", "coordinates": [ 133.55632049999997, 33.5835314 ] } },
{ "type": "Feature", "properties": { "内容": "グループホーム秦いきいき学校【認知症対応型共同生活介護】高知市中秦泉寺８７番地１", "url": "https://www.kaigokensaku.mhlw.go.jp/39/index.php?action_kouhyou_detail_004_kani=true&JigyosyoCd=3970101915-00&ServiceCd=320&Type=search", "url2": "https://www.fukudacl.or.jp" }, "geometry": { "type": "Point", "coordinates": [ 133.537300100000039, 33.5794177 ] } },
{ "type": "Feature", "properties": { "内容": "グループホーム　エルダー介良【認知症対応型共同生活介護】高知県高知市介良乙３７３４番地５", "url": "https://www.kaigokensaku.mhlw.go.jp/39/index.php?action_kouhyou_detail_004_kani=true&JigyosyoCd=3990101879-00&ServiceCd=320&Type=search", "url2": null }, "geometry": { "type": "Point", "coordinates": [ 133.6064723, 33.5665949 ] } },
{ "type": "Feature", "properties": { "内容": "グループホームトマトの樹【認知症対応型共同生活介護】高知市介良乙８８３番地２", "url": "https://www.kaigokensaku.mhlw.go.jp/39/index.php?action_kouhyou_detail_004_kani=true&JigyosyoCd=3970102160-00&ServiceCd=320&Type=search", "url2": "http://www.netfamily.jp" }, "geometry": { "type": "Point", "coordinates": [ 133.598072199999933, 33.5643129 ] } },
{ "type": "Feature", "properties": { "内容": "グループホームステラ【認知症対応型共同生活介護】桟橋通５丁目６－１２ステラ桟橋１階", "url": "https://www.kaigokensaku.mhlw.go.jp/39/index.php?action_kouhyou_detail_004_kani=true&JigyosyoCd=3990100863-00&ServiceCd=320&Type=search", "url2": "http://www.inofukushikai.com/" }, "geometry": { "type": "Point", "coordinates": [ 133.550863599999957, 33.5391176 ] } },
{ "type": "Feature", "properties": { "内容": "グループホーム　なかよし【認知症対応型共同生活介護】高知県室戸市元甲２０６－１", "url": "https://www.kaigokensaku.mhlw.go.jp/39/index.php?action_kouhyou_detail_004_kani=true&JigyosyoCd=3970200139-00&ServiceCd=320&Type=search", "url2": "http://tokumasukougyou.com" }, "geometry": { "type": "Point", "coordinates": [ 134.133672403829877, 33.299062295972568 ] } },
{ "type": "Feature", "properties": { "内容": "グループホームびわの里【認知症対応型共同生活介護】高知県室戸市室津15番1", "url": "https://www.kaigokensaku.mhlw.go.jp/39/index.php?action_kouhyou_detail_004_kani=true&JigyosyoCd=3970200113-00&ServiceCd=320&Type=search", "url2": "http://www.kounankai.jp/group_home.html" }, "geometry": { "type": "Point", "coordinates": [ 134.164161599999943, 33.2680092 ] } },
{ "type": "Feature", "properties": { "内容": "グループホーム　ひのでの館【認知症対応型共同生活介護】高知県安芸市日ノ出町7番33号", "url": "https://www.kaigokensaku.mhlw.go.jp/39/index.php?action_kouhyou_detail_004_kani=true&JigyosyoCd=3990300026-00&ServiceCd=320&Type=search", "url2": null }, "geometry": { "type": "Point", "coordinates": [ 133.9081658, 33.4972776 ] } },
{ "type": "Feature", "properties": { "内容": "グループホーム「うちはらの」【認知症対応型共同生活介護】高知県安芸市川北乙1756番地10", "url": "https://www.kaigokensaku.mhlw.go.jp/39/index.php?action_kouhyou_detail_004_kani=true&JigyosyoCd=3990300034-00&ServiceCd=320&Type=search", "url2": "http://tsutsujinooka.jp/" }, "geometry": { "type": "Point", "coordinates": [ 133.904554, 33.509411 ] } },
{ "type": "Feature", "properties": { "内容": "グループホーム安芸【認知症対応型共同生活介護】高知県安芸市川北甲1812-15", "url": "https://www.kaigokensaku.mhlw.go.jp/39/index.php?action_kouhyou_detail_004_kani=true&JigyosyoCd=3970300152-00&ServiceCd=320&Type=search", "url2": "http://f-shizenmura.or.jp" }, "geometry": { "type": "Point", "coordinates": [ 133.915292799999946, 33.4979583 ] } },
{ "type": "Feature", "properties": { "内容": "グループホームあい【認知症対応型共同生活介護】高知県安芸市川北甲3731", "url": "https://www.kaigokensaku.mhlw.go.jp/39/index.php?action_kouhyou_detail_004_kani=true&JigyosyoCd=3970300129-00&ServiceCd=320&Type=search", "url2": "http://www.kounankai.jp/" }, "geometry": { "type": "Point", "coordinates": [ 133.933429499999988, 33.5095823 ] } },
{ "type": "Feature", "properties": { "内容": "グループホームひよし【認知症対応型共同生活介護】高知県南国市日吉町３丁目2-33グループホームひよし", "url": "https://www.kaigokensaku.mhlw.go.jp/39/index.php?action_kouhyou_detail_004_kani=true&JigyosyoCd=3990400040-00&ServiceCd=320&Type=search", "url2": null }, "geometry": { "type": "Point", "coordinates": [ 133.6431374, 33.5775566 ] } },
{ "type": "Feature", "properties": { "内容": "グループホーム青い鳥【認知症対応型共同生活介護】南国市篠原７０８－１", "url": "https://www.kaigokensaku.mhlw.go.jp/39/index.php?action_kouhyou_detail_004_kani=true&JigyosyoCd=3970400218-00&ServiceCd=320&Type=search", "url2": null }, "geometry": { "type": "Point", "coordinates": [ 133.628721600000063, 33.5747953 ] } },
{ "type": "Feature", "properties": { "内容": "グループホーム　なんごく【認知症対応型共同生活介護】高知県南国市岡豊町中島石ケ坪１２９８", "url": "https://www.kaigokensaku.mhlw.go.jp/39/index.php?action_kouhyou_detail_004_kani=true&JigyosyoCd=3970400234-00&ServiceCd=320&Type=search", "url2": "http://f-shizenmura.or.jp" }, "geometry": { "type": "Point", "coordinates": [ 133.614418161099252, 33.589541091642175 ] } },
{ "type": "Feature", "properties": { "内容": "グループホーム　ふなとの里【認知症対応型共同生活介護】高知県南国市下島丙179番地1", "url": "https://www.kaigokensaku.mhlw.go.jp/39/index.php?action_kouhyou_detail_004_kani=true&JigyosyoCd=3970400267-00&ServiceCd=320&Type=search", "url2": "http://www.kounankai.jp/group_home.html" }, "geometry": { "type": "Point", "coordinates": [ 133.666813600000069, 33.5405865 ] } },
{ "type": "Feature", "properties": { "内容": "グループホーム　レッツ【認知症対応型共同生活介護】南国市里改田１１３５番地１", "url": "https://www.kaigokensaku.mhlw.go.jp/39/index.php?action_kouhyou_detail_004_kani=true&JigyosyoCd=3970400200-00&ServiceCd=320&Type=search", "url2": null }, "geometry": { "type": "Point", "coordinates": [ 133.637426900000037, 33.5461965 ] } },
{ "type": "Feature", "properties": { "内容": "グループホーム左右山【認知症対応型共同生活介護】高知県南国市左右山１７０番地１号", "url": "https://www.kaigokensaku.mhlw.go.jp/39/index.php?action_kouhyou_detail_004_kani=true&JigyosyoCd=3970400226-00&ServiceCd=320&Type=search", "url2": null }, "geometry": { "type": "Point", "coordinates": [ 133.641837799999962, 33.6089673 ] } },
{ "type": "Feature", "properties": { "内容": "医療法人　千博会　グループホーム　ワルツ【認知症対応型共同生活介護】高知県南国市立田1168-1", "url": "https://www.kaigokensaku.mhlw.go.jp/39/index.php?action_kouhyou_detail_004_kani=true&JigyosyoCd=3990400073-00&ServiceCd=320&Type=search", "url2": null }, "geometry": { "type": "Point", "coordinates": [ 133.6709975, 33.5683225 ] } },
{ "type": "Feature", "properties": { "内容": "グループホーム　まんさくの里【認知症対応型共同生活介護】高知県土佐市塚地３３１－１", "url": "https://www.kaigokensaku.mhlw.go.jp/39/index.php?action_kouhyou_detail_004_kani=true&JigyosyoCd=3990500013-00&ServiceCd=320&Type=search", "url2": null }, "geometry": { "type": "Point", "coordinates": [ 133.439538199999987, 33.4810715 ] } },
{ "type": "Feature", "properties": { "内容": "グループホームすずらん【認知症対応型共同生活介護】土佐市高岡町甲1684番地5", "url": "https://www.kaigokensaku.mhlw.go.jp/39/index.php?action_kouhyou_detail_004_kani=true&JigyosyoCd=3970500249-00&ServiceCd=320&Type=search", "url2": null }, "geometry": { "type": "Point", "coordinates": [ 133.4269696, 33.4922253 ] } },
{ "type": "Feature", "properties": { "内容": "いこいの里　さくら貝【認知症対応型共同生活介護】高知県土佐市宇佐町宇佐汐浜２８４１", "url": "https://www.kaigokensaku.mhlw.go.jp/39/index.php?action_kouhyou_detail_004_kani=true&JigyosyoCd=3970500322-00&ServiceCd=320&Type=search", "url2": "http://www.ikoi-kochi.jp/institution/cher/cher_group/" }, "geometry": { "type": "Point", "coordinates": [ 133.4348622, 33.4380185 ] } },
{ "type": "Feature", "properties": { "内容": "愛の家グループホーム土佐蓮池【認知症対応型共同生活介護】高知県土佐市蓮池１２２７－２", "url": "https://www.kaigokensaku.mhlw.go.jp/39/index.php?action_kouhyou_detail_004_kani=true&JigyosyoCd=3970500272-00&ServiceCd=320&Type=search", "url2": "http://mcs-ainoie.com/ins15.html" }, "geometry": { "type": "Point", "coordinates": [ 133.4129266, 33.4926528 ] } },
{ "type": "Feature", "properties": { "内容": "グループホームさつき【認知症対応型共同生活介護】土佐市高岡町甲２０６５－２", "url": "https://www.kaigokensaku.mhlw.go.jp/39/index.php?action_kouhyou_detail_004_kani=true&JigyosyoCd=3970500306-00&ServiceCd=320&Type=search", "url2": null }, "geometry": { "type": "Point", "coordinates": [ 133.427911, 33.4967802 ] } },
{ "type": "Feature", "properties": { "内容": "グループホームたかおか【認知症対応型共同生活介護】高知県土佐市高岡町甲508-1", "url": "https://www.kaigokensaku.mhlw.go.jp/39/index.php?action_kouhyou_detail_004_kani=true&JigyosyoCd=3990500054-00&ServiceCd=320&Type=search", "url2": "http://mizuho-medicare.com/" }, "geometry": { "type": "Point", "coordinates": [ 133.4384741, 33.490984 ] } },
{ "type": "Feature", "properties": { "内容": "グループホーム　友輪【認知症対応型共同生活介護】土佐市　蓮池3625番１", "url": "https://www.kaigokensaku.mhlw.go.jp/39/index.php?action_kouhyou_detail_004_kani=true&JigyosyoCd=3970500231-00&ServiceCd=320&Type=search", "url2": null }, "geometry": { "type": "Point", "coordinates": [ 133.401686299999938, 33.482929 ] } },
{ "type": "Feature", "properties": { "内容": "グループホームすさき【認知症対応型共同生活介護】高知県須崎市多ノ郷甲５７４１", "url": "https://www.kaigokensaku.mhlw.go.jp/39/index.php?action_kouhyou_detail_004_kani=true&JigyosyoCd=3990600045-00&ServiceCd=320&Type=search", "url2": "https://mizuhogroup.jp/" }, "geometry": { "type": "Point", "coordinates": [ 133.2839305, 33.4089969 ] } },
{ "type": "Feature", "properties": { "内容": "グループホーム　新荘の里【認知症対応型共同生活介護】須崎市下分甲606-3", "url": "https://www.kaigokensaku.mhlw.go.jp/39/index.php?action_kouhyou_detail_004_kani=true&JigyosyoCd=3990600037-00&ServiceCd=320&Type=search", "url2": "http://www.chisio-group.or.jp/" }, "geometry": { "type": "Point", "coordinates": [ 133.268921699999964, 33.391465300000043 ] } },
{ "type": "Feature", "properties": { "内容": "グループホーム　やまざくらの里【認知症対応型共同生活介護】高知県須崎市安和693", "url": "https://www.kaigokensaku.mhlw.go.jp/39/index.php?action_kouhyou_detail_004_kani=true&JigyosyoCd=3990600029-00&ServiceCd=320&Type=search", "url2": "http://www.kounankai.jp/group_home.html" }, "geometry": { "type": "Point", "coordinates": [ 133.251638250509586, 33.363677269129042 ] } },
{ "type": "Feature", "properties": { "内容": "シルバーホームおおの郷【認知症対応型共同生活介護】高知県須崎市多ノ郷甲1136-2", "url": "https://www.kaigokensaku.mhlw.go.jp/39/index.php?action_kouhyou_detail_004_kani=true&JigyosyoCd=3970600197-00&ServiceCd=320&Type=search", "url2": "https://susaki-medicalclinic.jp/" }, "geometry": { "type": "Point", "coordinates": [ 133.279372599999988, 33.4164461 ] } },
{ "type": "Feature", "properties": { "内容": "グループホームぬっく須崎【認知症対応型共同生活介護】高知県須崎市妙見町11-6", "url": "https://www.kaigokensaku.mhlw.go.jp/39/index.php?action_kouhyou_detail_004_kani=true&JigyosyoCd=3970600239-00&ServiceCd=320&Type=search", "url2": "http://susaki-kuroshio-hp.or.jp/publics/index/16/" }, "geometry": { "type": "Point", "coordinates": [ 133.295907199999988, 33.4132216 ] } },
{ "type": "Feature", "properties": { "内容": "グループホーム　花みずき【認知症対応型共同生活介護】宿毛市港南台2丁目9-25", "url": "https://www.kaigokensaku.mhlw.go.jp/39/index.php?action_kouhyou_detail_004_kani=true&JigyosyoCd=3970900142-00&ServiceCd=320&Type=search", "url2": "https://www.wankara.net" }, "geometry": { "type": "Point", "coordinates": [ 132.681808300000057, 32.9293489 ] } },
{ "type": "Feature", "properties": { "内容": "グループホームこすもす【認知症対応型共同生活介護】高知県宿毛市宿毛5373-5", "url": "https://www.kaigokensaku.mhlw.go.jp/39/index.php?action_kouhyou_detail_004_kani=true&JigyosyoCd=3990900031-00&ServiceCd=320&Type=search", "url2": "https://kuroshiofukushikai.com" }, "geometry": { "type": "Point", "coordinates": [ 132.706527580356607, 32.929748436110238 ] } },
{ "type": "Feature", "properties": { "内容": "グループホーム　宿毛の里【認知症対応型共同生活介護】宿毛市二ノ宮１７９５番地", "url": "https://www.kaigokensaku.mhlw.go.jp/39/index.php?action_kouhyou_detail_004_kani=true&JigyosyoCd=3970900092-00&ServiceCd=320&Type=search", "url2": null }, "geometry": { "type": "Point", "coordinates": [ 132.734065500000042, 32.9527876 ] } },
{ "type": "Feature", "properties": { "内容": "グループホームえやんばい【認知症対応型共同生活介護】高知県宿毛市平田町戸内１８２２番地２", "url": "https://www.kaigokensaku.mhlw.go.jp/39/index.php?action_kouhyou_detail_004_kani=true&JigyosyoCd=3970900126-00&ServiceCd=320&Type=search", "url2": null }, "geometry": { "type": "Point", "coordinates": [ 132.798812, 32.9600889 ] } },
{ "type": "Feature", "properties": { "内容": "グループホームあんきな家【認知症対応型共同生活介護】高知県土佐清水市加久見1464-279社会福祉法人あんきな家", "url": "https://www.kaigokensaku.mhlw.go.jp/39/index.php?action_kouhyou_detail_004_kani=true&JigyosyoCd=3990800033-00&ServiceCd=320&Type=search", "url2": "https://fuku-seiwakai.com/info/" }, "geometry": { "type": "Point", "coordinates": [ 132.9260722, 32.7851529 ] } },
{ "type": "Feature", "properties": { "内容": "ゆうゆうホーム【認知症対応型共同生活介護】高知県土佐清水市浦尻449番2", "url": "https://www.kaigokensaku.mhlw.go.jp/39/index.php?action_kouhyou_detail_004_kani=true&JigyosyoCd=3970800060-00&ServiceCd=320&Type=search", "url2": "www.jinshinkai.jp" }, "geometry": { "type": "Point", "coordinates": [ 132.976711814534042, 32.788703785635462 ] } },
{ "type": "Feature", "properties": { "内容": "グループホーム　第三百日紅の家【認知症対応型共同生活介護】グリーンハイツ42番地27号", "url": "https://www.kaigokensaku.mhlw.go.jp/39/index.php?action_kouhyou_detail_004_kani=true&JigyosyoCd=3990800058-00&ServiceCd=320&Type=search", "url2": null }, "geometry": { "type": "Point", "coordinates": [ 132.969398100000035, 32.7890246 ] } },
{ "type": "Feature", "properties": { "内容": "グループホーム　第二百日紅の家【認知症対応型共同生活介護】高知県土佐清水市グリーンハイツ42番1号", "url": "https://www.kaigokensaku.mhlw.go.jp/39/index.php?action_kouhyou_detail_004_kani=true&JigyosyoCd=3970800144-00&ServiceCd=320&Type=search", "url2": "https://sarusuberi.jp/" }, "geometry": { "type": "Point", "coordinates": [ 132.969359199999985, 32.7887774 ] } },
{ "type": "Feature", "properties": { "内容": "グループホーム　百日紅の家【認知症対応型共同生活介護】高知県土佐清水市グリーンハイツ20-21", "url": "https://www.kaigokensaku.mhlw.go.jp/39/index.php?action_kouhyou_detail_004_kani=true&JigyosyoCd=3970800086-00&ServiceCd=320&Type=search", "url2": "https://sarusuberi.jp" }, "geometry": { "type": "Point", "coordinates": [ 132.97288869999997, 32.7904183 ] } },
{ "type": "Feature", "properties": { "内容": "グループホームなのはな【認知症対応型共同生活介護】高知県四万十市山路308‐1グループホームなのはな", "url": "https://www.kaigokensaku.mhlw.go.jp/39/index.php?action_kouhyou_detail_004_kani=true&JigyosyoCd=3991000153-00&ServiceCd=320&Type=search", "url2": "https://kuroshiofukushikai.com" }, "geometry": { "type": "Point", "coordinates": [ 132.944130800000011, 32.9595628 ] } },
{ "type": "Feature", "properties": { "内容": "グループホームやまもも【認知症対応型共同生活介護】入田３５５７", "url": "https://www.kaigokensaku.mhlw.go.jp/39/index.php?action_kouhyou_detail_004_kani=true&JigyosyoCd=3991000146-00&ServiceCd=320&Type=search", "url2": "https://kuroshiofukushikai.com" }, "geometry": { "type": "Point", "coordinates": [ 132.919209, 32.991136 ] } },
{ "type": "Feature", "properties": { "内容": "グループホーム紡ぎの家いちい【認知症対応型共同生活介護】高知県四万十市西土佐大宮594番地3", "url": "https://www.kaigokensaku.mhlw.go.jp/39/index.php?action_kouhyou_detail_004_kani=true&JigyosyoCd=3991000070-00&ServiceCd=320&Type=search", "url2": null }, "geometry": { "type": "Point", "coordinates": [ 132.736633, 33.1433242 ] } },
{ "type": "Feature", "properties": { "内容": "グループホーム　しらふじ【認知症対応型共同生活介護】高知県四万十市井沢３７番地３", "url": "https://www.kaigokensaku.mhlw.go.jp/39/index.php?action_kouhyou_detail_004_kani=true&JigyosyoCd=3970700161-00&ServiceCd=320&Type=search", "url2": "http://yusunoki.or.jp" }, "geometry": { "type": "Point", "coordinates": [ 132.964175612177996, 32.975209781944734 ] } },
{ "type": "Feature", "properties": { "内容": "グループホーム　小夏【認知症対応型共同生活介護】高知県四万十市古津賀2丁目174番", "url": "https://www.kaigokensaku.mhlw.go.jp/39/index.php?action_kouhyou_detail_004_kani=true&JigyosyoCd=3991000112-00&ServiceCd=320&Type=search", "url2": null }, "geometry": { "type": "Point", "coordinates": [ 132.959525100000064, 32.98946 ] } },
{ "type": "Feature", "properties": { "内容": "グループホームにしとさ【認知症対応型共同生活介護】四万十市西土佐用井1110-39", "url": "https://www.kaigokensaku.mhlw.go.jp/39/index.php?action_kouhyou_detail_004_kani=true&JigyosyoCd=3972600047-00&ServiceCd=320&Type=search", "url2": "https://nishitosa-kawasemi.jp/" }, "geometry": { "type": "Point", "coordinates": [ 132.794414700000061, 33.1738493 ] } },
{ "type": "Feature", "properties": { "内容": "グループホーム　わいず【認知症対応型共同生活介護】高知県四万十市中村大橋通6丁目7-5", "url": "https://www.kaigokensaku.mhlw.go.jp/39/index.php?action_kouhyou_detail_004_kani=true&JigyosyoCd=3970700146-00&ServiceCd=320&Type=search", "url2": null }, "geometry": { "type": "Point", "coordinates": [ 132.93755440000001, 32.9898911 ] } },
{ "type": "Feature", "properties": { "内容": "グループホームはまゆう【認知症対応型共同生活介護】高知県四万十市井沢３７－３", "url": "https://www.kaigokensaku.mhlw.go.jp/39/index.php?action_kouhyou_detail_004_kani=true&JigyosyoCd=3970700179-00&ServiceCd=320&Type=search", "url2": "http://yusunoki.or.jp/" }, "geometry": { "type": "Point", "coordinates": [ 132.964158665917921, 32.975221997909166 ] } },
{ "type": "Feature", "properties": { "内容": "グループホーム　天の川【認知症対応型共同生活介護】高知県四万十市中村大橋通6-7-20", "url": "https://www.kaigokensaku.mhlw.go.jp/39/index.php?action_kouhyou_detail_004_kani=true&JigyosyoCd=3991000096-00&ServiceCd=320&Type=search", "url2": null }, "geometry": { "type": "Point", "coordinates": [ 132.938300584655735, 32.989441090403282 ] } },
{ "type": "Feature", "properties": { "内容": "グループホーム　かがやき【認知症対応型共同生活介護】高知県四万十市右山天神町１１－１８", "url": "https://www.kaigokensaku.mhlw.go.jp/39/index.php?action_kouhyou_detail_004_kani=true&JigyosyoCd=3970700138-00&ServiceCd=320&Type=search", "url2": null }, "geometry": { "type": "Point", "coordinates": [ 132.940937100728434, 32.98441311568596 ] } },
{ "type": "Feature", "properties": { "内容": "グループホーム　やす【認知症対応型共同生活介護】高知県香南市夜須町坪井８０４－１９", "url": "https://www.kaigokensaku.mhlw.go.jp/39/index.php?action_kouhyou_detail_004_kani=true&JigyosyoCd=3972100477-00&ServiceCd=320&Type=search", "url2": "http://f-shizenmura.or.jp" }, "geometry": { "type": "Point", "coordinates": [ 133.746759900000029, 33.5373411 ] } },
{ "type": "Feature", "properties": { "内容": "グループホームせんだんの里【認知症対応型共同生活介護】高知県香南市野市町中ノ村770番地1", "url": "https://www.kaigokensaku.mhlw.go.jp/39/index.php?action_kouhyou_detail_004_kani=true&JigyosyoCd=3972100337-00&ServiceCd=320&Type=search", "url2": "https://www.kounankai.jp/group_home.html" }, "geometry": { "type": "Point", "coordinates": [ 133.720989199999963, 33.5643066 ] } },
{ "type": "Feature", "properties": { "内容": "グループホームはなみずき【認知症対応型共同生活介護】高知県香南市野市町西野1886-3", "url": "https://www.kaigokensaku.mhlw.go.jp/39/index.php?action_kouhyou_detail_004_kani=true&JigyosyoCd=3991100102-00&ServiceCd=320&Type=search", "url2": null }, "geometry": { "type": "Point", "coordinates": [ 133.6933204, 33.5594224 ] } },
{ "type": "Feature", "properties": { "内容": "グループホーム　のいち【認知症対応型共同生活介護】高知県香南市野市町東野１６５２－１", "url": "https://www.kaigokensaku.mhlw.go.jp/39/index.php?action_kouhyou_detail_004_kani=true&JigyosyoCd=3972100501-00&ServiceCd=320&Type=search", "url2": "http://f-shizenmura.or.jp" }, "geometry": { "type": "Point", "coordinates": [ 133.704079699999966, 33.5592072 ] } },
{ "type": "Feature", "properties": { "内容": "グループホーム　かがみ【認知症対応型共同生活介護】高知県香南市香我美町岸本ルノ丸328-39", "url": "https://www.kaigokensaku.mhlw.go.jp/39/index.php?action_kouhyou_detail_004_kani=true&JigyosyoCd=3972100386-00&ServiceCd=320&Type=search", "url2": "http://f-shizenmura.or.jp" }, "geometry": { "type": "Point", "coordinates": [ 133.732323084594753, 33.539017907208063 ] } },
{ "type": "Feature", "properties": { "内容": "グループホーム　きんもくせいの里【認知症対応型共同生活介護】高知県香南市香我美町字マガリ1143番地", "url": "https://www.kaigokensaku.mhlw.go.jp/39/index.php?action_kouhyou_detail_004_kani=true&JigyosyoCd=3972100519-00&ServiceCd=320&Type=search", "url2": "http://www.kounankai.jp/group_home.html" }, "geometry": { "type": "Point", "coordinates": [ 133.729768888885502, 33.545598865401296 ] } },
{ "type": "Feature", "properties": { "内容": "愛の家グループホーム野市【認知症対応型共同生活介護】高知県香南市野市町西野651-6", "url": "https://www.kaigokensaku.mhlw.go.jp/39/index.php?action_kouhyou_detail_004_kani=true&JigyosyoCd=3972100352-00&ServiceCd=320&Type=search", "url2": "http://mcs-ainoie.com/ins21.html" }, "geometry": { "type": "Point", "coordinates": [ 133.696988499999946, 33.56615630000001 ] } },
{ "type": "Feature", "properties": { "内容": "グループホーム　サンライズ【認知症対応型共同生活介護】高知県香南市野市町母代寺字サル田381番地6", "url": "https://www.kaigokensaku.mhlw.go.jp/39/index.php?action_kouhyou_detail_004_kani=true&JigyosyoCd=3972100469-00&ServiceCd=320&Type=search", "url2": "https://care-net.biz/39/kaigono.life/" }, "geometry": { "type": "Point", "coordinates": [ 133.70541273575131, 33.580269914561264 ] } },
{ "type": "Feature", "properties": { "内容": "グループホーム　なごみの里【認知症対応型共同生活介護】高知県香南市吉川町古川３４０番地２オークの里　１階", "url": "https://www.kaigokensaku.mhlw.go.jp/39/index.php?action_kouhyou_detail_004_kani=true&JigyosyoCd=3972100246-00&ServiceCd=320&Type=search", "url2": "http://www.kounankai.jp/ooku_nagominosato.html" }, "geometry": { "type": "Point", "coordinates": [ 133.714125175424243, 33.54839110849241 ] } },
{ "type": "Feature", "properties": { "内容": "敬愛グループホーム【認知症対応型共同生活介護】香北町美良布899", "url": "https://www.kaigokensaku.mhlw.go.jp/39/index.php?action_kouhyou_detail_004_kani=true&JigyosyoCd=3972100360-00&ServiceCd=320&Type=search", "url2": null }, "geometry": { "type": "Point", "coordinates": [ 133.7797931, 33.6527245 ] } },
{ "type": "Feature", "properties": { "内容": "グループホーム　ゆうりこう【認知症対応型共同生活介護】高知県香美市土佐山田町百石町1丁目3番44号グループホームゆうりこう", "url": "https://www.kaigokensaku.mhlw.go.jp/39/index.php?action_kouhyou_detail_004_kani=true&JigyosyoCd=3991200019-00&ServiceCd=320&Type=search", "url2": "http://www.kounankai.jp/group_home.html" }, "geometry": { "type": "Point", "coordinates": [ 133.695919, 33.609064900000014 ] } },
{ "type": "Feature", "properties": { "内容": "グループホーム　びらふ【認知症対応型共同生活介護】高知県香美市香北町美良布１２９８番地グループホーム　びらふ", "url": "https://www.kaigokensaku.mhlw.go.jp/39/index.php?action_kouhyou_detail_004_kani=true&JigyosyoCd=3972100444-00&ServiceCd=320&Type=search", "url2": null }, "geometry": { "type": "Point", "coordinates": [ 133.779582, 33.6486638 ] } },
{ "type": "Feature", "properties": { "内容": "グループホーム　慎太郎【認知症対応型共同生活介護】高知県安芸郡東洋町大字河内字王子田353番地1", "url": "https://www.kaigokensaku.mhlw.go.jp/39/index.php?action_kouhyou_detail_004_kani=true&JigyosyoCd=3992000012-00&ServiceCd=320&Type=search", "url2": "https://www.kenshokai.group/institution/gh/shintaro/index.php" }, "geometry": { "type": "Point", "coordinates": [ 134.293383400000039, 33.547279500000016 ] } },
{ "type": "Feature", "properties": { "内容": "グループホームいしんの郷【認知症対応型共同生活介護】高知県安芸郡田野町1456-45", "url": "https://www.kaigokensaku.mhlw.go.jp/39/index.php?action_kouhyou_detail_004_kani=true&JigyosyoCd=3992000285-00&ServiceCd=320&Type=search", "url2": null }, "geometry": { "type": "Point", "coordinates": [ 134.006919408984345, 33.428979671278555 ] } },
{ "type": "Feature", "properties": { "内容": "グループホーム　くすのきの里【認知症対応型共同生活介護】高知県安芸郡安田町西島８９番地３", "url": "https://www.kaigokensaku.mhlw.go.jp/39/index.php?action_kouhyou_detail_004_kani=true&JigyosyoCd=3972000248-00&ServiceCd=320&Type=search", "url2": null }, "geometry": { "type": "Point", "coordinates": [ 133.985562399999907, 33.4421226 ] } },
{ "type": "Feature", "properties": { "内容": "グループホームげいせい【認知症対応型共同生活介護】高知県安芸郡芸西村和食甲4268", "url": "https://www.kaigokensaku.mhlw.go.jp/39/index.php?action_kouhyou_detail_004_kani=true&JigyosyoCd=3992000293-00&ServiceCd=320&Type=search", "url2": "http://okura-kai.com/geisei/" }, "geometry": { "type": "Point", "coordinates": [ 133.819835299336205, 33.522293558935445 ] } },
{ "type": "Feature", "properties": { "内容": "グループホーム　ふくじゅ草の里【認知症対応型共同生活介護】高知県長岡郡本山町本山字東畑984番地", "url": "https://www.kaigokensaku.mhlw.go.jp/39/index.php?action_kouhyou_detail_004_kani=true&JigyosyoCd=3992200042-00&ServiceCd=320&Type=search", "url2": "http://www.kounankai.jp/group-home.html" }, "geometry": { "type": "Point", "coordinates": [ 133.576477677917637, 33.753984595327339 ] } },
{ "type": "Feature", "properties": { "内容": "グループホーム　花みずき【認知症対応型共同生活介護】高知県土佐郡土佐町土居１０５７番地", "url": "https://www.kaigokensaku.mhlw.go.jp/39/index.php?action_kouhyou_detail_004_kani=true&JigyosyoCd=3992300016-00&ServiceCd=320&Type=search", "url2": null }, "geometry": { "type": "Point", "coordinates": [ 133.52026413363177, 33.726739851433621 ] } },
{ "type": "Feature", "properties": { "内容": "グループホーム福寿の家【認知症対応型共同生活介護】高知県吾川郡いの町中追2598番地1", "url": "https://www.kaigokensaku.mhlw.go.jp/39/index.php?action_kouhyou_detail_004_kani=true&JigyosyoCd=3972400265-00&ServiceCd=320&Type=search", "url2": null }, "geometry": { "type": "Point", "coordinates": [ 133.373796838623093, 33.60560194309744 ] } },
{ "type": "Feature", "properties": { "内容": "グループホーム　エフヴェール【認知症対応型共同生活介護】吾川郡いの町天王北４丁目８－７", "url": "https://www.kaigokensaku.mhlw.go.jp/39/index.php?action_kouhyou_detail_004_kani=true&JigyosyoCd=3972400331-00&ServiceCd=320&Type=search", "url2": null }, "geometry": { "type": "Point", "coordinates": [ 133.447787699999907, 33.5325708 ] } },
{ "type": "Feature", "properties": { "内容": "グループホーム壽幸園【認知症対応型共同生活介護】高知県吾川郡いの町天王南5丁目2-14", "url": "https://www.kaigokensaku.mhlw.go.jp/39/index.php?action_kouhyou_detail_004_kani=true&JigyosyoCd=3992400147-00&ServiceCd=320&Type=search", "url2": "http://www.inofukushikai.com/" }, "geometry": { "type": "Point", "coordinates": [ 133.449631900000014, 33.5315015 ] } },
{ "type": "Feature", "properties": { "内容": "グループホーム青空【認知症対応型共同生活介護】高知県吾川郡いの町3611番地5", "url": "https://www.kaigokensaku.mhlw.go.jp/39/index.php?action_kouhyou_detail_004_kani=true&JigyosyoCd=3992400212-00&ServiceCd=320&Type=search", "url2": "https://isikawahp.com" }, "geometry": { "type": "Point", "coordinates": [ 133.425104299999987, 33.5486309 ] } },
{ "type": "Feature", "properties": { "内容": "グループホームゆとりの里【認知症対応型共同生活介護】新町１", "url": "https://www.kaigokensaku.mhlw.go.jp/39/index.php?action_kouhyou_detail_004_kani=true&JigyosyoCd=3992400196-00&ServiceCd=320&Type=search", "url2": "gh-yutorinosato@inofukusikai.com" }, "geometry": { "type": "Point", "coordinates": [ 139.3176765, 35.7839212 ] } },
{ "type": "Feature", "properties": { "内容": "グループホーム　加田【認知症対応型共同生活介護】高知県吾川郡いの町加田310番地", "url": "https://www.kaigokensaku.mhlw.go.jp/39/index.php?action_kouhyou_detail_004_kani=true&JigyosyoCd=3972400307-00&ServiceCd=320&Type=search", "url2": "https://okamotokai-sakurahospital.jimdofree.com/関連グループ/グループホーム加田/" }, "geometry": { "type": "Point", "coordinates": [ 133.397464600000035, 33.5493009 ] } },
{ "type": "Feature", "properties": { "内容": "グループホーム　高岩【認知症対応型共同生活介護】高知県吾川郡いの町小川西津賀才126番地", "url": "https://www.kaigokensaku.mhlw.go.jp/39/index.php?action_kouhyou_detail_004_kani=true&JigyosyoCd=3972400349-00&ServiceCd=320&Type=search", "url2": "https://okamotokai-sakurahospital.jimdofree.com/関連グループ/グループホーム高岩/" }, "geometry": { "type": "Point", "coordinates": [ 133.297917, 33.6253036 ] } },
{ "type": "Feature", "properties": { "内容": "グループホームそよ風【認知症対応型共同生活介護】高知県吾川郡いの町2274番地1", "url": "https://www.kaigokensaku.mhlw.go.jp/39/index.php?action_kouhyou_detail_004_kani=true&JigyosyoCd=3992400204-00&ServiceCd=320&Type=search", "url2": "https://ishikawahp.com/guide/soyokaze-kyoudou/" }, "geometry": { "type": "Point", "coordinates": [ 133.42649325931626, 33.548010737457169 ] } },
{ "type": "Feature", "properties": { "内容": "グループホームあがわ【認知症対応型共同生活介護】高知県吾川郡仁淀川町相能トヲメン6-1、6-2", "url": "https://www.kaigokensaku.mhlw.go.jp/39/index.php?action_kouhyou_detail_004_kani=true&JigyosyoCd=3992400113-00&ServiceCd=320&Type=search", "url2": null }, "geometry": { "type": "Point", "coordinates": [ 133.159198786785851, 33.568755499297275 ] } },
{ "type": "Feature", "properties": { "内容": "グループホーム仁淀の里【認知症対応型共同生活介護】高知県吾川郡仁淀川町土居乙199番地6", "url": "https://www.kaigokensaku.mhlw.go.jp/39/index.php?action_kouhyou_detail_004_kani=true&JigyosyoCd=3972400315-00&ServiceCd=320&Type=search", "url2": null }, "geometry": { "type": "Point", "coordinates": [ 133.160890056062982, 33.606552454667977 ] } },
{ "type": "Feature", "properties": { "内容": "グループホームぬくもりの家【認知症対応型共同生活介護】高知県吾川郡仁淀川町森３６６５番地", "url": "https://www.kaigokensaku.mhlw.go.jp/39/index.php?action_kouhyou_detail_004_kani=true&JigyosyoCd=3992400048-00&ServiceCd=320&Type=search", "url2": null }, "geometry": { "type": "Point", "coordinates": [ 133.132451700000047, 33.530681 ] } },
{ "type": "Feature", "properties": { "内容": "グループホームひだまりの家【認知症対応型共同生活介護】高知県吾川郡仁淀川町川渡97-40", "url": "https://www.kaigokensaku.mhlw.go.jp/39/index.php?action_kouhyou_detail_004_kani=true&JigyosyoCd=3992400055-00&ServiceCd=320&Type=search", "url2": null }, "geometry": { "type": "Point", "coordinates": [ 133.1296853, 33.5290562 ] } },
{ "type": "Feature", "properties": { "内容": "グループホーム　こころ【認知症対応型共同生活介護】高知県吾川郡仁淀川町長屋１１番地１", "url": "https://www.kaigokensaku.mhlw.go.jp/39/index.php?action_kouhyou_detail_004_kani=true&JigyosyoCd=3992400063-00&ServiceCd=320&Type=search", "url2": null }, "geometry": { "type": "Point", "coordinates": [ 133.166551700000014, 33.6050668 ] } },
{ "type": "Feature", "properties": { "内容": "グループホーム　なかとさ【認知症対応型共同生活介護】高知県高岡郡中土佐町上ノ加江706-1", "url": "https://www.kaigokensaku.mhlw.go.jp/39/index.php?action_kouhyou_detail_004_kani=true&JigyosyoCd=3992500078-00&ServiceCd=320&Type=search", "url2": "http://kochi-mizuho.com/gh_nakatosa/gh_nakatosa_1.html" }, "geometry": { "type": "Point", "coordinates": [ 133.23678510000002, 33.2782417 ] } },
{ "type": "Feature", "properties": { "内容": "グループホームいこい【認知症対応型共同生活介護】高知県高岡郡中土佐町久礼5988番地", "url": "https://www.kaigokensaku.mhlw.go.jp/39/index.php?action_kouhyou_detail_004_kani=true&JigyosyoCd=3992500102-00&ServiceCd=320&Type=search", "url2": "http://f-shizenmura.or.jp" }, "geometry": { "type": "Point", "coordinates": [ 133.230885100000023, 33.3297722 ] } },
{ "type": "Feature", "properties": { "内容": "グループホーム　ふたな【認知症対応型共同生活介護】高知県高岡郡中土佐町久礼６００２番地２", "url": "https://www.kaigokensaku.mhlw.go.jp/39/index.php?action_kouhyou_detail_004_kani=true&JigyosyoCd=3992500011-00&ServiceCd=320&Type=search", "url2": "http://f-shizenmura.or.jp" }, "geometry": { "type": "Point", "coordinates": [ 133.228116, 33.3340549 ] } },
{ "type": "Feature", "properties": { "内容": "グループホームやっこそう【認知症対応型共同生活介護】高知県高岡郡佐川町乙3127番1", "url": "https://www.kaigokensaku.mhlw.go.jp/39/index.php?action_kouhyou_detail_004_kani=true&JigyosyoCd=3992500151-00&ServiceCd=320&Type=search", "url2": "http://kitajima-hp.com/fukusikai/index_fukusikai.html" }, "geometry": { "type": "Point", "coordinates": [ 133.298181479098503, 33.512324883845032 ] } },
{ "type": "Feature", "properties": { "内容": "いこいの里　たんぽぽ【認知症対応型共同生活介護】高知県高岡郡佐川町丙３６２０－１", "url": "https://www.kaigokensaku.mhlw.go.jp/39/index.php?action_kouhyou_detail_004_kani=true&JigyosyoCd=3992500045-00&ServiceCd=320&Type=search", "url2": "http://www.ikoi-kochi.jp/institution/dand/dand_group/" }, "geometry": { "type": "Point", "coordinates": [ 133.279091699999981, 33.5089039 ] } },
{ "type": "Feature", "properties": { "内容": "いこいの里　つくし園【認知症対応型共同生活介護】高知県高岡郡佐川町丙３６１６－１", "url": "https://www.kaigokensaku.mhlw.go.jp/39/index.php?action_kouhyou_detail_004_kani=true&JigyosyoCd=3972500585-00&ServiceCd=320&Type=search", "url2": "http://www.ikoi-kochi.jp/institution/hors/hors_group/" }, "geometry": { "type": "Point", "coordinates": [ 133.2787806, 33.5089483 ] } },
{ "type": "Feature", "properties": { "内容": "グループホーム　かいなの郷【認知症対応型共同生活介護】高知県高岡郡佐川町字関田乙３３５８－７", "url": "https://www.kaigokensaku.mhlw.go.jp/39/index.php?action_kouhyou_detail_004_kani=true&JigyosyoCd=3992500086-00&ServiceCd=320&Type=search", "url2": null }, "geometry": { "type": "Point", "coordinates": [ 133.293799111361693, 33.511232691362018 ] } },
{ "type": "Feature", "properties": { "内容": "社会福祉法人　佐川町社会福祉協議会　ぷらっとホームさかわ【認知症対応型共同生活介護】高知県高岡郡佐川町甲377番地イ地域共生交流拠点ぷらっとホームさかわ", "url": "https://www.kaigokensaku.mhlw.go.jp/39/index.php?action_kouhyou_detail_004_kani=true&JigyosyoCd=3992500235-00&ServiceCd=320&Type=search", "url2": "https://sakawa-shakyo.jp/" }, "geometry": { "type": "Point", "coordinates": [ 133.29323930000001, 33.5006966 ] } },
{ "type": "Feature", "properties": { "内容": "グループホーム里山うらら【認知症対応型共同生活介護】高知県高岡郡越知町越知甲283-1", "url": "https://www.kaigokensaku.mhlw.go.jp/39/index.php?action_kouhyou_detail_004_kani=true&JigyosyoCd=3972500551-00&ServiceCd=320&Type=search", "url2": "http://www.kitajima-hp.com" }, "geometry": { "type": "Point", "coordinates": [ 133.2545686, 33.5265708 ] } },
{ "type": "Feature", "properties": { "内容": "グループホーム　やまぼうし【認知症対応型共同生活介護】高知県高岡郡越知町越知甲1696-10", "url": "https://www.kaigokensaku.mhlw.go.jp/39/index.php?action_kouhyou_detail_004_kani=true&JigyosyoCd=3992500052-00&ServiceCd=320&Type=search", "url2": "http://www.kitajima-hp.com" }, "geometry": { "type": "Point", "coordinates": [ 133.251913, 33.5307755 ] } },
{ "type": "Feature", "properties": { "内容": "グループホームキラリ【認知症対応型共同生活介護】高知県高岡郡日高村下分272-2", "url": "https://www.kaigokensaku.mhlw.go.jp/39/index.php?action_kouhyou_detail_004_kani=true&JigyosyoCd=3992500292-00&ServiceCd=320&Type=search", "url2": null }, "geometry": { "type": "Point", "coordinates": [ 133.3794891, 33.5352823 ] } },
{ "type": "Feature", "properties": { "内容": "ひだかの里【認知症対応型共同生活介護】下分3561-1", "url": "https://www.kaigokensaku.mhlw.go.jp/39/index.php?action_kouhyou_detail_004_kani=true&JigyosyoCd=3972500361-00&ServiceCd=320&Type=search", "url2": "https://hidakaclinic.jinseikai.kochi.jp/" }, "geometry": { "type": "Point", "coordinates": [ 133.378391299999947, 33.5400627 ] } },
{ "type": "Feature", "properties": { "内容": "グループホーム　ひのきの里【認知症対応型共同生活介護】高知県高岡郡津野町黒川740-6", "url": "https://www.kaigokensaku.mhlw.go.jp/39/index.php?action_kouhyou_detail_004_kani=true&JigyosyoCd=3972500577-00&ServiceCd=320&Type=search", "url2": "http://www.kounankai.jp/group_home.html" }, "geometry": { "type": "Point", "coordinates": [ 133.163625700000011, 33.4390321 ] } },
{ "type": "Feature", "properties": { "内容": "グループホーム「やすらぎの里」【認知症対応型共同生活介護】高知県高岡郡四万十町仁井田114-1", "url": "https://www.kaigokensaku.mhlw.go.jp/39/index.php?action_kouhyou_detail_004_kani=true&JigyosyoCd=3972500460-00&ServiceCd=320&Type=search", "url2": "http://shimantopia.or.jp/" }, "geometry": { "type": "Point", "coordinates": [ 133.163023, 33.2414833 ] } },
{ "type": "Feature", "properties": { "内容": "グループホームひだまり【認知症対応型共同生活介護】高知県高岡郡四万十町久保川４１番地１", "url": "https://www.kaigokensaku.mhlw.go.jp/39/index.php?action_kouhyou_detail_004_kani=true&JigyosyoCd=3972500759-00&ServiceCd=320&Type=search", "url2": null }, "geometry": { "type": "Point", "coordinates": [ 132.877017300000034, 33.2324253 ] } },
{ "type": "Feature", "properties": { "内容": "グループホーム　ゆうき【認知症対応型共同生活介護】高知県高岡郡四万十町仁井田199-1", "url": "https://www.kaigokensaku.mhlw.go.jp/39/index.php?action_kouhyou_detail_004_kani=true&JigyosyoCd=3992500227-00&ServiceCd=320&Type=search", "url2": "http：//www.kounankai.jp/" }, "geometry": { "type": "Point", "coordinates": [ 133.1647546, 33.2460355 ] } },
{ "type": "Feature", "properties": { "内容": "グループホーム　あさぎり四万十の里【認知症対応型共同生活介護】高知県高岡郡四万十町窪川１２０５－１", "url": "https://www.kaigokensaku.mhlw.go.jp/39/index.php?action_kouhyou_detail_004_kani=true&JigyosyoCd=3992500037-00&ServiceCd=320&Type=search", "url2": "http://www.kounankai.jp/group_home.html" }, "geometry": { "type": "Point", "coordinates": [ 133.127219500000024, 33.2127803 ] } },
{ "type": "Feature", "properties": { "内容": "グループホーム梅の木【認知症対応型共同生活介護】高知県高岡郡四万十町大井川1462番地1グループホーム梅の木", "url": "https://www.kaigokensaku.mhlw.go.jp/39/index.php?action_kouhyou_detail_004_kani=true&JigyosyoCd=3992500136-00&ServiceCd=320&Type=search", "url2": "http://www.koubanfukushikai.or.jp/" }, "geometry": { "type": "Point", "coordinates": [ 132.889491499999963, 33.216372 ] } },
{ "type": "Feature", "properties": { "内容": "グループホームあゆ【認知症対応型共同生活介護】高知県高岡郡四万十町大正２５８番地２", "url": "https://www.kaigokensaku.mhlw.go.jp/39/index.php?action_kouhyou_detail_004_kani=true&JigyosyoCd=3972500825-00&ServiceCd=320&Type=search", "url2": null }, "geometry": { "type": "Point", "coordinates": [ 132.975906799999962, 33.1949209 ] } },
{ "type": "Feature", "properties": { "内容": "株式会社共栄　グループホームほほえみ【認知症対応型共同生活介護】高知県幡多郡大月町弘見４１６３－２４７", "url": "https://www.kaigokensaku.mhlw.go.jp/39/index.php?action_kouhyou_detail_004_kani=true&JigyosyoCd=3992600092-00&ServiceCd=320&Type=search", "url2": null }, "geometry": { "type": "Point", "coordinates": [ 132.705984400000034, 32.8390818 ] } },
{ "type": "Feature", "properties": { "内容": "グループホーム　月のなごみ【認知症対応型共同生活介護】高知県幡多郡大月町鉾土６０４－４８", "url": "https://www.kaigokensaku.mhlw.go.jp/39/index.php?action_kouhyou_detail_004_kani=true&JigyosyoCd=3992600019-00&ServiceCd=320&Type=search", "url2": null }, "geometry": { "type": "Point", "coordinates": [ 132.708876799999985, 32.8196481 ] } },
{ "type": "Feature", "properties": { "内容": "グループホーム　のんびり館【認知症対応型共同生活介護】高知県幡多郡大月町春遠1731-2", "url": "https://www.kaigokensaku.mhlw.go.jp/39/index.php?action_kouhyou_detail_004_kani=true&JigyosyoCd=3992600084-00&ServiceCd=320&Type=search", "url2": null }, "geometry": { "type": "Point", "coordinates": [ 132.747350399999959, 32.8195992 ] } },
{ "type": "Feature", "properties": { "内容": "グループホーム　ほうばい【認知症対応型共同生活介護】高知県幡多郡三原村宮の川字ヒジリ山１４２０－５", "url": "https://www.kaigokensaku.mhlw.go.jp/39/index.php?action_kouhyou_detail_004_kani=true&JigyosyoCd=3992600050-00&ServiceCd=320&Type=search", "url2": "http://www.gallery.ne.jp/~hojuen/" }, "geometry": { "type": "Point", "coordinates": [ 132.842133900000022, 32.9175864 ] } },
{ "type": "Feature", "properties": { "内容": "グループホームしらゆり【認知症対応型共同生活介護】高知県幡多郡黒潮町下田の口２１５３番地", "url": "https://www.kaigokensaku.mhlw.go.jp/39/index.php?action_kouhyou_detail_004_kani=true&JigyosyoCd=3992600118-00&ServiceCd=320&Type=search", "url2": "https://kuroshiofukushikai.com" }, "geometry": { "type": "Point", "coordinates": [ 132.997622799999988, 33.0148875 ] } },
{ "type": "Feature", "properties": { "内容": "グループホーム優夏【認知症対応型共同生活介護】高知県幡多郡黒潮町有井川２０番地1", "url": "https://www.kaigokensaku.mhlw.go.jp/39/index.php?action_kouhyou_detail_004_kani=true&JigyosyoCd=3972600245-00&ServiceCd=320&Type=search", "url2": null }, "geometry": { "type": "Point", "coordinates": [ 133.060960408270262, 33.038150033388568 ] } },
{ "type": "Feature", "properties": { "内容": "グループホーム　みうら【認知症対応型共同生活介護】高知県幡多郡黒潮町出口8番地2", "url": "https://www.kaigokensaku.mhlw.go.jp/39/index.php?action_kouhyou_detail_004_kani=true&JigyosyoCd=3992600076-00&ServiceCd=320&Type=search", "url2": "http://yusunoki.or.jp/" }, "geometry": { "type": "Point", "coordinates": [ 133.000843901466396, 32.989015341468097 ] } },
{ "type": "Feature", "properties": { "内容": "グループホーム和夏【認知症対応型共同生活介護】高知県幡多郡黒潮町佐賀3179番地7", "url": "https://www.kaigokensaku.mhlw.go.jp/39/index.php?action_kouhyou_detail_004_kani=true&JigyosyoCd=3992600043-00&ServiceCd=320&Type=search", "url2": null }, "geometry": { "type": "Point", "coordinates": [ 133.105954099999963, 33.0618851 ] } }
]
}
