{
"type": "FeatureCollection",
"name": "geo_39_1",
"crs": { "type": "name", "properties": { "name": "urn:ogc:def:crs:OGC:1.3:CRS84" } },
"features": [
{ "type": "Feature", "properties": { "ID": 3911393100120, "正式名称": "もみのき病院", "機関区分": 1, "都道府県コード": 39, "市区町村コード": 201, "所在地": "高知県高知市塚ノ原６番地１", "緯度": 33.560211, "経度": 133.496088, "url": "https://www.iryou.teikyouseido.mhlw.go.jp/znk-web/juminkanja/S2430/initialize?prefCd=39&kikanCd=1393100120&kikanKbn=1", "url2": "http://mominoki-hp.or.jp/", "内容": "もみのき病院【1:病院】【診療科目:内科_循環器内科_消化器内科_神経内科_緩和ケア内科_脳神経外科_小児科_眼科_精神科_リハビリテーション科_放射線科_麻酔科】【一般病床数:60療養病床数:0精神病床数:0感染症病床数:0合計病床数:60】高知県高知市塚ノ原６番地１" }, "geometry": { "type": "Point", "coordinates": [ 133.496088, 33.560211 ] } },
{ "type": "Feature", "properties": { "ID": 3911393100250, "正式名称": "いずみの病院", "機関区分": 1, "都道府県コード": 39, "市区町村コード": 201, "所在地": "高知県高知市薊野北町２丁目１０番５３号", "緯度": 33.580585, "経度": 133.55517, "url": "https://www.iryou.teikyouseido.mhlw.go.jp/znk-web/juminkanja/S2430/initialize?prefCd=39&kikanCd=1393100250&kikanKbn=1", "url2": "http://www.izumino.or.jp", "内容": "いずみの病院【1:病院】【診療科目:内科_糖尿病内科_循環器内科_消化器内科_神経内科_外科_脳神経外科_呼吸器外科_血管外科_心臓血管外科_消化器外科_乳腺外科_内視鏡外科_整形外科_泌尿器科_リハビリテーション科_放射線科_麻酔科】【一般病床数:178療養病床数:60精神病床数:0感染症病床数:0合計病床数:238】高知県高知市薊野北町２丁目１０番５３号" }, "geometry": { "type": "Point", "coordinates": [ 133.55517, 33.580585 ] } },
{ "type": "Feature", "properties": { "ID": 3911393100410, "正式名称": "高知高須病院", "機関区分": 1, "都道府県コード": 39, "市区町村コード": 201, "所在地": "高知県高知市大津乙２７０５－１", "緯度": 33.566145, "経度": 133.57961, "url": "https://www.iryou.teikyouseido.mhlw.go.jp/znk-web/juminkanja/S2430/initialize?prefCd=39&kikanCd=1393100410&kikanKbn=1", "url2": "https://www.takasuhp.or.jp/", "内容": "高知高須病院【1:病院】【診療科目:内科_糖尿病内科_代謝・内分泌内科_循環器内科_胃腸内科_腎臓内科_人工透析内科_外科_整形外科_人工透析外科_泌尿器科_麻酔科】【一般病床数:63療養病床数:0精神病床数:0感染症病床数:0合計病床数:63】高知県高知市大津乙２７０５－１" }, "geometry": { "type": "Point", "coordinates": [ 133.57961, 33.566145 ] } },
{ "type": "Feature", "properties": { "ID": 3911393100540, "正式名称": "高知県・高知市病院企業団立高知医療センター", "機関区分": 1, "都道府県コード": 39, "市区町村コード": 201, "所在地": "高知県高知市池２１２５－１", "緯度": 33.531425, "経度": 133.58489, "url": "https://www.iryou.teikyouseido.mhlw.go.jp/znk-web/juminkanja/S2430/initialize?prefCd=39&kikanCd=1393100540&kikanKbn=1", "url2": "https://www2.khsc.or.jp", "内容": "高知県・高知市病院企業団立高知医療センター【1:病院】【診療科目:内科_感染症内科_血液内科_糖尿病・内分泌内科_呼吸器内科_循環器内科_消化器内科_腎臓内科_神経内科_腫瘍内科_ペインクリニック内科_緩和ケア内科_脳神経外科_呼吸器外科_心臓血管外科_消化器外科_乳腺外科_移植外科_整形外科_形成外科_小児科_児童精神科_小児外科_産科_婦人科_眼科_耳鼻いんこう科_皮膚科_泌尿器科_精神科_心療内科_歯科口腔外科_アレルギー科_リハビリテーション科_放射線科_放射線治療科_病理診断科_救急科_麻酔科】【一般病床数:548療養病床数:0精神病床数:44感染症病床数:8合計病床数:620】高知県高知市池２１２５－１" }, "geometry": { "type": "Point", "coordinates": [ 133.58489, 33.531425 ] } },
{ "type": "Feature", "properties": { "ID": 3911393100670, "正式名称": "近森オルソリハビリテーション病院", "機関区分": 1, "都道府県コード": 39, "市区町村コード": 201, "所在地": "高知県高知市北本町１ー２ー６", "緯度": 33.564901, "経度": 133.541093, "url": "https://www.iryou.teikyouseido.mhlw.go.jp/znk-web/juminkanja/S2430/initialize?prefCd=39&kikanCd=1393100670&kikanKbn=1", "url2": "https://www.chikamori.com/ortho/", "内容": "近森オルソリハビリテーション病院【1:病院】【診療科目:内科_整形外科_リハビリテーション科】【一般病床数:100療養病床数:0精神病床数:0感染症病床数:0合計病床数:100】高知県高知市北本町１ー２ー６" }, "geometry": { "type": "Point", "coordinates": [ 133.541093, 33.564901 ] } },
{ "type": "Feature", "properties": { "ID": 3911393100700, "正式名称": "きんろう病院", "機関区分": 1, "都道府県コード": 39, "市区町村コード": 201, "所在地": "高知県高知市薊野北町３丁目２番２８号", "緯度": 33.581749, "経度": 133.550465, "url": "https://www.iryou.teikyouseido.mhlw.go.jp/znk-web/juminkanja/S2430/initialize?prefCd=39&kikanCd=1393100700&kikanKbn=1", "url2": "http://www.kinrou-cl.jp", "内容": "きんろう病院【1:病院】【診療科目:内科_呼吸器内科_老年内科_リハビリテーション科】【一般病床数:20療養病床数:81精神病床数:0感染症病床数:0合計病床数:101】高知県高知市薊野北町３丁目２番２８号" }, "geometry": { "type": "Point", "coordinates": [ 133.550465, 33.581749 ] } },
{ "type": "Feature", "properties": { "ID": 3911395100140, "正式名称": "海辺の杜ホスピタル", "機関区分": 1, "都道府県コード": 39, "市区町村コード": 201, "所在地": "高知県高知市長浜２５１番地", "緯度": 33.510702, "経度": 133.552801, "url": "https://www.iryou.teikyouseido.mhlw.go.jp/znk-web/juminkanja/S2430/initialize?prefCd=39&kikanCd=1395100140&kikanKbn=1", "url2": "https://www.umibeno-mori.jp", "内容": "海辺の杜ホスピタル【1:病院】【診療科目:精神科_心療内科】【一般病床数:0療養病床数:0精神病床数:359感染症病床数:0合計病床数:359】高知県高知市長浜２５１番地" }, "geometry": { "type": "Point", "coordinates": [ 133.552801, 33.510702 ] } },
{ "type": "Feature", "properties": { "ID": 3911395100270, "正式名称": "高知鏡川病院", "機関区分": 1, "都道府県コード": 39, "市区町村コード": 201, "所在地": "高知県高知市城山町２７０番地", "緯度": 33.551144, "経度": 133.511562, "url": "https://www.iryou.teikyouseido.mhlw.go.jp/znk-web/juminkanja/S2430/initialize?prefCd=39&kikanCd=1395100270&kikanKbn=1", "url2": "http://www.kagamigawa-hp.com", "内容": "高知鏡川病院【1:病院】【診療科目:内科_精神科_神経科_心療内科】【一般病床数:0療養病床数:0精神病床数:271感染症病床数:0合計病床数:271】高知県高知市城山町２７０番地" }, "geometry": { "type": "Point", "coordinates": [ 133.511562, 33.551144 ] } },
{ "type": "Feature", "properties": { "ID": 3911395100300, "正式名称": "愛幸病院", "機関区分": 1, "都道府県コード": 39, "市区町村コード": 201, "所在地": "高知県高知市入明町１４番２号", "緯度": 33.566697, "経度": 133.530172, "url": "https://www.iryou.teikyouseido.mhlw.go.jp/znk-web/juminkanja/S2430/initialize?prefCd=39&kikanCd=1395100300&kikanKbn=1", "url2": "https://shoshikai-aiko.or.jp", "内容": "愛幸病院【1:病院】【診療科目:内科_精神科_心療内科】【一般病床数:0療養病床数:0精神病床数:226感染症病床数:0合計病床数:226】高知県高知市入明町１４番２号" }, "geometry": { "type": "Point", "coordinates": [ 133.530172, 33.566697 ] } },
{ "type": "Feature", "properties": { "ID": 3911395100560, "正式名称": "土佐病院", "機関区分": 1, "都道府県コード": 39, "市区町村コード": 201, "所在地": "高知県高知市新本町２－１０－２４", "緯度": 33.57003, "経度": 133.547946, "url": "https://www.iryou.teikyouseido.mhlw.go.jp/znk-web/juminkanja/S2430/initialize?prefCd=39&kikanCd=1395100560&kikanKbn=1", "url2": "http://www.tosa-hp.com/", "内容": "土佐病院【1:病院】【診療科目:精神科】【一般病床数:0療養病床数:0精神病床数:174感染症病床数:0合計病床数:174】高知県高知市新本町２－１０－２４" }, "geometry": { "type": "Point", "coordinates": [ 133.547946, 33.57003 ] } },
{ "type": "Feature", "properties": { "ID": 3911395100850, "正式名称": "特定医療法人仁泉会朝倉病院", "機関区分": 1, "都道府県コード": 39, "市区町村コード": 201, "所在地": "高知県高知市朝倉丙１６５３－１２", "緯度": 33.555577, "経度": 133.474648, "url": "https://www.iryou.teikyouseido.mhlw.go.jp/znk-web/juminkanja/S2430/initialize?prefCd=39&kikanCd=1395100850&kikanKbn=1", "url2": "http://asakura-hospital.jp", "内容": "特定医療法人仁泉会朝倉病院【1:病院】【診療科目:内科_循環器内科_消化器内科_神経内科_精神科_リハビリテーション科_放射線科】【一般病床数:36療養病床数:72精神病床数:0感染症病床数:0合計病床数:108】高知県高知市朝倉丙１６５３－１２" }, "geometry": { "type": "Point", "coordinates": [ 133.474648, 33.555577 ] } },
{ "type": "Feature", "properties": { "ID": 3911395100980, "正式名称": "新松田会愛宕病院", "機関区分": 1, "都道府県コード": 39, "市区町村コード": 201, "所在地": "高知県高知市愛宕町１ー１ー１３", "緯度": 33.565589, "経度": 133.53767, "url": "https://www.iryou.teikyouseido.mhlw.go.jp/znk-web/juminkanja/S2430/initialize?prefCd=39&kikanCd=1395100980&kikanKbn=1", "url2": "http://www.atago-hp.or.jp", "内容": "新松田会愛宕病院【1:病院】【診療科目:内科_呼吸器内科_循環器内科_消化器内科_腫瘍内科_外科_脳神経外科_呼吸器外科_消化器外科_整形外科_美容外科_婦人科_眼科_耳鼻いんこう科_皮膚科_泌尿器科_精神科_心療内科_リウマチ科_リハビリテーション科_放射線科_救急科_麻酔科】【一般病床数:269療養病床数:79精神病床数:70感染症病床数:0合計病床数:418】高知県高知市愛宕町１ー１ー１３" }, "geometry": { "type": "Point", "coordinates": [ 133.53767, 33.565589 ] } },
{ "type": "Feature", "properties": { "ID": 3911395101020, "正式名称": "高知整形・脳外科病院", "機関区分": 1, "都道府県コード": 39, "市区町村コード": 201, "所在地": "高知県高知市上町４丁目ー７ー２０", "緯度": 33.556327, "経度": 133.518927, "url": "https://www.iryou.teikyouseido.mhlw.go.jp/znk-web/juminkanja/S2430/initialize?prefCd=39&kikanCd=1395101020&kikanKbn=1", "url2": "http://kochiseikei-nogeka.com", "内容": "高知整形・脳外科病院【1:病院】【診療科目:脳神経外科_整形外科_リハビリテーション科_麻酔科】【一般病床数:30療養病床数:72精神病床数:0感染症病床数:0合計病床数:102】高知県高知市上町４丁目ー７ー２０" }, "geometry": { "type": "Point", "coordinates": [ 133.518927, 33.556327 ] } },
{ "type": "Feature", "properties": { "ID": 3911395101280, "正式名称": "岡村病院", "機関区分": 1, "都道府県コード": 39, "市区町村コード": 201, "所在地": "高知県高知市入明町１－５", "緯度": 33.565595, "経度": 133.532029, "url": "https://www.iryou.teikyouseido.mhlw.go.jp/znk-web/juminkanja/S2430/initialize?prefCd=39&kikanCd=1395101280&kikanKbn=1", "url2": "http://www.okamura-hp.or.jp/", "内容": "岡村病院【1:病院】【診療科目:内科_循環器内科_消化器内科_胃腸内科_外科_呼吸器外科_血管外科_心臓血管外科_肛門外科_整形外科_形成外科_リハビリテーション科_放射線科_麻酔科】【一般病床数:138療養病床数:0精神病床数:0感染症病床数:0合計病床数:138】高知県高知市入明町１－５" }, "geometry": { "type": "Point", "coordinates": [ 133.532029, 33.565595 ] } },
{ "type": "Feature", "properties": { "ID": 3911395101310, "正式名称": "川村病院", "機関区分": 1, "都道府県コード": 39, "市区町村コード": 201, "所在地": "高知県高知市上町５丁目６－２０", "緯度": 33.555867, "経度": 133.517117, "url": "https://www.iryou.teikyouseido.mhlw.go.jp/znk-web/juminkanja/S2430/initialize?prefCd=39&kikanCd=1395101310&kikanKbn=1", "url2": "https://www.kawamura-hosp.or.jp", "内容": "川村病院【1:病院】【診療科目:内科_糖尿病内科_循環器内科_消化器内科_胃腸内科_外科_心療内科_リハビリテーション科】【一般病床数:32療養病床数:45精神病床数:0感染症病床数:0合計病床数:77】高知県高知市上町５丁目６－２０" }, "geometry": { "type": "Point", "coordinates": [ 133.517117, 33.555867 ] } },
{ "type": "Feature", "properties": { "ID": 3911395101440, "正式名称": "木村病院", "機関区分": 1, "都道府県コード": 39, "市区町村コード": 201, "所在地": "高知県高知市寿町８－８", "緯度": 33.56647, "経度": 133.535336, "url": "https://www.iryou.teikyouseido.mhlw.go.jp/znk-web/juminkanja/S2430/initialize?prefCd=39&kikanCd=1395101440&kikanKbn=1", "url2": "http://www.kimuraho.jp/", "内容": "木村病院【1:病院】【診療科目:内科_呼吸器内科_循環器内科_消化器内科_整形外科_泌尿器科_リハビリテーション科】【一般病床数:0療養病床数:30精神病床数:0感染症病床数:0合計病床数:30】高知県高知市寿町８－８" }, "geometry": { "type": "Point", "coordinates": [ 133.535336, 33.56647 ] } },
{ "type": "Feature", "properties": { "ID": 3911395101570, "正式名称": "国吉病院", "機関区分": 1, "都道府県コード": 39, "市区町村コード": 201, "所在地": "高知県高知市上町１丁目３ー４", "緯度": 33.558364, "経度": 133.526006, "url": "https://www.iryou.teikyouseido.mhlw.go.jp/znk-web/juminkanja/S2430/initialize?prefCd=39&kikanCd=1395101570&kikanKbn=1", "url2": "http://www.kuniyoshi-hp.or.jp/", "内容": "国吉病院【1:病院】【診療科目:内科_呼吸器内科_循環器内科_消化器内科_神経内科_ペインクリニック内科_緩和ケア内科_外科_脳神経外科_心臓血管外科_消化器外科_整形外科_眼科_泌尿器科_精神科_心療内科_リウマチ科_リハビリテーション科_放射線科_麻酔科】【一般病床数:69療養病床数:37精神病床数:0感染症病床数:0合計病床数:106】高知県高知市上町１丁目３ー４" }, "geometry": { "type": "Point", "coordinates": [ 133.526006, 33.558364 ] } },
{ "type": "Feature", "properties": { "ID": 3911395101600, "正式名称": "医療法人共生会下司病院", "機関区分": 1, "都道府県コード": 39, "市区町村コード": 201, "所在地": "高知県高知市本町３丁目５番１３号", "緯度": 33.557252, "経度": 133.536736, "url": "https://www.iryou.teikyouseido.mhlw.go.jp/znk-web/juminkanja/S2430/initialize?prefCd=39&kikanCd=1395101600&kikanKbn=1", "url2": "http://www.kochi-al.org/url/geshi-top.html", "内容": "医療法人共生会下司病院【1:病院】【診療科目:内科_消化器内科_精神科_神経科_心療内科_リウマチ科_リハビリテーション科_放射線科】【一般病床数:0療養病床数:0精神病床数:50感染症病床数:0合計病床数:50】高知県高知市本町３丁目５番１３号" }, "geometry": { "type": "Point", "coordinates": [ 133.536736, 33.557252 ] } },
{ "type": "Feature", "properties": { "ID": 3911395101730, "正式名称": "高知病院", "機関区分": 1, "都道府県コード": 39, "市区町村コード": 201, "所在地": "高知県高知市相生町１‐３５", "緯度": 33.564311, "経度": 133.544708, "url": "https://www.iryou.teikyouseido.mhlw.go.jp/znk-web/juminkanja/S2430/initialize?prefCd=39&kikanCd=1395101730&kikanKbn=1", "url2": "https://kochi-hp.nonami-kai.com/", "内容": "高知病院【1:病院】【診療科目:内科_呼吸器内科_循環器内科_消化器内科_ペインクリニック内科_整形外科_リハビリテーション科_放射線科】【一般病床数:26療養病床数:98精神病床数:0感染症病床数:0合計病床数:124】高知県高知市相生町１‐３５" }, "geometry": { "type": "Point", "coordinates": [ 133.544708, 33.564311 ] } },
{ "type": "Feature", "properties": { "ID": 3911395101860, "正式名称": "医療法人杏林会高知ハーモニーホスピタル", "機関区分": 1, "都道府県コード": 39, "市区町村コード": 201, "所在地": "高知県高知市南金田５番１８号", "緯度": 33.564765, "経度": 133.558362, "url": "https://www.iryou.teikyouseido.mhlw.go.jp/znk-web/juminkanja/S2430/initialize?prefCd=39&kikanCd=1395101860&kikanKbn=1", "url2": "http://www.kochi-harmony.or.jp/", "内容": "医療法人杏林会高知ハーモニーホスピタル【1:病院】【診療科目:内科_糖尿病・内分泌内科_呼吸器内科_消化器内科_児童精神科_精神科_神経科_心療内科_老年精神科_老年心療内科】【一般病床数:0療養病床数:0精神病床数:133感染症病床数:0合計病床数:133】高知県高知市南金田５番１８号" }, "geometry": { "type": "Point", "coordinates": [ 133.558362, 33.564765 ] } },
{ "type": "Feature", "properties": { "ID": 3911395102160, "正式名称": "高知厚生病院", "機関区分": 1, "都道府県コード": 39, "市区町村コード": 201, "所在地": "高知県高知市葛島１ー９ー５０", "緯度": 33.558368, "経度": 133.572111, "url": "https://www.iryou.teikyouseido.mhlw.go.jp/znk-web/juminkanja/S2430/initialize?prefCd=39&kikanCd=1395102160&kikanKbn=1", "url2": "http://www.kochi-koseihp.jp", "内容": "高知厚生病院【1:病院】【診療科目:内科_糖尿病内科_呼吸器内科_循環器内科_胃腸内科_消化器外科_整形外科_リハビリテーション科】【一般病床数:42療養病床数:0精神病床数:0感染症病床数:0合計病床数:42】高知県高知市葛島１ー９ー５０" }, "geometry": { "type": "Point", "coordinates": [ 133.572111, 33.558368 ] } },
{ "type": "Feature", "properties": { "ID": 3911395102320, "正式名称": "高知赤十字病院", "機関区分": 1, "都道府県コード": 39, "市区町村コード": 201, "所在地": "高知県高知市秦南町１丁目４番６３ー１１号", "緯度": 33.577943, "経度": 133.544312, "url": "https://www.iryou.teikyouseido.mhlw.go.jp/znk-web/juminkanja/S2430/initialize?prefCd=39&kikanCd=1395102320&kikanKbn=1", "url2": "http://www.kochi-med.jrc.or.jp", "内容": "高知赤十字病院【1:病院】【診療科目:内科_血液内科_糖尿病内科_脳神経内科_呼吸器内科_循環器内科_消化器内科_外科_脳神経外科_呼吸器外科_心臓血管外科_消化器外科_乳腺・内分泌外科_整形外科_形成外科_小児科_産婦人科_眼科_耳鼻いんこう科_皮膚科_泌尿器科_精神科_心療内科_リウマチ科_リハビリテーション科_放射線科_病理診断科_麻酔科】【一般病床数:402療養病床数:0精神病床数:0感染症病床数:0合計病床数:402】高知県高知市秦南町１丁目４番６３ー１１号" }, "geometry": { "type": "Point", "coordinates": [ 133.544312, 33.577943 ] } },
{ "type": "Feature", "properties": { "ID": 3911395102610, "正式名称": "独立行政法人国立病院機構高知病院", "機関区分": 1, "都道府県コード": 39, "市区町村コード": 201, "所在地": "高知県高知市朝倉西町１丁目２番２５号", "緯度": 33.542715, "経度": 133.484345, "url": "https://www.iryou.teikyouseido.mhlw.go.jp/znk-web/juminkanja/S2430/initialize?prefCd=39&kikanCd=1395102610&kikanKbn=1", "url2": "https://kochi.hosp.go.jp/", "内容": "独立行政法人国立病院機構高知病院【1:病院】【診療科目:内科_呼吸器内科_循環器内科_消化器内科_神経内科_外科_脳神経外科_呼吸器外科_消化器外科_整形外科_小児科_小児外科_産科_婦人科_眼科_耳鼻いんこう科_皮膚科_泌尿器科_精神科_歯科_アレルギー科_リウマチ科_リハビリテーション科_放射線科_病理診断科_麻酔科】【一般病床数:402療養病床数:0精神病床数:0感染症病床数:0合計病床数:424】高知県高知市朝倉西町１丁目２番２５号" }, "geometry": { "type": "Point", "coordinates": [ 133.484345, 33.542715 ] } },
{ "type": "Feature", "properties": { "ID": 3911395102870, "正式名称": "島本病院", "機関区分": 1, "都道府県コード": 39, "市区町村コード": 201, "所在地": "高知県高知市帯屋町２丁目６番３号", "緯度": 33.560238, "経度": 133.535258, "url": "https://www.iryou.teikyouseido.mhlw.go.jp/znk-web/juminkanja/S2430/initialize?prefCd=39&kikanCd=1395102870&kikanKbn=1", "url2": "http://www.shimamotohp.or.jp/index.html", "内容": "島本病院【1:病院】【診療科目:内科_循環器内科_消化器内科_神経内科_老年内科_脳神経外科_リハビリテーション科_放射線科】【一般病床数:0療養病床数:120精神病床数:0感染症病床数:0合計病床数:120】高知県高知市帯屋町２丁目６番３号" }, "geometry": { "type": "Point", "coordinates": [ 133.535258, 33.560238 ] } },
{ "type": "Feature", "properties": { "ID": 3911395102900, "正式名称": "だいいちリハビリテーション病院", "機関区分": 1, "都道府県コード": 39, "市区町村コード": 201, "所在地": "高知県高知市九反田２番１４号", "緯度": 33.558244, "経度": 133.547963, "url": "https://www.iryou.teikyouseido.mhlw.go.jp/znk-web/juminkanja/S2430/initialize?prefCd=39&kikanCd=1395102900&kikanKbn=1", "url2": "http://www.daiichi-hp.jp", "内容": "だいいちリハビリテーション病院【1:病院】【診療科目:内科_呼吸器内科_循環器内科_消化器内科_外科_整形外科_皮膚科_精神科_リウマチ科_リハビリテーション科_放射線科_麻酔科】【一般病床数:60療養病床数:120精神病床数:0感染症病床数:0合計病床数:180】高知県高知市九反田２番１４号" }, "geometry": { "type": "Point", "coordinates": [ 133.547963, 33.558244 ] } },
{ "type": "Feature", "properties": { "ID": 3911395103170, "正式名称": "高知記念病院", "機関区分": 1, "都道府県コード": 39, "市区町村コード": 201, "所在地": "高知県高知市城見町４－１３", "緯度": 33.559199, "経度": 133.551836, "url": "https://www.iryou.teikyouseido.mhlw.go.jp/znk-web/juminkanja/S2430/initialize?prefCd=39&kikanCd=1395103170&kikanKbn=1", "url2": "https://kochi-kinen.jp/", "内容": "高知記念病院【1:病院】【診療科目:内科_血液内科_糖尿病内科_脳神経内科_呼吸器内科_循環器内科_消化器内科_人工透析内科_外科_消化器外科_肛門外科_整形外科_皮膚科_美容皮膚科_リウマチ科_リハビリテーション科】【一般病床数:144療養病床数:55精神病床数:0感染症病床数:0合計病床数:199】高知県高知市城見町４－１３" }, "geometry": { "type": "Point", "coordinates": [ 133.551836, 33.559199 ] } },
{ "type": "Feature", "properties": { "ID": 3911395103200, "正式名称": "潮江高橋病院", "機関区分": 1, "都道府県コード": 39, "市区町村コード": 201, "所在地": "高知県高知市土居町９－１８", "緯度": 33.554403, "経度": 133.544582, "url": "https://www.iryou.teikyouseido.mhlw.go.jp/znk-web/juminkanja/S2430/initialize?prefCd=39&kikanCd=1395103200&kikanKbn=1", "url2": "https://www.takashiokai.jp", "内容": "潮江高橋病院【1:病院】【診療科目:内科_呼吸器内科_循環器内科_消化器内科_外科_眼科_リハビリテーション科_放射線科】【一般病床数:32療養病床数:48精神病床数:0感染症病床数:0合計病床数:80】高知県高知市土居町９－１８" }, "geometry": { "type": "Point", "coordinates": [ 133.544582, 33.554403 ] } },
{ "type": "Feature", "properties": { "ID": 3911395103330, "正式名称": "海里マリン病院", "機関区分": 1, "都道府県コード": 39, "市区町村コード": 201, "所在地": "高知県高知市仁井田１６１７ー５", "緯度": 33.514116, "経度": 133.572582, "url": "https://www.iryou.teikyouseido.mhlw.go.jp/znk-web/juminkanja/S2430/initialize?prefCd=39&kikanCd=1395103330&kikanKbn=1", "url2": "https://www.marine-hosp.jp/", "内容": "海里マリン病院【1:病院】【診療科目:内科_循環器内科_胃腸内科_外科_整形外科_眼科_皮膚科_精神科_リウマチ科_リハビリテーション科_放射線科_麻酔科】【一般病床数:76療養病床数:0精神病床数:0感染症病床数:0合計病床数:76】高知県高知市仁井田１６１７ー５" }, "geometry": { "type": "Point", "coordinates": [ 133.572582, 33.514116 ] } },
{ "type": "Feature", "properties": { "ID": 3911395103460, "正式名称": "近森病院", "機関区分": 1, "都道府県コード": 39, "市区町村コード": 201, "所在地": "高知県高知市大川筋一丁目１番１６号", "緯度": 33.564354, "経度": 133.542183, "url": "https://www.iryou.teikyouseido.mhlw.go.jp/znk-web/juminkanja/S2430/initialize?prefCd=39&kikanCd=1395103460&kikanKbn=1", "url2": "http://www.chikamori.com", "内容": "近森病院【1:病院】【診療科目:内科_感染症内科_血液内科_糖尿病内科_代謝内科_内分泌内科_脳神経内科_呼吸器内科_循環器内科_消化器内科_腎臓内科_人工透析内科_外科_脳神経外科_呼吸器外科_心臓血管外科_消化器外科_乳腺外科_整形外科_形成外科_小児外科_皮膚科_泌尿器科_精神科_心療内科_歯科_リウマチ科_リハビリテーション科_放射線科_病理診断科_救急科_麻酔科】【一般病床数:429療養病床数:0精神病床数:60感染症病床数:0合計病床数:489】高知県高知市大川筋一丁目１番１６号" }, "geometry": { "type": "Point", "coordinates": [ 133.542183, 33.564354 ] } },
{ "type": "Feature", "properties": { "ID": 3911395103590, "正式名称": "土佐田村病院", "機関区分": 1, "都道府県コード": 39, "市区町村コード": 201, "所在地": "高知県高知市稲荷町１１－２０", "緯度": 33.557047, "経度": 133.561253, "url": "https://www.iryou.teikyouseido.mhlw.go.jp/znk-web/juminkanja/S2430/initialize?prefCd=39&kikanCd=1395103590&kikanKbn=1", "url2": "https://tosatamura.jp", "内容": "土佐田村病院【1:病院】【診療科目:内科_呼吸器内科_循環器内科_消化器内科_リハビリテーション科_放射線科】【一般病床数:0療養病床数:44精神病床数:0感染症病床数:0合計病床数:44】高知県高知市稲荷町１１－２０" }, "geometry": { "type": "Point", "coordinates": [ 133.561253, 33.557047 ] } },
{ "type": "Feature", "properties": { "ID": 3911395103750, "正式名称": "図南病院", "機関区分": 1, "都道府県コード": 39, "市区町村コード": 201, "所在地": "高知県高知市知寄町１丁目５－１５", "緯度": 33.558891, "経度": 133.556185, "url": "https://www.iryou.teikyouseido.mhlw.go.jp/znk-web/juminkanja/S2430/initialize?prefCd=39&kikanCd=1395103750&kikanKbn=1", "url2": "http://www.hisakai.or.jp/tonan/", "内容": "図南病院【1:病院】【診療科目:内科_脳神経内科_呼吸器内科_循環器内科_消化器内科_肝臓内科_内視鏡内科_緩和ケア内科_外科_消化器外科_乳腺外科_大腸・肛門外科_内視鏡外科_整形外科_形成外科_リハビリテーション科_放射線科_麻酔科】【一般病床数:119療養病床数:0精神病床数:0感染症病床数:0合計病床数:119】高知県高知市知寄町１丁目５－１５" }, "geometry": { "type": "Point", "coordinates": [ 133.556185, 33.558891 ] } },
{ "type": "Feature", "properties": { "ID": 3911395103910, "正式名称": "長浜病院", "機関区分": 1, "都道府県コード": 39, "市区町村コード": 201, "所在地": "高知県高知市長浜８０１", "緯度": 33.501044, "経度": 133.544841, "url": "https://www.iryou.teikyouseido.mhlw.go.jp/znk-web/juminkanja/S2430/initialize?prefCd=39&kikanCd=1395103910&kikanKbn=1", "url2": "http://www.nagahama-hp.or.jp", "内容": "長浜病院【1:病院】【診療科目:内科_呼吸器内科_気管食道内科_循環器内科_消化器内科_外科_呼吸器外科_心臓血管外科_肛門外科_整形外科_形成外科】【一般病床数:50療養病床数:0精神病床数:0感染症病床数:0合計病床数:50】高知県高知市長浜８０１" }, "geometry": { "type": "Point", "coordinates": [ 133.544841, 33.501044 ] } },
{ "type": "Feature", "properties": { "ID": 3911395104500, "正式名称": "医療法人久会　久病院", "機関区分": 1, "都道府県コード": 39, "市区町村コード": 201, "所在地": "高知県高知市桜井町１－２－３５", "緯度": 33.560552, "経度": 133.547857, "url": "https://www.iryou.teikyouseido.mhlw.go.jp/znk-web/juminkanja/S2430/initialize?prefCd=39&kikanCd=1395104500&kikanKbn=1", "url2": "http://www.hisakai.or.jp/hisa/index.htm", "内容": "医療法人久会　久病院【1:病院】【診療科目:内科_糖尿病内科_呼吸器内科_消化器内科_リハビリテーション科】【一般病床数:52療養病床数:32精神病床数:0感染症病床数:0合計病床数:84】高知県高知市桜井町１－２－３５" }, "geometry": { "type": "Point", "coordinates": [ 133.547857, 33.560552 ] } },
{ "type": "Feature", "properties": { "ID": 3911395104630, "正式名称": "平田病院", "機関区分": 1, "都道府県コード": 39, "市区町村コード": 201, "所在地": "高知県高知市本町５丁目４番２３号", "緯度": 33.557254, "経度": 133.530171, "url": "https://www.iryou.teikyouseido.mhlw.go.jp/znk-web/juminkanja/S2430/initialize?prefCd=39&kikanCd=1395104630&kikanKbn=1", "url2": "http://www.hirata-hp.com/", "内容": "平田病院【1:病院】【診療科目:内科_呼吸器内科_整形外科_アレルギー科_リウマチ科_リハビリテーション科】【一般病床数:0療養病床数:24精神病床数:0感染症病床数:0合計病床数:24】高知県高知市本町５丁目４番２３号" }, "geometry": { "type": "Point", "coordinates": [ 133.530171, 33.557254 ] } },
{ "type": "Feature", "properties": { "ID": 3911395104890, "正式名称": "藤戸病院", "機関区分": 1, "都道府県コード": 39, "市区町村コード": 201, "所在地": "高知県高知市上町１丁目４－２４", "緯度": 33.55781, "経度": 133.525451, "url": "https://www.iryou.teikyouseido.mhlw.go.jp/znk-web/juminkanja/S2430/initialize?prefCd=39&kikanCd=1395104890&kikanKbn=1", "url2": "https://okura-kai.com", "内容": "藤戸病院【1:病院】【診療科目:精神科_心療内科】【一般病床数:0療養病床数:0精神病床数:80感染症病床数:0合計病床数:80】高知県高知市上町１丁目４－２４" }, "geometry": { "type": "Point", "coordinates": [ 133.525451, 33.55781 ] } },
{ "type": "Feature", "properties": { "ID": 3911395104920, "正式名称": "細木病院", "機関区分": 1, "都道府県コード": 39, "市区町村コード": 201, "所在地": "高知県高知市大膳町３７", "緯度": 33.559748, "経度": 133.522671, "url": "https://www.iryou.teikyouseido.mhlw.go.jp/znk-web/juminkanja/S2430/initialize?prefCd=39&kikanCd=1395104920&kikanKbn=1", "url2": "http://hosogi-hospital.jp/index.htm", "内容": "細木病院【1:病院】【診療科目:内科_糖尿病内科_内分泌内科_呼吸器内科_循環器内科_消化器内科_腎臓内科_外科_脳神経外科_消化器外科_乳腺外科_肛門外科_整形外科_形成外科_小児整形外科_小児科_小児神経科_耳鼻いんこう科_皮膚科_美容皮膚科_泌尿器科_精神科_心療内科_歯科_リウマチ科_リハビリテーション科_放射線科_麻酔科】【一般病床数:162療養病床数:153精神病床数:113感染症病床数:0合計病床数:428】高知県高知市大膳町３７" }, "geometry": { "type": "Point", "coordinates": [ 133.522671, 33.559748 ] } },
{ "type": "Feature", "properties": { "ID": 3911395105060, "正式名称": "上町病院", "機関区分": 1, "都道府県コード": 39, "市区町村コード": 201, "所在地": "高知県高知市上町１－７－３４", "緯度": 33.557093, "経度": 133.526029, "url": "https://www.iryou.teikyouseido.mhlw.go.jp/znk-web/juminkanja/S2430/initialize?prefCd=39&kikanCd=1395105060&kikanKbn=1", "url2": "http://www.kamimachi-hp.or.jp/", "内容": "上町病院【1:病院】【診療科目:内科_糖尿病内科_外科_整形外科_形成外科_皮膚科_リハビリテーション科_放射線科_麻酔科】【一般病床数:0療養病床数:92精神病床数:0感染症病床数:0合計病床数:92】高知県高知市上町１－７－３４" }, "geometry": { "type": "Point", "coordinates": [ 133.526029, 33.557093 ] } },
{ "type": "Feature", "properties": { "ID": 3911395105220, "正式名称": "南病院", "機関区分": 1, "都道府県コード": 39, "市区町村コード": 201, "所在地": "高知県高知市本町３丁目６－２８", "緯度": 33.557215, "経度": 133.535022, "url": "https://www.iryou.teikyouseido.mhlw.go.jp/znk-web/juminkanja/S2430/initialize?prefCd=39&kikanCd=1395105220&kikanKbn=1", "url2": null, "内容": "南病院【1:病院】【診療科目:内科_循環器内科_消化器内科_リハビリテーション科_放射線科】【一般病床数:42療養病床数:28精神病床数:0感染症病床数:0合計病床数:70】高知県高知市本町３丁目６－２８" }, "geometry": { "type": "Point", "coordinates": [ 133.535022, 33.557215 ] } },
{ "type": "Feature", "properties": { "ID": 3911395105480, "正式名称": "山村病院", "機関区分": 1, "都道府県コード": 39, "市区町村コード": 201, "所在地": "高知県高知市下島町１０６番地", "緯度": 33.5547, "経度": 133.507866, "url": "https://www.iryou.teikyouseido.mhlw.go.jp/znk-web/juminkanja/S2430/initialize?prefCd=39&kikanCd=1395105480&kikanKbn=1", "url2": "http://yamamurakai.sakura.ne.jp", "内容": "山村病院【1:病院】【診療科目:内科_呼吸器内科_循環器内科_消化器内科_整形外科_泌尿器科_リハビリテーション科】【一般病床数:0療養病床数:33精神病床数:0感染症病床数:0合計病床数:33】高知県高知市下島町１０６番地" }, "geometry": { "type": "Point", "coordinates": [ 133.507866, 33.5547 ] } },
{ "type": "Feature", "properties": { "ID": 3911395105640, "正式名称": "高知城東病院", "機関区分": 1, "都道府県コード": 39, "市区町村コード": 201, "所在地": "高知県高知市大津乙７１９", "緯度": 33.567746, "経度": 133.597541, "url": "https://www.iryou.teikyouseido.mhlw.go.jp/znk-web/juminkanja/S2430/initialize?prefCd=39&kikanCd=1395105640&kikanKbn=1", "url2": "http://www.kochijoto.or.jp/", "内容": "高知城東病院【1:病院】【診療科目:内科_皮膚科_美容皮膚科_リハビリテーション科_放射線科】【一般病床数:0療養病床数:60精神病床数:0感染症病床数:0合計病床数:60】高知県高知市大津乙７１９" }, "geometry": { "type": "Point", "coordinates": [ 133.597541, 33.567746 ] } },
{ "type": "Feature", "properties": { "ID": 3911395105800, "正式名称": "特定医療法人竹下会竹下病院", "機関区分": 1, "都道府県コード": 39, "市区町村コード": 201, "所在地": "高知県高知市与力町３番８号", "緯度": 33.557977, "経度": 133.538431, "url": "https://www.iryou.teikyouseido.mhlw.go.jp/znk-web/juminkanja/S2430/initialize?prefCd=39&kikanCd=1395105800&kikanKbn=1", "url2": "http://www.takeshita-hp.jp/", "内容": "特定医療法人竹下会竹下病院【1:病院】【診療科目:内科_糖尿病内科_呼吸器内科_循環器内科_腎臓内科_老年内科_外科_消化器外科_肛門外科_内視鏡外科_整形外科_婦人科_皮膚科_泌尿器科_リウマチ科_リハビリテーション科】【一般病床数:76療養病床数:0精神病床数:0感染症病床数:0合計病床数:76】高知県高知市与力町３番８号" }, "geometry": { "type": "Point", "coordinates": [ 133.538431, 33.557977 ] } },
{ "type": "Feature", "properties": { "ID": 3911395105930, "正式名称": "町田病院", "機関区分": 1, "都道府県コード": 39, "市区町村コード": 201, "所在地": "高知県高知市旭町１－１０４", "緯度": 33.556979, "経度": 133.512905, "url": "https://www.iryou.teikyouseido.mhlw.go.jp/znk-web/juminkanja/S2430/initialize?prefCd=39&kikanCd=1395105930&kikanKbn=1", "url2": "http://www.machida-hp.com/", "内容": "町田病院【1:病院】【診療科目:眼科】【一般病床数:60療養病床数:0精神病床数:0感染症病床数:0合計病床数:60】高知県高知市旭町１－１０４" }, "geometry": { "type": "Point", "coordinates": [ 133.512905, 33.556979 ] } },
{ "type": "Feature", "properties": { "ID": 3911395106070, "正式名称": "独立行政法人地域医療機能推進機構高知西病院", "機関区分": 1, "都道府県コード": 39, "市区町村コード": 201, "所在地": "高知県高知市神田３１７－１２", "緯度": 33.54059, "経度": 133.501842, "url": "https://www.iryou.teikyouseido.mhlw.go.jp/znk-web/juminkanja/S2430/initialize?prefCd=39&kikanCd=1395106070&kikanKbn=1", "url2": "http://kochi.jcho.go.jp/", "内容": "独立行政法人地域医療機能推進機構高知西病院【1:病院】【診療科目:内科_腎代謝内科_外科_消化器外科_整形外科_人工透析血管外科_泌尿器科_リハビリテーション科_放射線科_麻酔科】【一般病床数:146療養病床数:0精神病床数:0感染症病床数:0合計病床数:146】高知県高知市神田３１７－１２" }, "geometry": { "type": "Point", "coordinates": [ 133.501842, 33.54059 ] } },
{ "type": "Feature", "properties": { "ID": 3911395106100, "正式名称": "三愛病院", "機関区分": 1, "都道府県コード": 39, "市区町村コード": 201, "所在地": "高知県高知市一宮西町１丁目７ー２５", "緯度": 33.58333, "経度": 133.567771, "url": "https://www.iryou.teikyouseido.mhlw.go.jp/znk-web/juminkanja/S2430/initialize?prefCd=39&kikanCd=1395106100&kikanKbn=1", "url2": "http://www.sanai-hospital.jp/top/", "内容": "三愛病院【1:病院】【診療科目:内科_循環器内科_整形外科_小児科_耳鼻いんこう科_皮膚科_精神科_リハビリテーション科_放射線科】【一般病床数:98療養病床数:0精神病床数:0感染症病床数:0合計病床数:98】高知県高知市一宮西町１丁目７ー２５" }, "geometry": { "type": "Point", "coordinates": [ 133.567771, 33.58333 ] } },
{ "type": "Feature", "properties": { "ID": 3911395106230, "正式名称": "高知総合リハビリテーション病院", "機関区分": 1, "都道府県コード": 39, "市区町村コード": 201, "所在地": "高知県高知市一宮南町１丁目１０番１５号", "緯度": 33.579066, "経度": 133.563756, "url": "https://www.iryou.teikyouseido.mhlw.go.jp/znk-web/juminkanja/S2430/initialize?prefCd=39&kikanCd=1395106230&kikanKbn=1", "url2": "https://www.jojinkai.com/kouchi/", "内容": "高知総合リハビリテーション病院【1:病院】【診療科目:内科_循環器内科_消化器内科_リハビリテーション科】【一般病床数:88療養病床数:88精神病床数:0感染症病床数:0合計病床数:176】高知県高知市一宮南町１丁目１０番１５号" }, "geometry": { "type": "Point", "coordinates": [ 133.563756, 33.579066 ] } },
{ "type": "Feature", "properties": { "ID": 3911395106360, "正式名称": "高橋病院", "機関区分": 1, "都道府県コード": 39, "市区町村コード": 201, "所在地": "高知県高知市愛宕町３丁目９番２０号", "緯度": 33.570777, "経度": 133.536934, "url": "https://www.iryou.teikyouseido.mhlw.go.jp/znk-web/juminkanja/S2430/initialize?prefCd=39&kikanCd=1395106360&kikanKbn=1", "url2": null, "内容": "高橋病院【1:病院】【診療科目:内科_呼吸器内科_循環器内科_消化器内科_外科_整形外科_眼科】【一般病床数:0療養病床数:29精神病床数:0感染症病床数:0合計病床数:29】高知県高知市愛宕町３丁目９番２０号" }, "geometry": { "type": "Point", "coordinates": [ 133.536934, 33.570777 ] } },
{ "type": "Feature", "properties": { "ID": 3911395106490, "正式名称": "新松田会　愛宕病院分院", "機関区分": 1, "都道府県コード": 39, "市区町村コード": 201, "所在地": "高知県高知市長浜", "緯度": 33.489501, "経度": 133.549185, "url": "https://www.iryou.teikyouseido.mhlw.go.jp/znk-web/juminkanja/S2430/initialize?prefCd=39&kikanCd=1395106490&kikanKbn=1", "url2": "http://atago-ryoyohp.jp/", "内容": "新松田会　愛宕病院分院【1:病院】【診療科目:内科_精神科_心療内科_リハビリテーション科】【一般病床数:60療養病床数:120精神病床数:0感染症病床数:0合計病床数:180】高知県高知市長浜" }, "geometry": { "type": "Point", "coordinates": [ 133.549185, 33.489501 ] } },
{ "type": "Feature", "properties": { "ID": 3911395106650, "正式名称": "岡林病院", "機関区分": 1, "都道府県コード": 39, "市区町村コード": 201, "所在地": "高知県高知市神田５９８", "緯度": 33.548922, "経度": 133.514619, "url": "https://www.iryou.teikyouseido.mhlw.go.jp/znk-web/juminkanja/S2430/initialize?prefCd=39&kikanCd=1395106650&kikanKbn=1", "url2": "http://okabayashi.jp", "内容": "岡林病院【1:病院】【診療科目:内科_血液内科_呼吸器内科_老年・呼吸器内科_循環器内科_消化器内科_老年内科_外科_脳神経外科_心臓血管外科_整形外科_形成外科_眼科_皮膚科_泌尿器科_アレルギー科_リウマチ科_リハビリテーション科_放射線科】【一般病床数:91療養病床数:0精神病床数:0感染症病床数:0合計病床数:91】高知県高知市神田５９８" }, "geometry": { "type": "Point", "coordinates": [ 133.514619, 33.548922 ] } },
{ "type": "Feature", "properties": { "ID": 3911395106810, "正式名称": "下村病院", "機関区分": 1, "都道府県コード": 39, "市区町村コード": 201, "所在地": "高知県高知市南はりまや町１丁目７－１５", "緯度": 33.558202, "経度": 133.5429, "url": "https://www.iryou.teikyouseido.mhlw.go.jp/znk-web/juminkanja/S2430/initialize?prefCd=39&kikanCd=1395106810&kikanKbn=1", "url2": "https://shimomura-hospital.com/", "内容": "下村病院【1:病院】【診療科目:内科_消化器内科_肛門外科_泌尿器科_男性泌尿器科】【一般病床数:41療養病床数:0精神病床数:0感染症病床数:0合計病床数:41】高知県高知市南はりまや町１丁目７－１５" }, "geometry": { "type": "Point", "coordinates": [ 133.5429, 33.558202 ] } },
{ "type": "Feature", "properties": { "ID": 3911395107080, "正式名称": "田中整形外科病院", "機関区分": 1, "都道府県コード": 39, "市区町村コード": 201, "所在地": "高知県高知市上町３丁目２番６号", "緯度": 33.558157, "経度": 133.522579, "url": "https://www.iryou.teikyouseido.mhlw.go.jp/znk-web/juminkanja/S2430/initialize?prefCd=39&kikanCd=1395107080&kikanKbn=1", "url2": "https://www.tanakaseikei.jp/", "内容": "田中整形外科病院【1:病院】【診療科目:内科_ペインクリニック内科_整形外科_リウマチ科_リハビリテーション科_麻酔科】【一般病床数:90療養病床数:0精神病床数:0感染症病床数:0合計病床数:90】高知県高知市上町３丁目２番６号" }, "geometry": { "type": "Point", "coordinates": [ 133.522579, 33.558157 ] } },
{ "type": "Feature", "properties": { "ID": 3911395107400, "正式名称": "横浜病院", "機関区分": 1, "都道府県コード": 39, "市区町村コード": 201, "所在地": "高知県高知市横浜東町１０番１号", "緯度": 33.519483, "経度": 133.547949, "url": "https://www.iryou.teikyouseido.mhlw.go.jp/znk-web/juminkanja/S2430/initialize?prefCd=39&kikanCd=1395107400&kikanKbn=1", "url2": "http://www.kochi-yokohama-hp.jp", "内容": "横浜病院【1:病院】【診療科目:内科_呼吸器内科_循環器内科_消化器内科_外科_整形外科_精神科_リハビリテーション科_放射線科】【一般病床数:0療養病床数:180精神病床数:0感染症病床数:0合計病床数:180】高知県高知市横浜東町１０番１号" }, "geometry": { "type": "Point", "coordinates": [ 133.547949, 33.519483 ] } },
{ "type": "Feature", "properties": { "ID": 3911395107790, "正式名称": "田村内科整形外科病院", "機関区分": 1, "都道府県コード": 39, "市区町村コード": 201, "所在地": "高知県高知市二葉町１０ー１０", "緯度": 33.556572, "経度": 133.55739, "url": "https://www.iryou.teikyouseido.mhlw.go.jp/znk-web/juminkanja/S2430/initialize?prefCd=39&kikanCd=1395107790&kikanKbn=1", "url2": null, "内容": "田村内科整形外科病院【1:病院】【診療科目:内科_循環器内科_消化器内科_胃腸内科_肛門内科_整形外科_リウマチ科_リハビリテーション科】【一般病床数:30療養病床数:40精神病床数:0感染症病床数:0合計病床数:70】高知県高知市二葉町１０ー１０" }, "geometry": { "type": "Point", "coordinates": [ 133.55739, 33.556572 ] } },
{ "type": "Feature", "properties": { "ID": 3911395108120, "正式名称": "北村病院", "機関区分": 1, "都道府県コード": 39, "市区町村コード": 204, "所在地": "高知県南国市東崎１３３６番地", "緯度": 33.575034, "経度": 133.64266, "url": "https://www.iryou.teikyouseido.mhlw.go.jp/znk-web/juminkanja/S2430/initialize?prefCd=39&kikanCd=1395108120&kikanKbn=1", "url2": "http://kitamura-hp.jp/", "内容": "北村病院【1:病院】【診療科目:内科_糖尿病・代謝内科_呼吸器内科_循環器内科_消化器内科_腎臓内科_外科_血管外科_リハビリテーション科_放射線科】【一般病床数:0療養病床数:60精神病床数:0感染症病床数:0合計病床数:60】高知県南国市東崎１３３６番地" }, "geometry": { "type": "Point", "coordinates": [ 133.64266, 33.575034 ] } },
{ "type": "Feature", "properties": { "ID": 3911395108410, "正式名称": "岡豊病院", "機関区分": 1, "都道府県コード": 39, "市区町村コード": 204, "所在地": "高知県南国市岡豊町小蓮６８９－１", "緯度": 33.599474, "経度": 133.617386, "url": "https://www.iryou.teikyouseido.mhlw.go.jp/znk-web/juminkanja/S2430/initialize?prefCd=39&kikanCd=1395108410&kikanKbn=1", "url2": "http://www.okou-hp.or.jp", "内容": "岡豊病院【1:病院】【診療科目:内科_精神科_心療内科_老年精神科_リハビリテーション科】【一般病床数:0療養病床数:42精神病床数:193感染症病床数:0合計病床数:235】高知県南国市岡豊町小蓮６８９－１" }, "geometry": { "type": "Point", "coordinates": [ 133.617386, 33.599474 ] } },
{ "type": "Feature", "properties": { "ID": 3911395108620, "正式名称": "医療法人つくし会南国病院", "機関区分": 1, "都道府県コード": 39, "市区町村コード": 204, "所在地": "高知県南国市大そね甲１４７９－３", "緯度": 33.567497, "経度": 133.646742, "url": "https://www.iryou.teikyouseido.mhlw.go.jp/znk-web/juminkanja/S2430/initialize?prefCd=39&kikanCd=1395108620&kikanKbn=1", "url2": "http://www.nankoku-hp.or.jp", "内容": "医療法人つくし会南国病院【1:病院】【診療科目:内科_脳神経内科_消化器内科_精神科_リハビリテーション科_放射線科】【一般病床数:102療養病床数:0精神病床数:60感染症病床数:0合計病床数:162】高知県南国市大そね甲１４７９－３" }, "geometry": { "type": "Point", "coordinates": [ 133.646742, 33.567497 ] } },
{ "type": "Feature", "properties": { "ID": 3911395108700, "正式名称": "藤原病院", "機関区分": 1, "都道府県コード": 39, "市区町村コード": 204, "所在地": "高知県南国市大そね乙９９５番地", "緯度": 33.566146, "経度": 133.649604, "url": "https://www.iryou.teikyouseido.mhlw.go.jp/znk-web/juminkanja/S2430/initialize?prefCd=39&kikanCd=1395108700&kikanKbn=1", "url2": null, "内容": "藤原病院【1:病院】【診療科目:内科_循環器内科_消化器内科_外科_脳神経外科_整形外科_リハビリテーション科_放射線科_麻酔科】【一般病床数:0療養病床数:117精神病床数:0感染症病床数:0合計病床数:117】高知県南国市大そね乙９９５番地" }, "geometry": { "type": "Point", "coordinates": [ 133.649604, 33.566146 ] } },
{ "type": "Feature", "properties": { "ID": 3911395108830, "正式名称": "高知大学医学部附属病院", "機関区分": 1, "都道府県コード": 39, "市区町村コード": 204, "所在地": "高知県南国市岡豊町小蓮１８５－１", "緯度": 33.594753, "経度": 133.614331, "url": "https://www.iryou.teikyouseido.mhlw.go.jp/znk-web/juminkanja/S2430/initialize?prefCd=39&kikanCd=1395108830&kikanKbn=1", "url2": "https://www.kochi-u.ac.jp/kms/hsptl/index.html", "内容": "高知大学医学部附属病院【1:病院】【診療科目:内科_感染症内科_脳神経内科_循環器内科_消化器内科_腫瘍内科_緩和ケア内科_外科_脳神経外科_呼吸器外科_心臓血管外科_消化器外科_乳腺・内分泌外科_頭頸部外科_整形外科_形成外科_小児科_産科_婦人科_眼科_耳鼻いんこう科_皮膚科_泌尿器科_精神科_歯科口腔外科_リハビリテーション科_放射線診断科_放射線治療科_病理診断科_救急科_麻酔科】【一般病床数:583療養病床数:0精神病床数:30感染症病床数:0合計病床数:613】高知県南国市岡豊町小蓮１８５－１" }, "geometry": { "type": "Point", "coordinates": [ 133.614331, 33.594753 ] } },
{ "type": "Feature", "properties": { "ID": 3911395108960, "正式名称": "石川記念病院", "機関区分": 1, "都道府県コード": 39, "市区町村コード": 386, "所在地": "高知県吾川郡いの町波川７７番地", "緯度": 33.541974, "経度": 133.409907, "url": "https://www.iryou.teikyouseido.mhlw.go.jp/znk-web/juminkanja/S2430/initialize?prefCd=39&kikanCd=1395108960&kikanKbn=1", "url2": "https://ishikawahp.com/", "内容": "石川記念病院【1:病院】【診療科目:内科_精神科_神経科】【一般病床数:0療養病床数:0精神病床数:104感染症病床数:0合計病床数:104】高知県吾川郡いの町波川７７番地" }, "geometry": { "type": "Point", "coordinates": [ 133.409907, 33.541974 ] } },
{ "type": "Feature", "properties": { "ID": 3911395109260, "正式名称": "いの町立国民健康保険仁淀病院", "機関区分": 1, "都道府県コード": 39, "市区町村コード": 386, "所在地": "高知県吾川郡いの町１３６９", "緯度": 33.547252, "経度": 133.433513, "url": "https://www.iryou.teikyouseido.mhlw.go.jp/znk-web/juminkanja/S2430/initialize?prefCd=39&kikanCd=1395109260&kikanKbn=1", "url2": "https://www.town.ino.kochi.jp/niyodo-hospital/index.html", "内容": "いの町立国民健康保険仁淀病院【1:病院】【診療科目:内科_循環器内科_消化器内科_外科_消化器外科_肛門外科_整形外科_小児科_婦人科_眼科_耳鼻いんこう科_皮膚科_泌尿器科_放射線科】【一般病床数:60療養病床数:0精神病床数:0感染症病床数:0合計病床数:60】高知県吾川郡いの町１３６９" }, "geometry": { "type": "Point", "coordinates": [ 133.433513, 33.547252 ] } },
{ "type": "Feature", "properties": { "ID": 3911395109390, "正式名称": "永島会　永井病院", "機関区分": 1, "都道府県コード": 39, "市区町村コード": 201, "所在地": "高知県高知市春野町西分２０２７－３", "緯度": 33.499165, "経度": 133.495958, "url": "https://www.iryou.teikyouseido.mhlw.go.jp/znk-web/juminkanja/S2430/initialize?prefCd=39&kikanCd=1395109390&kikanKbn=1", "url2": "http://www.nagai-hp.com/", "内容": "永島会　永井病院【1:病院】【診療科目:内科_感染症内科_呼吸器内科_消化器内科_外科_整形外科_リウマチ科_リハビリテーション科】【一般病床数:0療養病床数:40精神病床数:0感染症病床数:0合計病床数:40】高知県高知市春野町西分２０２７－３" }, "geometry": { "type": "Point", "coordinates": [ 133.495958, 33.499165 ] } },
{ "type": "Feature", "properties": { "ID": 3911395109550, "正式名称": "高知生協病院", "機関区分": 1, "都道府県コード": 39, "市区町村コード": 201, "所在地": "高知県高知市口細山２０６－９", "緯度": 33.56696, "経度": 133.48991, "url": "https://www.iryou.teikyouseido.mhlw.go.jp/znk-web/juminkanja/S2430/initialize?prefCd=39&kikanCd=1395109550&kikanKbn=1", "url2": "http://www.kochi-hco-op.or.jp", "内容": "高知生協病院【1:病院】【診療科目:内科_糖尿病内科_呼吸器内科_循環器内科_消化器内科_胃腸内科_内視鏡内科_外科_呼吸器外科_消化器外科_乳腺外科_肛門外科_整形外科_リウマチ科_リハビリテーション科_放射線科_救急科】【一般病床数:114療養病床数:0精神病床数:0感染症病床数:0合計病床数:114】高知県高知市口細山２０６－９" }, "geometry": { "type": "Point", "coordinates": [ 133.48991, 33.56696 ] } },
{ "type": "Feature", "properties": { "ID": 3911395110080, "正式名称": "南国中央病院", "機関区分": 1, "都道府県コード": 39, "市区町村コード": 204, "所在地": "高知県南国市後免町３－１－２７", "緯度": 33.575865, "経度": 133.647939, "url": "https://www.iryou.teikyouseido.mhlw.go.jp/znk-web/juminkanja/S2430/initialize?prefCd=39&kikanCd=1395110080&kikanKbn=1", "url2": "http://www.chisio-group.or.jp/", "内容": "南国中央病院【1:病院】【診療科目:内科_糖尿病・内分泌内科_呼吸器内科_循環器内科_消化器内科_腎臓内科_外科_脳神経外科_整形外科_リハビリテーション科】【一般病床数:45療養病床数:54精神病床数:0感染症病床数:0合計病床数:99】高知県南国市後免町３－１－２７" }, "geometry": { "type": "Point", "coordinates": [ 133.647939, 33.575865 ] } },
{ "type": "Feature", "properties": { "ID": 3911395110110, "正式名称": "森木病院", "機関区分": 1, "都道府県コード": 39, "市区町村コード": 386, "所在地": "高知県吾川郡いの町３６７４番地", "緯度": 33.547805, "経度": 133.425103, "url": "https://www.iryou.teikyouseido.mhlw.go.jp/znk-web/juminkanja/S2430/initialize?prefCd=39&kikanCd=1395110110&kikanKbn=1", "url2": "https://www.morikihp.com/", "内容": "森木病院【1:病院】【診療科目:内科_消化器内科_腎臓内科_人工透析内科_皮膚科_美容皮膚科_泌尿器科】【一般病床数:0療養病床数:33精神病床数:0感染症病床数:0合計病床数:33】高知県吾川郡いの町３６７４番地" }, "geometry": { "type": "Point", "coordinates": [ 133.425103, 33.547805 ] } },
{ "type": "Feature", "properties": { "ID": 3911395110370, "正式名称": "医療法人　みつる会　高知脳神経外科病院", "機関区分": 1, "都道府県コード": 39, "市区町村コード": 201, "所在地": "高知県高知市朝倉戊７６７－５", "緯度": 33.53706, "経度": 133.486009, "url": "https://www.iryou.teikyouseido.mhlw.go.jp/znk-web/juminkanja/S2430/initialize?prefCd=39&kikanCd=1395110370&kikanKbn=1", "url2": "http://www.kochi-nsg.net", "内容": "医療法人　みつる会　高知脳神経外科病院【1:病院】【診療科目:内科_循環器内科_脳神経外科_心臓血管外科_整形外科_リハビリテーション科】【一般病床数:46療養病床数:0精神病床数:0感染症病床数:0合計病床数:46】高知県高知市朝倉戊７６７－５" }, "geometry": { "type": "Point", "coordinates": [ 133.486009, 33.53706 ] } },
{ "type": "Feature", "properties": { "ID": 3911395110400, "正式名称": "医療法人博信会　中ノ橋病院", "機関区分": 1, "都道府県コード": 39, "市区町村コード": 201, "所在地": "高知県高知市永国寺町１－４６", "緯度": 33.563637, "経度": 133.536717, "url": "https://www.iryou.teikyouseido.mhlw.go.jp/znk-web/juminkanja/S2430/initialize?prefCd=39&kikanCd=1395110400&kikanKbn=1", "url2": "http://www.nakanohashi-hp.jp/", "内容": "医療法人博信会　中ノ橋病院【1:病院】【診療科目:内科_呼吸器内科_循環器内科_消化器内科_胃腸内科_外科_肛門外科_整形外科_リハビリテーション科】【一般病床数:0療養病床数:41精神病床数:0感染症病床数:0合計病床数:41】高知県高知市永国寺町１－４６" }, "geometry": { "type": "Point", "coordinates": [ 133.536717, 33.563637 ] } },
{ "type": "Feature", "properties": { "ID": 3911395110660, "正式名称": "近森リハビリテーション病院", "機関区分": 1, "都道府県コード": 39, "市区町村コード": 201, "所在地": "高知県高知市廿代町２番２２号", "緯度": 33.564942, "経度": 133.5411, "url": "https://www.iryou.teikyouseido.mhlw.go.jp/znk-web/juminkanja/S2430/initialize?prefCd=39&kikanCd=1395110660&kikanKbn=1", "url2": "https://www.chikamori.com/rehahp/", "内容": "近森リハビリテーション病院【1:病院】【診療科目:内科_神経内科_リハビリテーション科】【一般病床数:0療養病床数:180精神病床数:0感染症病床数:0合計病床数:180】高知県高知市廿代町２番２２号" }, "geometry": { "type": "Point", "coordinates": [ 133.5411, 33.564942 ] } },
{ "type": "Feature", "properties": { "ID": 3911395110790, "正式名称": "土佐希望の家　医療福祉センター", "機関区分": 1, "都道府県コード": 39, "市区町村コード": 204, "所在地": "高知県南国市小籠１０７番地", "緯度": 33.582611, "経度": 133.633327, "url": "https://www.iryou.teikyouseido.mhlw.go.jp/znk-web/juminkanja/S2430/initialize?prefCd=39&kikanCd=1395110790&kikanKbn=1", "url2": "http://www.tosakibou.jp/", "内容": "土佐希望の家　医療福祉センター【1:病院】【診療科目:内科_小児科_リハビリテーション科】【一般病床数:142療養病床数:0精神病床数:0感染症病床数:0合計病床数:142】高知県南国市小籠１０７番地" }, "geometry": { "type": "Point", "coordinates": [ 133.633327, 33.582611 ] } },
{ "type": "Feature", "properties": { "ID": 3911395110820, "正式名称": "医療法人仁栄会島津病院", "機関区分": 1, "都道府県コード": 39, "市区町村コード": 201, "所在地": "高知県高知市比島町４ー６ー２２", "緯度": 33.573152, "経度": 133.549891, "url": "https://www.iryou.teikyouseido.mhlw.go.jp/znk-web/juminkanja/S2430/initialize?prefCd=39&kikanCd=1395110820&kikanKbn=1", "url2": "http://www.shimazuhp.jp/", "内容": "医療法人仁栄会島津病院【1:病院】【診療科目:内科_糖尿病内科_循環器内科_消化器内科_腎臓内科_人工透析内科_外科_消化器外科_肛門外科_整形外科_人工透析外科_皮膚科_泌尿器科_リウマチ科_リハビリテーション科】【一般病床数:69療養病床数:0精神病床数:0感染症病床数:0合計病床数:69】高知県高知市比島町４ー６ー２２" }, "geometry": { "type": "Point", "coordinates": [ 133.549891, 33.573152 ] } },
{ "type": "Feature", "properties": { "ID": 3911395110950, "正式名称": "南国厚生病院", "機関区分": 1, "都道府県コード": 39, "市区町村コード": 204, "所在地": "高知県南国市立田１１８０番地", "緯度": 33.568925, "経度": 133.67127, "url": "https://www.iryou.teikyouseido.mhlw.go.jp/znk-web/juminkanja/S2430/initialize?prefCd=39&kikanCd=1395110950&kikanKbn=1", "url2": "https://chihiro-hp.or.jp/", "内容": "南国厚生病院【1:病院】【診療科目:内科_呼吸器内科_循環器内科_胃腸内科_外科_整形外科_精神科_心療内科_リハビリテーション科_放射線科】【一般病床数:0療養病床数:88精神病床数:0感染症病床数:0合計病床数:88】高知県南国市立田１１８０番地" }, "geometry": { "type": "Point", "coordinates": [ 133.67127, 33.568925 ] } },
{ "type": "Feature", "properties": { "ID": 3911395200200, "正式名称": "高知県立あき総合病院", "機関区分": 1, "都道府県コード": 39, "市区町村コード": 203, "所在地": "高知県安芸市宝永町３－３３", "緯度": 33.506289, "経度": 133.897538, "url": "https://www.iryou.teikyouseido.mhlw.go.jp/znk-web/juminkanja/S2430/initialize?prefCd=39&kikanCd=1395200200&kikanKbn=1", "url2": "https://www.akihp.jp/", "内容": "高知県立あき総合病院【1:病院】【診療科目:内科_血液内科_呼吸器内科_循環器内科_消化器内科_神経内科_外科_脳神経外科_心臓血管外科_整形外科_形成外科_小児科_産婦人科_眼科_耳鼻いんこう科_皮膚科_泌尿器科_精神科_リウマチ科_リハビリテーション科_放射線科_救急科_麻酔科】【一般病床数:175療養病床数:0精神病床数:90感染症病床数:0合計病床数:270】高知県安芸市宝永町３－３３" }, "geometry": { "type": "Point", "coordinates": [ 133.897538, 33.506289 ] } },
{ "type": "Feature", "properties": { "ID": 3911395200460, "正式名称": "森澤病院", "機関区分": 1, "都道府県コード": 39, "市区町村コード": 203, "所在地": "高知県安芸市本町２－１３－３２", "緯度": 33.498381, "経度": 133.908469, "url": "https://www.iryou.teikyouseido.mhlw.go.jp/znk-web/juminkanja/S2430/initialize?prefCd=39&kikanCd=1395200460&kikanKbn=1", "url2": "http://www.morisawa-hp.com", "内容": "森澤病院【1:病院】【診療科目:内科_循環器内科_胃腸内科_外科_脳神経外科_整形外科_皮膚科_美容皮膚科_歯科_リハビリテーション科_放射線診断科】【一般病床数:40療養病床数:32精神病床数:0感染症病床数:0合計病床数:72】高知県安芸市本町２－１３－３２" }, "geometry": { "type": "Point", "coordinates": [ 133.908469, 33.498381 ] } },
{ "type": "Feature", "properties": { "ID": 3911395200620, "正式名称": "芸西病院", "機関区分": 1, "都道府県コード": 39, "市区町村コード": 307, "所在地": "高知県安芸郡芸西村和食甲４２６８", "緯度": 33.521524, "経度": 133.820163, "url": "https://www.iryou.teikyouseido.mhlw.go.jp/znk-web/juminkanja/S2430/initialize?prefCd=39&kikanCd=1395200620&kikanKbn=1", "url2": "http://okura-kai.com/geisei/", "内容": "芸西病院【1:病院】【診療科目:内科_精神科_心療内科_リハビリテーション科】【一般病床数:0療養病床数:48精神病床数:136感染症病床数:0合計病床数:184】高知県安芸郡芸西村和食甲４２６８" }, "geometry": { "type": "Point", "coordinates": [ 133.820163, 33.521524 ] } },
{ "type": "Feature", "properties": { "ID": 3911395200750, "正式名称": "田野病院", "機関区分": 1, "都道府県コード": 39, "市区町村コード": 303, "所在地": "高知県安芸郡田野町１４１４－１", "緯度": 33.429227, "経度": 134.008736, "url": "https://www.iryou.teikyouseido.mhlw.go.jp/znk-web/juminkanja/S2430/initialize?prefCd=39&kikanCd=1395200750&kikanKbn=1", "url2": "http://usui-kai.com/", "内容": "田野病院【1:病院】【診療科目:内科_循環器内科_消化器内科_外科_脳神経外科_消化器外科_肛門外科_整形外科_小児科_小児神経科_眼科_耳鼻いんこう科_皮膚科_リハビリテーション科_放射線科】【一般病床数:103療養病床数:0精神病床数:0感染症病床数:0合計病床数:103】高知県安芸郡田野町１４１４－１" }, "geometry": { "type": "Point", "coordinates": [ 134.008736, 33.429227 ] } },
{ "type": "Feature", "properties": { "ID": 3911395300100, "正式名称": "井上病院", "機関区分": 1, "都道府県コード": 39, "市区町村コード": 205, "所在地": "高知県土佐市高岡町甲２０４４", "緯度": 33.496261, "経度": 133.427036, "url": "https://www.iryou.teikyouseido.mhlw.go.jp/znk-web/juminkanja/S2430/initialize?prefCd=39&kikanCd=1395300100&kikanKbn=1", "url2": "http://tosa-inouehp.jp", "内容": "井上病院【1:病院】【診療科目:内科_呼吸器内科_循環器内科_胃腸内科_外科_肛門外科_眼科_皮膚科_アレルギー科_リハビリテーション科】【一般病床数:50療養病床数:0精神病床数:0感染症病床数:0合計病床数:50】高知県土佐市高岡町甲２０４４" }, "geometry": { "type": "Point", "coordinates": [ 133.427036, 33.496261 ] } },
{ "type": "Feature", "properties": { "ID": 3911395300230, "正式名称": "白菊園病院", "機関区分": 1, "都道府県コード": 39, "市区町村コード": 205, "所在地": "高知県土佐市新居萩の里１", "緯度": 33.449488, "経度": 133.458236, "url": "https://www.iryou.teikyouseido.mhlw.go.jp/znk-web/juminkanja/S2430/initialize?prefCd=39&kikanCd=1395300230&kikanKbn=1", "url2": "http://siragiku.jp", "内容": "白菊園病院【1:病院】【診療科目:内科_循環器内科_消化器内科_神経内科_外科_脳神経外科_消化器外科_整形外科_リハビリテーション科】【一般病床数:47療養病床数:140精神病床数:0感染症病床数:0合計病床数:187】高知県土佐市新居萩の里１" }, "geometry": { "type": "Point", "coordinates": [ 133.458236, 33.449488 ] } },
{ "type": "Feature", "properties": { "ID": 3911395300360, "正式名称": "土佐市立土佐市民病院", "機関区分": 1, "都道府県コード": 39, "市区町村コード": 205, "所在地": "高知県土佐市高岡町甲１８６７", "緯度": 33.494203, "経度": 133.423515, "url": "https://www.iryou.teikyouseido.mhlw.go.jp/znk-web/juminkanja/S2430/initialize?prefCd=39&kikanCd=1395300360&kikanKbn=1", "url2": "http://www.city.tosa.lg.jp/hospital/", "内容": "土佐市立土佐市民病院【1:病院】【診療科目:内科_感染症内科_血液内科_糖尿病内科_呼吸器内科_循環器内科_消化器内科_腎臓内科_人工透析内科_神経内科_外科_脳神経外科_呼吸器外科_心臓血管外科_消化器外科_乳腺・内分泌外科_内視鏡外科_整形外科_小児科_婦人科_眼科_耳鼻いんこう科_皮膚科_泌尿器科_神経科_リウマチ科_リハビリテーション科_放射線科_救急科_麻酔科】【一般病床数:150療養病床数:0精神病床数:0感染症病床数:0合計病床数:150】高知県土佐市高岡町甲１８６７" }, "geometry": { "type": "Point", "coordinates": [ 133.423515, 33.494203 ] } },
{ "type": "Feature", "properties": { "ID": 3911395300490, "正式名称": "高陵病院", "機関区分": 1, "都道府県コード": 39, "市区町村コード": 206, "所在地": "高知県須崎市横町１番２８号", "緯度": 33.390607, "経度": 133.284539, "url": "https://www.iryou.teikyouseido.mhlw.go.jp/znk-web/juminkanja/S2430/initialize?prefCd=39&kikanCd=1395300490&kikanKbn=1", "url2": "https://koryo-hp.or.jp", "内容": "高陵病院【1:病院】【診療科目:内科_血液内科_呼吸器内科_循環器内科_消化器内科_腎臓内科_外科_呼吸器外科_心臓血管外科_消化器外科_整形外科_形成外科_皮膚科_泌尿器科_リハビリテーション科_放射線科】【一般病床数:40療養病床数:89精神病床数:0感染症病床数:0合計病床数:129】高知県須崎市横町１番２８号" }, "geometry": { "type": "Point", "coordinates": [ 133.284539, 33.390607 ] } },
{ "type": "Feature", "properties": { "ID": 3911395300650, "正式名称": "一陽病院", "機関区分": 1, "都道府県コード": 39, "市区町村コード": 206, "所在地": "高知県須崎市赤崎町９－３", "緯度": 33.412663, "経度": 133.285941, "url": "https://www.iryou.teikyouseido.mhlw.go.jp/znk-web/juminkanja/S2430/initialize?prefCd=39&kikanCd=1395300650&kikanKbn=1", "url2": "http://www.ichiyo-hp.jp/", "内容": "一陽病院【1:病院】【診療科目:精神科_老年精神科】【一般病床数:0療養病床数:0精神病床数:216感染症病床数:0合計病床数:218】高知県須崎市赤崎町９－３" }, "geometry": { "type": "Point", "coordinates": [ 133.285941, 33.412663 ] } },
{ "type": "Feature", "properties": { "ID": 3911395300780, "正式名称": "ネオリゾートちひろ病院", "機関区分": 1, "都道府県コード": 39, "市区町村コード": 206, "所在地": "高知県須崎市中町１ー６ー２５", "緯度": 33.388674, "経度": 133.283478, "url": "https://www.iryou.teikyouseido.mhlw.go.jp/znk-web/juminkanja/S2430/initialize?prefCd=39&kikanCd=1395300780&kikanKbn=1", "url2": "https://chihiro-susaki.com/", "内容": "ネオリゾートちひろ病院【1:病院】【診療科目:内科_呼吸器内科_循環器内科_消化器内科_整形外科_リハビリテーション科】【一般病床数:0療養病床数:54精神病床数:0感染症病床数:0合計病床数:54】高知県須崎市中町１ー６ー２５" }, "geometry": { "type": "Point", "coordinates": [ 133.283478, 33.388674 ] } },
{ "type": "Feature", "properties": { "ID": 3911395301080, "正式名称": "須崎くろしお病院", "機関区分": 1, "都道府県コード": 39, "市区町村コード": 206, "所在地": "高知県須崎市緑町４番３０号", "緯度": 33.411713, "経度": 133.289361, "url": "https://www.iryou.teikyouseido.mhlw.go.jp/znk-web/juminkanja/S2430/initialize?prefCd=39&kikanCd=1395301080&kikanKbn=1", "url2": "https://susaki-kuroshio-hp.or.jp/", "内容": "須崎くろしお病院【1:病院】【診療科目:内科_糖尿病・代謝内科_循環器内科_消化器内科_神経内科_老年内科_外科_脳神経外科_消化器外科_肛門外科_整形外科_小児科_眼科_耳鼻いんこう科_皮膚科_泌尿器科_リハビリテーション科_放射線科_麻酔科】【一般病床数:116療養病床数:42精神病床数:0感染症病床数:0合計病床数:158】高知県須崎市緑町４番３０号" }, "geometry": { "type": "Point", "coordinates": [ 133.289361, 33.411713 ] } },
{ "type": "Feature", "properties": { "ID": 3911395301110, "正式名称": "なかとさ病院", "機関区分": 1, "都道府県コード": 39, "市区町村コード": 401, "所在地": "高知県高岡郡中土佐町久礼６６１４", "緯度": 33.327915, "経度": 133.228471, "url": "https://www.iryou.teikyouseido.mhlw.go.jp/znk-web/juminkanja/S2430/initialize?prefCd=39&kikanCd=1395301110&kikanKbn=1", "url2": null, "内容": "なかとさ病院【1:病院】【診療科目:内科_消化器内科_人工透析内科_脳神経外科】【一般病床数:0療養病床数:20精神病床数:0感染症病床数:0合計病床数:20】高知県高岡郡中土佐町久礼６６１４" }, "geometry": { "type": "Point", "coordinates": [ 133.228471, 33.327915 ] } },
{ "type": "Feature", "properties": { "ID": 3911395301240, "正式名称": "檮原町立国民健康保険梼原病院", "機関区分": 1, "都道府県コード": 39, "市区町村コード": 405, "所在地": "高知県高岡郡檮原町川西路２３２０ー１", "緯度": 33.392538, "経度": 132.924915, "url": "https://www.iryou.teikyouseido.mhlw.go.jp/znk-web/juminkanja/S2430/initialize?prefCd=39&kikanCd=1395301240&kikanKbn=1", "url2": "http://www.town.yusuhara.kochi.jp/hospital", "内容": "檮原町立国民健康保険梼原病院【1:病院】【診療科目:内科_整形外科_小児科_眼科_皮膚科】【一般病床数:30療養病床数:0精神病床数:0感染症病床数:0合計病床数:30】高知県高岡郡檮原町川西路２３２０ー１" }, "geometry": { "type": "Point", "coordinates": [ 132.924915, 33.392538 ] } },
{ "type": "Feature", "properties": { "ID": 3911395400130, "正式名称": "渡川病院", "機関区分": 1, "都道府県コード": 39, "市区町村コード": 210, "所在地": "高知県四万十市具同２２７８－１", "緯度": 32.983132, "経度": 132.921917, "url": "https://www.iryou.teikyouseido.mhlw.go.jp/znk-web/juminkanja/S2430/initialize?prefCd=39&kikanCd=1395400130&kikanKbn=1", "url2": "http://www.watarigawa.com", "内容": "渡川病院【1:病院】【診療科目:精神科_心療内科】【一般病床数:0療養病床数:0精神病床数:180感染症病床数:0合計病床数:180】高知県四万十市具同２２７８－１" }, "geometry": { "type": "Point", "coordinates": [ 132.921917, 32.983132 ] } },
{ "type": "Feature", "properties": { "ID": 3911395400260, "正式名称": "木俵病院", "機関区分": 1, "都道府県コード": 39, "市区町村コード": 210, "所在地": "高知県四万十市中村一条通３－３－２５", "緯度": 32.992032, "経度": 132.937187, "url": "https://www.iryou.teikyouseido.mhlw.go.jp/znk-web/juminkanja/S2430/initialize?prefCd=39&kikanCd=1395400260&kikanKbn=1", "url2": "http://kidawara-hp.net/", "内容": "木俵病院【1:病院】【診療科目:内科_消化器内科_外科_肛門外科_耳鼻いんこう科_リハビリテーション科】【一般病床数:0療養病床数:42精神病床数:0感染症病床数:0合計病床数:42】高知県四万十市中村一条通３－３－２５" }, "geometry": { "type": "Point", "coordinates": [ 132.937187, 32.992032 ] } },
{ "type": "Feature", "properties": { "ID": 3911395400390, "正式名称": "四万十市国民健康保険四万十市立市民病院", "機関区分": 1, "都道府県コード": 39, "市区町村コード": 210, "所在地": "高知県四万十市中村東町１ー１ー２７", "緯度": 32.993695, "経度": 132.937462, "url": "https://www.iryou.teikyouseido.mhlw.go.jp/znk-web/juminkanja/S2430/initialize?prefCd=39&kikanCd=1395400390&kikanKbn=1", "url2": "https://www.city.shimanto.lg.jp/site/hospital/", "内容": "四万十市国民健康保険四万十市立市民病院【1:病院】【診療科目:内科_外科_脳神経外科_整形外科_泌尿器科_リハビリテーション科_麻酔科】【一般病床数:89療養病床数:0精神病床数:0感染症病床数:0合計病床数:89】高知県四万十市中村東町１ー１ー２７" }, "geometry": { "type": "Point", "coordinates": [ 132.937462, 32.993695 ] } },
{ "type": "Feature", "properties": { "ID": 3911395400420, "正式名称": "竹本病院", "機関区分": 1, "都道府県コード": 39, "市区町村コード": 210, "所在地": "高知県四万十市右山１９７３番地２", "緯度": 32.978421, "経度": 132.945518, "url": "https://www.iryou.teikyouseido.mhlw.go.jp/znk-web/juminkanja/S2430/initialize?prefCd=39&kikanCd=1395400420&kikanKbn=1", "url2": "http://takemoto-hp.com", "内容": "竹本病院【1:病院】【診療科目:内科_内分泌内科_呼吸器内科_循環器内科_消化器内科_腎臓内科_脳神経外科_整形外科_眼科_泌尿器科_歯科_リハビリテーション科_放射線科】【一般病床数:81療養病床数:50精神病床数:0感染症病床数:0合計病床数:131】高知県四万十市右山１９７３番地２" }, "geometry": { "type": "Point", "coordinates": [ 132.945518, 32.978421 ] } },
{ "type": "Feature", "properties": { "ID": 3911395400550, "正式名称": "中村病院", "機関区分": 1, "都道府県コード": 39, "市区町村コード": 210, "所在地": "高知県四万十市中村小姓町７５番地", "緯度": 32.994637, "経度": 132.932644, "url": "https://www.iryou.teikyouseido.mhlw.go.jp/znk-web/juminkanja/S2430/initialize?prefCd=39&kikanCd=1395400550&kikanKbn=1", "url2": null, "内容": "中村病院【1:病院】【診療科目:内科_呼吸器内科_循環器内科_消化器内科_リハビリテーション科_放射線科】【一般病床数:0療養病床数:60精神病床数:0感染症病床数:0合計病床数:60】高知県四万十市中村小姓町７５番地" }, "geometry": { "type": "Point", "coordinates": [ 132.932644, 32.994637 ] } },
{ "type": "Feature", "properties": { "ID": 3911395400840, "正式名称": "森下病院", "機関区分": 1, "都道府県コード": 39, "市区町村コード": 210, "所在地": "高知県四万十市中村一条通２丁目４４番地", "緯度": 32.991985, "経度": 132.936526, "url": "https://www.iryou.teikyouseido.mhlw.go.jp/znk-web/juminkanja/S2430/initialize?prefCd=39&kikanCd=1395400840&kikanKbn=1", "url2": "http://www.morishitahp.jp", "内容": "森下病院【1:病院】【診療科目:内科_糖尿病・代謝内科_呼吸器内科_循環器内科_消化器内科_整形外科_皮膚科_リハビリテーション科_放射線診断科】【一般病床数:36療養病床数:50精神病床数:0感染症病床数:0合計病床数:86】高知県四万十市中村一条通２丁目４４番地" }, "geometry": { "type": "Point", "coordinates": [ 132.936526, 32.991985 ] } },
{ "type": "Feature", "properties": { "ID": 3911395401140, "正式名称": "大井田病院", "機関区分": 1, "都道府県コード": 39, "市区町村コード": 208, "所在地": "高知県宿毛市中央８丁目３番６号", "緯度": 32.935184, "経度": 132.731412, "url": "https://www.iryou.teikyouseido.mhlw.go.jp/znk-web/juminkanja/S2430/initialize?prefCd=39&kikanCd=1395401140&kikanKbn=1", "url2": "http://www.ooida-hp.net", "内容": "大井田病院【1:病院】【診療科目:内科_循環器内科_胃腸内科_外科_整形外科_小児科_皮膚科_リハビリテーション科】【一般病床数:50療養病床数:0精神病床数:0感染症病床数:0合計病床数:50】高知県宿毛市中央８丁目３番６号" }, "geometry": { "type": "Point", "coordinates": [ 132.731412, 32.935184 ] } },
{ "type": "Feature", "properties": { "ID": 3911395401300, "正式名称": "筒井病院", "機関区分": 1, "都道府県コード": 39, "市区町村コード": 208, "所在地": "高知県宿毛市平田町戸内１８０２", "緯度": 32.959159, "経度": 132.797547, "url": "https://www.iryou.teikyouseido.mhlw.go.jp/znk-web/juminkanja/S2430/initialize?prefCd=39&kikanCd=1395401300&kikanKbn=1", "url2": "http://goseikai.jp/", "内容": "筒井病院【1:病院】【診療科目:内科_呼吸器内科_循環器内科_消化器内科_整形外科_リハビリテーション科_放射線科】【一般病床数:0療養病床数:56精神病床数:0感染症病床数:0合計病床数:56】高知県宿毛市平田町戸内１８０２" }, "geometry": { "type": "Point", "coordinates": [ 132.797547, 32.959159 ] } },
{ "type": "Feature", "properties": { "ID": 3911395401430, "正式名称": "聖ヶ丘病院", "機関区分": 1, "都道府県コード": 39, "市区町村コード": 208, "所在地": "高知県宿毛市押ノ川１１９６", "緯度": 32.945641, "経度": 132.765535, "url": "https://www.iryou.teikyouseido.mhlw.go.jp/znk-web/juminkanja/S2430/initialize?prefCd=39&kikanCd=1395401430&kikanKbn=1", "url2": "https://www.hijiri-hp.jp/", "内容": "聖ヶ丘病院【1:病院】【診療科目:内科_精神科_心療内科】【一般病床数:0療養病床数:45精神病床数:166感染症病床数:0合計病床数:211】高知県宿毛市押ノ川１１９６" }, "geometry": { "type": "Point", "coordinates": [ 132.765535, 32.945641 ] } },
{ "type": "Feature", "properties": { "ID": 3911395401690, "正式名称": "大月町国民健康保険大月病院", "機関区分": 1, "都道府県コード": 39, "市区町村コード": 424, "所在地": "高知県幡多郡大月町鉾土６０３番地", "緯度": 32.821059, "経度": 132.709635, "url": "https://www.iryou.teikyouseido.mhlw.go.jp/znk-web/juminkanja/S2430/initialize?prefCd=39&kikanCd=1395401690&kikanKbn=1", "url2": "http://www.town.otsuki.kochi.jp/hospital/", "内容": "大月町国民健康保険大月病院【1:病院】【診療科目:内科_歯科口腔外科】【一般病床数:25療養病床数:0精神病床数:0感染症病床数:0合計病床数:25】高知県幡多郡大月町鉾土６０３番地" }, "geometry": { "type": "Point", "coordinates": [ 132.709635, 32.821059 ] } },
{ "type": "Feature", "properties": { "ID": 3911395401850, "正式名称": "幡多希望の家医療福祉センター", "機関区分": 1, "都道府県コード": 39, "市区町村コード": 208, "所在地": "高知県宿毛市平田町中山８６７番地", "緯度": 32.961195, "経度": 132.781091, "url": "https://www.iryou.teikyouseido.mhlw.go.jp/znk-web/juminkanja/S2430/initialize?prefCd=39&kikanCd=1395401850&kikanKbn=1", "url2": "http://www.hatakibou.jp/", "内容": "幡多希望の家医療福祉センター【1:病院】【診療科目:内科_小児科_精神科_神経科_リハビリテーション科_放射線科】【一般病床数:51療養病床数:0精神病床数:0感染症病床数:0合計病床数:51】高知県宿毛市平田町中山８６７番地" }, "geometry": { "type": "Point", "coordinates": [ 132.781091, 32.961195 ] } },
{ "type": "Feature", "properties": { "ID": 3911395401980, "正式名称": "高知県立幡多けんみん病院", "機関区分": 1, "都道府県コード": 39, "市区町村コード": 208, "所在地": "高知県宿毛市山奈町芳奈３－１", "緯度": 32.96675, "経度": 132.80553, "url": "https://www.iryou.teikyouseido.mhlw.go.jp/znk-web/juminkanja/S2430/initialize?prefCd=39&kikanCd=1395401980&kikanKbn=1", "url2": "https://www.pref.kochi.lg.jp/hata/", "内容": "高知県立幡多けんみん病院【1:病院】【診療科目:内科_呼吸器内科_循環器内科_消化器内科_神経内科_外科_脳神経外科_消化器外科_整形外科_小児科_産婦人科_眼科_耳鼻いんこう科_皮膚科_泌尿器科_精神科_リハビリテーション科_放射線科_病理診断科_麻酔科】【一般病床数:291療養病床数:0精神病床数:0感染症病床数:3合計病床数:322】高知県宿毛市山奈町芳奈３－１" }, "geometry": { "type": "Point", "coordinates": [ 132.80553, 32.96675 ] } },
{ "type": "Feature", "properties": { "ID": 3911395500290, "正式名称": "同仁病院", "機関区分": 1, "都道府県コード": 39, "市区町村コード": 212, "所在地": "高知県香美市土佐山田町百石町２ー５ー２０", "緯度": 33.607973, "経度": 133.697171, "url": "https://www.iryou.teikyouseido.mhlw.go.jp/znk-web/juminkanja/S2430/initialize?prefCd=39&kikanCd=1395500290&kikanKbn=1", "url2": "http://doujin-hp.or.jp/", "内容": "同仁病院【1:病院】【診療科目:内科_消化器内科_内視鏡内科_泌尿器科_精神科_心療内科_老年精神科_リハビリテーション科_放射線科】【一般病床数:0療養病床数:38精神病床数:214感染症病床数:0合計病床数:252】高知県香美市土佐山田町百石町２ー５ー２０" }, "geometry": { "type": "Point", "coordinates": [ 133.697171, 33.607973 ] } },
{ "type": "Feature", "properties": { "ID": 3911395500320, "正式名称": "香長中央病院", "機関区分": 1, "都道府県コード": 39, "市区町村コード": 212, "所在地": "高知県香美市土佐山田町西本町５－５－３４", "緯度": 33.603849, "経度": 133.678654, "url": "https://www.iryou.teikyouseido.mhlw.go.jp/znk-web/juminkanja/S2430/initialize?prefCd=39&kikanCd=1395500320&kikanKbn=1", "url2": "https://kachocentral.com/", "内容": "香長中央病院【1:病院】【診療科目:内科_消化器内科_リハビリテーション科_放射線科】【一般病床数:0療養病床数:194精神病床数:0感染症病床数:0合計病床数:194】高知県香美市土佐山田町西本町５－５－３４" }, "geometry": { "type": "Point", "coordinates": [ 133.678654, 33.603849 ] } },
{ "type": "Feature", "properties": { "ID": 3911395500610, "正式名称": "香北病院", "機関区分": 1, "都道府県コード": 39, "市区町村コード": 212, "所在地": "高知県香美市香北町美良布１０６４ー９", "緯度": 33.650092, "経度": 133.778898, "url": "https://www.iryou.teikyouseido.mhlw.go.jp/znk-web/juminkanja/S2430/initialize?prefCd=39&kikanCd=1395500610&kikanKbn=1", "url2": null, "内容": "香北病院【1:病院】【診療科目:内科_循環器内科_消化器内科_外科_整形外科_リハビリテーション科】【一般病床数:0療養病床数:30精神病床数:0感染症病床数:0合計病床数:30】高知県香美市香北町美良布１０６４ー９" }, "geometry": { "type": "Point", "coordinates": [ 133.778898, 33.650092 ] } },
{ "type": "Feature", "properties": { "ID": 3911395501040, "正式名称": "野市中央病院", "機関区分": 1, "都道府県コード": 39, "市区町村コード": 211, "所在地": "高知県香南市野市町東野５５５－１８", "緯度": 33.560591, "経度": 133.717377, "url": "https://www.iryou.teikyouseido.mhlw.go.jp/znk-web/juminkanja/S2430/initialize?prefCd=39&kikanCd=1395501040&kikanKbn=1", "url2": "http://www.kouseikai-g.jp", "内容": "野市中央病院【1:病院】【診療科目:内科_循環器内科_胃腸内科_人工透析内科_外科_脳神経外科_消化器外科_整形外科_眼科_皮膚科_泌尿器科_リハビリテーション科_放射線科】【一般病床数:91療養病床数:74精神病床数:0感染症病床数:0合計病床数:165】高知県香南市野市町東野５５５－１８" }, "geometry": { "type": "Point", "coordinates": [ 133.717377, 33.560591 ] } },
{ "type": "Feature", "properties": { "ID": 3911395600220, "正式名称": "大西病院", "機関区分": 1, "都道府県コード": 39, "市区町村コード": 412, "所在地": "高知県高岡郡四万十町古市町６－１２", "緯度": 33.208677, "経度": 133.141047, "url": "https://www.iryou.teikyouseido.mhlw.go.jp/znk-web/juminkanja/S2430/initialize?prefCd=39&kikanCd=1395600220&kikanKbn=1", "url2": "http://www.oonishi-hp.or.jp/", "内容": "大西病院【1:病院】【診療科目:内科_外科_整形外科_小児科_泌尿器科_精神科_リハビリテーション科_放射線科】【一般病床数:0療養病床数:50精神病床数:0感染症病床数:0合計病床数:50】高知県高岡郡四万十町古市町６－１２" }, "geometry": { "type": "Point", "coordinates": [ 133.141047, 33.208677 ] } },
{ "type": "Feature", "properties": { "ID": 3911395600480, "正式名称": "くぼかわ病院", "機関区分": 1, "都道府県コード": 39, "市区町村コード": 412, "所在地": "高知県高岡郡四万十町見付９０２ー１", "緯度": 33.205993, "経度": 133.148786, "url": "https://www.iryou.teikyouseido.mhlw.go.jp/znk-web/juminkanja/S2430/initialize?prefCd=39&kikanCd=1395600480&kikanKbn=1", "url2": "https://www.kawamurakai.com", "内容": "くぼかわ病院【1:病院】【診療科目:内科_循環器内科_神経内科_外科_脳神経外科_消化器外科_肛門外科_整形外科_産婦人科_眼科_耳鼻いんこう科_皮膚科_泌尿器科_精神科_リウマチ科_リハビリテーション科_放射線科_麻酔科】【一般病床数:138療養病床数:34精神病床数:0感染症病床数:0合計病床数:172】高知県高岡郡四万十町見付９０２ー１" }, "geometry": { "type": "Point", "coordinates": [ 133.148786, 33.205993 ] } },
{ "type": "Feature", "properties": { "ID": 3911395700120, "正式名称": "安部病院", "機関区分": 1, "都道府県コード": 39, "市区町村コード": 387, "所在地": "高知県吾川郡仁淀川町岩丸１０２", "緯度": 33.612746, "経度": 133.173703, "url": "https://www.iryou.teikyouseido.mhlw.go.jp/znk-web/juminkanja/S2430/initialize?prefCd=39&kikanCd=1395700120&kikanKbn=1", "url2": "http://www.abehospital.com", "内容": "安部病院【1:病院】【診療科目:内科】【一般病床数:0療養病床数:21精神病床数:0感染症病床数:0合計病床数:21】高知県吾川郡仁淀川町岩丸１０２" }, "geometry": { "type": "Point", "coordinates": [ 133.173703, 33.612746 ] } },
{ "type": "Feature", "properties": { "ID": 3911395700250, "正式名称": "佐川町立高北国民健康保険病院", "機関区分": 1, "都道府県コード": 39, "市区町村コード": 402, "所在地": "高知県高岡郡佐川町甲１６８７番地", "緯度": 33.504258, "経度": 133.287033, "url": "https://www.iryou.teikyouseido.mhlw.go.jp/znk-web/juminkanja/S2430/initialize?prefCd=39&kikanCd=1395700250&kikanKbn=1", "url2": "http://www.town.sakawa.lg.jp/kouhoku_hospital/", "内容": "佐川町立高北国民健康保険病院【1:病院】【診療科目:内科_糖尿病内科_呼吸器内科_循環器内科_消化器内科_外科_脳神経外科_整形外科_小児科_産婦人科_リハビリテーション科_放射線科】【一般病床数:56療養病床数:42精神病床数:0感染症病床数:0合計病床数:98】高知県高岡郡佐川町甲１６８７番地" }, "geometry": { "type": "Point", "coordinates": [ 133.287033, 33.504258 ] } },
{ "type": "Feature", "properties": { "ID": 3911395700380, "正式名称": "清和病院", "機関区分": 1, "都道府県コード": 39, "市区町村コード": 402, "所在地": "高知県高岡郡佐川町乙１７７７番地", "緯度": 33.506422, "経度": 133.279918, "url": "https://www.iryou.teikyouseido.mhlw.go.jp/znk-web/juminkanja/S2430/initialize?prefCd=39&kikanCd=1395700380&kikanKbn=1", "url2": "http://www.seiunkai.com/", "内容": "清和病院【1:病院】【診療科目:内科_呼吸器内科_循環器内科_消化器内科_外科_脳神経外科_消化器外科_肛門外科_整形外科_精神科_心療内科_老年精神科_リハビリテーション科_放射線科】【一般病床数:30療養病床数:53精神病床数:251感染症病床数:0合計病床数:334】高知県高岡郡佐川町乙１７７７番地" }, "geometry": { "type": "Point", "coordinates": [ 133.279918, 33.506422 ] } },
{ "type": "Feature", "properties": { "ID": 3911395700410, "正式名称": "北島病院", "機関区分": 1, "都道府県コード": 39, "市区町村コード": 403, "所在地": "高知県高岡郡越知町越知甲１６６２", "緯度": 33.530308, "経度": 133.252975, "url": "https://www.iryou.teikyouseido.mhlw.go.jp/znk-web/juminkanja/S2430/initialize?prefCd=39&kikanCd=1395700410&kikanKbn=1", "url2": "http://www.kitajima-hp.com/", "内容": "北島病院【1:病院】【診療科目:内科_糖尿病内科_腎臓内科_人工透析内科_ペインクリニック内科_外科_脳神経外科_心臓血管外科_消化器外科_女性乳腺外科_整形外科_婦人科_眼科_泌尿器科_リハビリテーション科_放射線科】【一般病床数:50療養病床数:0精神病床数:0感染症病床数:0合計病床数:50】高知県高岡郡越知町越知甲１６６２" }, "geometry": { "type": "Point", "coordinates": [ 133.252975, 33.530308 ] } },
{ "type": "Feature", "properties": { "ID": 3911395700540, "正式名称": "山﨑外科整形外科病院", "機関区分": 1, "都道府県コード": 39, "市区町村コード": 403, "所在地": "高知県高岡郡越知町越知甲２１０７番地１", "緯度": 33.530864, "経度": 133.250368, "url": "https://www.iryou.teikyouseido.mhlw.go.jp/znk-web/juminkanja/S2430/initialize?prefCd=39&kikanCd=1395700540&kikanKbn=1", "url2": null, "内容": "山﨑外科整形外科病院【1:病院】【診療科目:内科_循環器内科_消化器内科_外科_脳神経外科_消化器外科_肛門外科_整形外科_リハビリテーション科_放射線科】【一般病床数:22療養病床数:21精神病床数:0感染症病床数:0合計病床数:43】高知県高岡郡越知町越知甲２１０７番地１" }, "geometry": { "type": "Point", "coordinates": [ 133.250368, 33.530864 ] } },
{ "type": "Feature", "properties": { "ID": 3911395700700, "正式名称": "前田病院", "機関区分": 1, "都道府県コード": 39, "市区町村コード": 403, "所在地": "高知県高岡郡越知町越知甲２１３３", "緯度": 33.530861, "経度": 133.249364, "url": "https://www.iryou.teikyouseido.mhlw.go.jp/znk-web/juminkanja/S2430/initialize?prefCd=39&kikanCd=1395700700&kikanKbn=1", "url2": "http://maeda-kai-ochi.jp/", "内容": "前田病院【1:病院】【診療科目:内科_呼吸器内科_循環器内科_消化器内科_神経内科_外科_整形外科_リウマチ科_リハビリテーション科_放射線科_麻酔科】【一般病床数:0療養病床数:60精神病床数:0感染症病床数:0合計病床数:60】高知県高岡郡越知町越知甲２１３３" }, "geometry": { "type": "Point", "coordinates": [ 133.249364, 33.530861 ] } },
{ "type": "Feature", "properties": { "ID": 3911395700960, "正式名称": "山﨑病院", "機関区分": 1, "都道府県コード": 39, "市区町村コード": 403, "所在地": "高知県高岡郡越知町越知甲２０４１ー３", "緯度": 33.53275, "経度": 133.250993, "url": "https://www.iryou.teikyouseido.mhlw.go.jp/znk-web/juminkanja/S2430/initialize?prefCd=39&kikanCd=1395700960&kikanKbn=1", "url2": "http://www.yamasaki.or.jp", "内容": "山﨑病院【1:病院】【診療科目:内科_呼吸器内科_循環器内科_消化器内科_リハビリテーション科_放射線科】【一般病床数:0療養病床数:28精神病床数:0感染症病床数:0合計病床数:28】高知県高岡郡越知町越知甲２０４１ー３" }, "geometry": { "type": "Point", "coordinates": [ 133.250993, 33.53275 ] } },
{ "type": "Feature", "properties": { "ID": 3911395800150, "正式名称": "本山町立国民健康保険嶺北中央病院", "機関区分": 1, "都道府県コード": 39, "市区町村コード": 341, "所在地": "高知県長岡郡本山町本山６２０", "緯度": 33.759753, "経度": 133.588607, "url": "https://www.iryou.teikyouseido.mhlw.go.jp/znk-web/juminkanja/S2430/initialize?prefCd=39&kikanCd=1395800150&kikanKbn=1", "url2": "http://www.reihokuchuo-hp.jp", "内容": "本山町立国民健康保険嶺北中央病院【1:病院】【診療科目:内科_外科_脳神経外科_肛門外科_整形外科_婦人科_皮膚科_泌尿器科_リウマチ科_リハビリテーション科】【一般病床数:53療養病床数:36精神病床数:0感染症病床数:0合計病床数:89】高知県長岡郡本山町本山６２０" }, "geometry": { "type": "Point", "coordinates": [ 133.588607, 33.759753 ] } },
{ "type": "Feature", "properties": { "ID": 3911395800280, "正式名称": "大杉中央病院", "機関区分": 1, "都道府県コード": 39, "市区町村コード": 344, "所在地": "高知県長岡郡大豊町中村大王１４９７－１", "緯度": 33.754454, "経度": 133.665992, "url": "https://www.iryou.teikyouseido.mhlw.go.jp/znk-web/juminkanja/S2430/initialize?prefCd=39&kikanCd=1395800280&kikanKbn=1", "url2": null, "内容": "大杉中央病院【1:病院】【診療科目:内科_呼吸器内科_循環器内科_胃腸内科_神経内科_小児科_歯科_歯科口腔外科_リハビリテーション科_放射線科】【一般病床数:0療養病床数:60精神病床数:0感染症病床数:0合計病床数:60】高知県長岡郡大豊町中村大王１４９７－１" }, "geometry": { "type": "Point", "coordinates": [ 133.665992, 33.754454 ] } },
{ "type": "Feature", "properties": { "ID": 3911395800440, "正式名称": "早明浦病院", "機関区分": 1, "都道府県コード": 39, "市区町村コード": 363, "所在地": "高知県土佐郡土佐町田井１３７２番地", "緯度": 33.746676, "経度": 133.557392, "url": "https://www.iryou.teikyouseido.mhlw.go.jp/znk-web/juminkanja/S2430/initialize?prefCd=39&kikanCd=1395800440&kikanKbn=1", "url2": "http://juzen-kai.or.jp/", "内容": "早明浦病院【1:病院】【診療科目:内科_外科_整形外科_小児科_眼科_耳鼻いんこう科_皮膚科_泌尿器科_精神科_歯科口腔外科_リハビリテーション科】【一般病床数:0療養病床数:50精神病床数:0感染症病床数:0合計病床数:50】高知県土佐郡土佐町田井１３７２番地" }, "geometry": { "type": "Point", "coordinates": [ 133.557392, 33.746676 ] } },
{ "type": "Feature", "properties": { "ID": 3911395900210, "正式名称": "やまもと病院", "機関区分": 1, "都道府県コード": 39, "市区町村コード": 202, "所在地": "高知県室戸市羽根町乙１３９２", "緯度": 33.368644, "経度": 134.057993, "url": "https://www.iryou.teikyouseido.mhlw.go.jp/znk-web/juminkanja/S2430/initialize?prefCd=39&kikanCd=1395900210&kikanKbn=1", "url2": null, "内容": "やまもと病院【1:病院】【診療科目:内科_精神科_神経科_心療内科】【一般病床数:0療養病床数:0精神病床数:150感染症病床数:0合計病床数:150】高知県室戸市羽根町乙１３９２" }, "geometry": { "type": "Point", "coordinates": [ 134.057993, 33.368644 ] } },
{ "type": "Feature", "properties": { "ID": 3911395900340, "正式名称": "室戸中央病院", "機関区分": 1, "都道府県コード": 39, "市区町村コード": 202, "所在地": "高知県室戸市室津２２７３", "緯度": 33.28924, "経度": 134.155941, "url": "https://www.iryou.teikyouseido.mhlw.go.jp/znk-web/juminkanja/S2430/initialize?prefCd=39&kikanCd=1395900340&kikanKbn=1", "url2": "http://www.muroto-aiseikai.com", "内容": "室戸中央病院【1:病院】【診療科目:内科_外科_精神科_心療内科_リハビリテーション科】【一般病床数:0療養病床数:96精神病床数:0感染症病床数:0合計病床数:96】高知県室戸市室津２２７３" }, "geometry": { "type": "Point", "coordinates": [ 134.155941, 33.28924 ] } },
{ "type": "Feature", "properties": { "ID": 3911396000120, "正式名称": "足摺病院", "機関区分": 1, "都道府県コード": 39, "市区町村コード": 209, "所在地": "高知県土佐清水市旭町１８－７１", "緯度": 32.779311, "経度": 132.96164, "url": "https://www.iryou.teikyouseido.mhlw.go.jp/znk-web/juminkanja/S2430/initialize?prefCd=39&kikanCd=1396000120&kikanKbn=1", "url2": "http://www.ashizuribyouin.com", "内容": "足摺病院【1:病院】【診療科目:内科_循環器内科_胃腸内科_外科_整形外科_耳鼻いんこう科_精神科_リハビリテーション科】【一般病床数:0療養病床数:31精神病床数:0感染症病床数:0合計病床数:31】高知県土佐清水市旭町１８－７１" }, "geometry": { "type": "Point", "coordinates": [ 132.96164, 32.779311 ] } },
{ "type": "Feature", "properties": { "ID": 3911396000250, "正式名称": "渭南病院", "機関区分": 1, "都道府県コード": 39, "市区町村コード": 209, "所在地": "高知県土佐清水市越前町６ー１", "緯度": 32.781221, "経度": 132.950803, "url": "https://www.iryou.teikyouseido.mhlw.go.jp/znk-web/juminkanja/S2430/initialize?prefCd=39&kikanCd=1396000250&kikanKbn=1", "url2": "http://www.inan-hp.jp", "内容": "渭南病院【1:病院】【診療科目:内科_糖尿病内科_呼吸器内科_循環器内科_消化器内科_外科_脳神経外科_消化器外科_整形外科_小児科_眼科_耳鼻いんこう科_皮膚科_泌尿器科_心療内科_リハビリテーション科_麻酔科】【一般病床数:50療養病床数:55精神病床数:0感染症病床数:0合計病床数:105】高知県土佐清水市越前町６ー１" }, "geometry": { "type": "Point", "coordinates": [ 132.950803, 32.781221 ] } },
{ "type": "Feature", "properties": { "ID": 3911396000540, "正式名称": "松谷病院", "機関区分": 1, "都道府県コード": 39, "市区町村コード": 209, "所在地": "高知県土佐清水市天神町１４ー１８", "緯度": 32.782883, "経度": 132.954149, "url": "https://www.iryou.teikyouseido.mhlw.go.jp/znk-web/juminkanja/S2430/initialize?prefCd=39&kikanCd=1396000540&kikanKbn=1", "url2": "http://www.tampopo.or.jp/", "内容": "松谷病院【1:病院】【診療科目:内科_循環器内科_消化器内科_腎臓内科_人工透析内科_小児科_リハビリテーション科】【一般病床数:0療養病床数:54精神病床数:0感染症病床数:0合計病床数:54】高知県土佐清水市天神町１４ー１８" }, "geometry": { "type": "Point", "coordinates": [ 132.954149, 32.782883 ] } },
{ "type": "Feature", "properties": { "ID": 3911396200180, "正式名称": "ＪＡ高知病院", "機関区分": 1, "都道府県コード": 39, "市区町村コード": 204, "所在地": "高知県南国市明見字中野５２６－１", "緯度": 33.569755, "経度": 133.622941, "url": "https://www.iryou.teikyouseido.mhlw.go.jp/znk-web/juminkanja/S2430/initialize?prefCd=39&kikanCd=1396200180&kikanKbn=1", "url2": "http://www.kouseiren.ja-kochi.or.jp", "内容": "ＪＡ高知病院【1:病院】【診療科目:内科_呼吸器内科_循環器内科_消化器内科_外科_脳神経外科_整形外科_形成外科_小児科_婦人科_眼科_耳鼻いんこう科_泌尿器科_リハビリテーション科_放射線科_救急科_麻酔科】【一般病床数:154療養病床数:0精神病床数:0感染症病床数:0合計病床数:154】高知県南国市明見字中野５２６－１" }, "geometry": { "type": "Point", "coordinates": [ 133.622941, 33.569755 ] } },
{ "type": "Feature", "properties": { "ID": 3911396300110, "正式名称": "さくら病院", "機関区分": 1, "都道府県コード": 39, "市区町村コード": 386, "所在地": "高知県吾川郡いの町鹿敷１６２", "緯度": 33.565782, "経度": 133.368372, "url": "https://www.iryou.teikyouseido.mhlw.go.jp/znk-web/juminkanja/S2430/initialize?prefCd=39&kikanCd=1396300110&kikanKbn=1", "url2": "https://okamotokai-sakurahospital.jimdofree.com", "内容": "さくら病院【1:病院】【診療科目:内科】【一般病床数:0療養病床数:60精神病床数:0感染症病床数:0合計病床数:60】高知県吾川郡いの町鹿敷１６２" }, "geometry": { "type": "Point", "coordinates": [ 133.368372, 33.565782 ] } },
{ "type": "Feature", "properties": { "ID": 3911396300370, "正式名称": "リハビリテーション病院すこやかな杜", "機関区分": 1, "都道府県コード": 39, "市区町村コード": 201, "所在地": "高知県高知市春野町芳原１３１６番１", "緯度": 33.507667, "経度": 133.512897, "url": "https://www.iryou.teikyouseido.mhlw.go.jp/znk-web/juminkanja/S2430/initialize?prefCd=39&kikanCd=1396300370&kikanKbn=1", "url2": "http://sukoyakanamori.or.jp/", "内容": "リハビリテーション病院すこやかな杜【1:病院】【診療科目:内科_脳神経外科_整形外科_リハビリテーション科】【一般病床数:60療養病床数:0精神病床数:0感染症病床数:0合計病床数:60】高知県高知市春野町芳原１３１６番１" }, "geometry": { "type": "Point", "coordinates": [ 133.512897, 33.507667 ] } }
]
}
