{
"type": "FeatureCollection",
"name": "geo_39_訪問看護",
"crs": { "type": "name", "properties": { "name": "urn:ogc:def:crs:OGC:1.3:CRS84" } },
"features": [
{ "type": "Feature", "properties": { "内容": "訪問看護ステーション誠【訪問看護】高知県高知市一宮徳谷３番５－４号", "url": "https://www.kaigokensaku.mhlw.go.jp/39/index.php?action_kouhyou_detail_004_kani=true&JigyosyoCd=3960190670-00&ServiceCd=130&Type=search", "url2": "https://kochi-sei.com/" }, "geometry": { "type": "Point", "coordinates": [ 133.578376463893136, 33.579394973110091 ] } },
{ "type": "Feature", "properties": { "内容": "医）山口会　訪問看護ステーション　こうせい【訪問看護】高知県高知市葛島２－５－１１", "url": "https://www.kaigokensaku.mhlw.go.jp/39/index.php?action_kouhyou_detail_004_kani=true&JigyosyoCd=3960190365-00&ServiceCd=130&Type=search", "url2": "http://www.kochi-koseihp.jp/" }, "geometry": { "type": "Point", "coordinates": [ 133.572251349777218, 33.557856728453451 ] } },
{ "type": "Feature", "properties": { "内容": "ウィーク訪問看護ステーション高知【訪問看護】高知県高知市南はりまや町二丁目7番8号ウィークスビル3F", "url": "https://www.kaigokensaku.mhlw.go.jp/39/index.php?action_kouhyou_detail_004_kani=true&JigyosyoCd=3960190993-00&ServiceCd=130&Type=search", "url2": "https://kochi-weeks.co.jp" }, "geometry": { "type": "Point", "coordinates": [ 133.545408699999967, 33.557265300000019 ] } },
{ "type": "Feature", "properties": { "内容": "岡村病院【訪問看護】高知県高知市入明町１番５号", "url": "https://www.kaigokensaku.mhlw.go.jp/39/index.php?action_kouhyou_detail_004_kani=true&JigyosyoCd=3910110380-00&ServiceCd=130&Type=search", "url2": "http://www.okamura-hp.or.jp/" }, "geometry": { "type": "Point", "coordinates": [ 133.532193299999989, 33.5655984 ] } },
{ "type": "Feature", "properties": { "内容": "忠さんの訪問看護ステーション【訪問看護】高知県高知市大原町84－１コーポセフィラ２０２", "url": "https://www.kaigokensaku.mhlw.go.jp/39/index.php?action_kouhyou_detail_004_kani=true&JigyosyoCd=3960190589-00&ServiceCd=130&Type=search", "url2": null }, "geometry": { "type": "Point", "coordinates": [ 133.527350597788626, 33.552967208883416 ] } },
{ "type": "Feature", "properties": { "内容": "高知中央訪問看護ステーション【訪問看護】高知県高知市北高見町50番1号", "url": "https://www.kaigokensaku.mhlw.go.jp/39/index.php?action_kouhyou_detail_004_kani=true&JigyosyoCd=3960190480-00&ServiceCd=130&Type=search", "url2": "http://kochi-zaitaku.or.jp/licht/index.html" }, "geometry": { "type": "Point", "coordinates": [ 133.537513800055706, 33.546776230598034 ] } },
{ "type": "Feature", "properties": { "内容": "ひろ訪問看護ステーション【訪問看護】高知県高知市神田925番地4", "url": "https://www.kaigokensaku.mhlw.go.jp/39/index.php?action_kouhyou_detail_004_kani=true&JigyosyoCd=3960190811-00&ServiceCd=130&Type=search", "url2": "https://www.hirohoukan.com" }, "geometry": { "type": "Point", "coordinates": [ 133.516682437434383, 33.546410342145499 ] } },
{ "type": "Feature", "properties": { "内容": "かもだの在宅看護センター【訪問看護】高知県高知市鴨部２丁目20-5", "url": "https://www.kaigokensaku.mhlw.go.jp/39/index.php?action_kouhyou_detail_004_kani=true&JigyosyoCd=3960190753-00&ServiceCd=130&Type=search", "url2": "kamodano-cl.jp" }, "geometry": { "type": "Point", "coordinates": [ 133.504846500000014, 33.5486158 ] } },
{ "type": "Feature", "properties": { "内容": "訪問看護ステーション　生協れいんぼー【訪問看護】高知県高知市口細山２０６－９本部事務局２階", "url": "https://www.kaigokensaku.mhlw.go.jp/39/index.php?action_kouhyou_detail_004_kani=true&JigyosyoCd=3960190340-00&ServiceCd=130&Type=search", "url2": "http://www.kochi-hco-op.or.jp" }, "geometry": { "type": "Point", "coordinates": [ 133.490343034698299, 33.566961557263475 ] } },
{ "type": "Feature", "properties": { "内容": "訪問看護ステーション　ちかもり【訪問看護】高知県高知市北本町１丁目２－６", "url": "https://www.kaigokensaku.mhlw.go.jp/39/index.php?action_kouhyou_detail_004_kani=true&JigyosyoCd=3960190019-00&ServiceCd=130&Type=search", "url2": "http://www.chikamori.com/group/" }, "geometry": { "type": "Point", "coordinates": [ 133.540555555542028, 33.565142680943246 ] } },
{ "type": "Feature", "properties": { "内容": "えん訪問看護ステーション高知【訪問看護】高知県高知市新屋敷2丁目9-2", "url": "https://www.kaigokensaku.mhlw.go.jp/39/index.php?action_kouhyou_detail_004_kani=true&JigyosyoCd=3960190720-00&ServiceCd=130&Type=search", "url2": "https://www.en-houkan.com/" }, "geometry": { "type": "Point", "coordinates": [ 133.5219421, 33.5642437 ] } },
{ "type": "Feature", "properties": { "内容": "訪問看護ステーション芽生【訪問看護】高知県高知市本町2丁目4番3号", "url": "https://www.kaigokensaku.mhlw.go.jp/39/index.php?action_kouhyou_detail_004_kani=true&JigyosyoCd=3960190258-00&ServiceCd=130&Type=search", "url2": "http://www.takeshita-hp.jp/" }, "geometry": { "type": "Point", "coordinates": [ 133.538424099999929, 33.558051 ] } },
{ "type": "Feature", "properties": { "内容": "IMC訪問看護リハビリステーションそらとこころ【訪問看護】高知県高知市竹島町13番地1うしおえメディカルビル・イーア3F", "url": "https://www.kaigokensaku.mhlw.go.jp/39/index.php?action_kouhyou_detail_004_kani=true&JigyosyoCd=3960190621-00&ServiceCd=130&Type=search", "url2": "https://imc-ls.com" }, "geometry": { "type": "Point", "coordinates": [ 133.542570211873112, 33.542893914373352 ] } },
{ "type": "Feature", "properties": { "内容": "アシストジャパン訪問看護ステーション高知【訪問看護】高知県高知市北新田町18－30", "url": "https://www.kaigokensaku.mhlw.go.jp/39/index.php?action_kouhyou_detail_004_kani=true&JigyosyoCd=3960190795-00&ServiceCd=130&Type=search", "url2": "assistjapan.com" }, "geometry": { "type": "Point", "coordinates": [ 133.5534012, 33.5514725 ] } },
{ "type": "Feature", "properties": { "内容": "セントケア訪問看護ステーション高知【訪問看護】高知県高知市高埇21-17ルミエール高埇212号", "url": "https://www.kaigokensaku.mhlw.go.jp/39/index.php?action_kouhyou_detail_004_kani=true&JigyosyoCd=3970107060-00&ServiceCd=130&Type=search", "url2": null }, "geometry": { "type": "Point", "coordinates": [ 133.557409, 33.570864 ] } },
{ "type": "Feature", "properties": { "内容": "独立行政法人地域医療機能推進機構高知西病院【訪問看護】神田317-12", "url": "https://www.kaigokensaku.mhlw.go.jp/39/index.php?action_kouhyou_detail_004_kani=true&JigyosyoCd=3910113756-00&ServiceCd=130&Type=search", "url2": "http://kochi.jcho.go.jp" }, "geometry": { "type": "Point", "coordinates": [ 133.5019595, 33.5407046 ] } },
{ "type": "Feature", "properties": { "内容": "ふくいの訪問看護ステーション【訪問看護】高知県高知市上本宮町１１３番地１１", "url": "https://www.kaigokensaku.mhlw.go.jp/39/index.php?action_kouhyou_detail_004_kani=true&JigyosyoCd=3960190514-00&ServiceCd=130&Type=search", "url2": null }, "geometry": { "type": "Point", "coordinates": [ 133.495003644581971, 33.555713767660222 ] } },
{ "type": "Feature", "properties": { "内容": "訪問看護ステーション　心愛【訪問看護】高知県高知市神田638-22神田Kコーポ2", "url": "https://www.kaigokensaku.mhlw.go.jp/39/index.php?action_kouhyou_detail_004_kani=true&JigyosyoCd=3960190555-00&ServiceCd=130&Type=search", "url2": "https://www.kochi-cocoa.com/" }, "geometry": { "type": "Point", "coordinates": [ 133.515278581557141, 33.547586981546701 ] } },
{ "type": "Feature", "properties": { "内容": "特定医療法人仁泉会　訪問看護ステーションあさくら【訪問看護】高知市朝倉丙350-1", "url": "https://www.kaigokensaku.mhlw.go.jp/39/index.php?action_kouhyou_detail_004_kani=true&JigyosyoCd=3960190027-00&ServiceCd=130&Type=search", "url2": null }, "geometry": { "type": "Point", "coordinates": [ 133.489823191075061, 33.551843348450966 ] } },
{ "type": "Feature", "properties": { "内容": "訪問看護ステーションはっぴ＆へるす【訪問看護】高知県高知市仁井田1894‐3", "url": "https://www.kaigokensaku.mhlw.go.jp/39/index.php?action_kouhyou_detail_004_kani=true&JigyosyoCd=3960190688-00&ServiceCd=130&Type=search", "url2": null }, "geometry": { "type": "Point", "coordinates": [ 133.574003299999987, 33.5153412 ] } },
{ "type": "Feature", "properties": { "内容": "訪問看護アズール【訪問看護】高知県高知市北秦泉寺87-1コーポ泉　2階西", "url": "https://www.kaigokensaku.mhlw.go.jp/39/index.php?action_kouhyou_detail_004_kani=true&JigyosyoCd=3960190860-00&ServiceCd=130&Type=search", "url2": null }, "geometry": { "type": "Point", "coordinates": [ 133.5373535, 33.5813895 ] } },
{ "type": "Feature", "properties": { "内容": "訪問看護ステーション　あさひ【訪問看護】高知市塚ノ原４３", "url": "https://www.kaigokensaku.mhlw.go.jp/39/index.php?action_kouhyou_detail_004_kani=true&JigyosyoCd=3960190050-00&ServiceCd=130&Type=search", "url2": "http://www3.ocn.ne.jp/~josenkai/uchida/houkanasahi.html" }, "geometry": { "type": "Point", "coordinates": [ 133.494280600000025, 33.5609216 ] } },
{ "type": "Feature", "properties": { "内容": "訪問看護ナースケア【訪問看護】高知県高知市永国寺町２番２号コーポ朝日Ⅺ２A", "url": "https://www.kaigokensaku.mhlw.go.jp/39/index.php?action_kouhyou_detail_004_kani=true&JigyosyoCd=3960190761-00&ServiceCd=130&Type=search", "url2": "https://www.nurse-care.net" }, "geometry": { "type": "Point", "coordinates": [ 133.536602486202327, 33.564126817554744 ] } },
{ "type": "Feature", "properties": { "内容": "株式会社優虎【訪問看護】高知県高知市東石立町87番地", "url": "https://www.kaigokensaku.mhlw.go.jp/39/index.php?action_kouhyou_detail_004_kani=true&JigyosyoCd=3960190712-00&ServiceCd=130&Type=search", "url2": null }, "geometry": { "type": "Point", "coordinates": [ 133.5207752, 33.5528101 ] } },
{ "type": "Feature", "properties": { "内容": "訪問看護ステーション和来こうち【訪問看護】高知県高知市鴨部1128番地1エールグランツ102", "url": "https://www.kaigokensaku.mhlw.go.jp/39/index.php?action_kouhyou_detail_004_kani=true&JigyosyoCd=3960190779-00&ServiceCd=130&Type=search", "url2": "https://warai.life" }, "geometry": { "type": "Point", "coordinates": [ 133.5063021, 33.5473942 ] } },
{ "type": "Feature", "properties": { "内容": "訪問看護ステーション城見【訪問看護】高知市城見町３－１２", "url": "https://www.kaigokensaku.mhlw.go.jp/39/index.php?action_kouhyou_detail_004_kani=true&JigyosyoCd=3960190233-00&ServiceCd=130&Type=search", "url2": null }, "geometry": { "type": "Point", "coordinates": [ 133.562920399999939, 33.552508 ] } },
{ "type": "Feature", "properties": { "内容": "訪問看護ステーション　デューン高知【訪問看護】高知県高知市南川添15番13号南川添事務所", "url": "https://www.kaigokensaku.mhlw.go.jp/39/index.php?action_kouhyou_detail_004_kani=true&JigyosyoCd=3960190548-00&ServiceCd=130&Type=search", "url2": "https://www.nfield.co.jp/" }, "geometry": { "type": "Point", "coordinates": [ 133.5439833, 33.5680372 ] } },
{ "type": "Feature", "properties": { "内容": "リカバリー高知　高知事務所【訪問看護】南川添19-10クレドール南川添305", "url": "https://www.kaigokensaku.mhlw.go.jp/39/index.php?action_kouhyou_detail_004_kani=true&JigyosyoCd=3960190803-00&ServiceCd=130&Type=search", "url2": "https://www.recovery-group.co.jp/" }, "geometry": { "type": "Point", "coordinates": [ 133.563354299999986, 33.5717015 ] } },
{ "type": "Feature", "properties": { "内容": "てのひら訪問看護リハビリステーション【訪問看護】高知県高知県高知市若草町16番5号Ａ棟", "url": "https://www.kaigokensaku.mhlw.go.jp/39/index.php?action_kouhyou_detail_004_kani=true&JigyosyoCd=3960190472-00&ServiceCd=130&Type=search", "url2": "http://www.tenohira-kochi.jp/" }, "geometry": { "type": "Point", "coordinates": [ 133.486511914371931, 33.544150072042363 ] } },
{ "type": "Feature", "properties": { "内容": "アート訪問看護センター高知【訪問看護】高知県高知市北御座11-8", "url": "https://www.kaigokensaku.mhlw.go.jp/39/index.php?action_kouhyou_detail_004_kani=true&JigyosyoCd=3960190704-00&ServiceCd=130&Type=search", "url2": "https://kindness-art.jp" }, "geometry": { "type": "Point", "coordinates": [ 133.56199190000001, 33.5679152 ] } },
{ "type": "Feature", "properties": { "内容": "訪問看護ステーション　POSTNｓ【訪問看護】高知県高知市高須新町三丁目10番8号", "url": "https://www.kaigokensaku.mhlw.go.jp/39/index.php?action_kouhyou_detail_004_kani=true&JigyosyoCd=3960190563-00&ServiceCd=130&Type=search", "url2": null }, "geometry": { "type": "Point", "coordinates": [ 133.5760678, 33.5543542 ] } },
{ "type": "Feature", "properties": { "内容": "訪問看護ステーションちむどんどん高知【訪問看護】高知県高知市潮見台一丁目2603", "url": "https://www.kaigokensaku.mhlw.go.jp/39/index.php?action_kouhyou_detail_004_kani=true&JigyosyoCd=3960190738-00&ServiceCd=130&Type=search", "url2": "http://houjin.fuku-no-tane.com/biz/houmon/chimu/" }, "geometry": { "type": "Point", "coordinates": [ 133.6210317, 33.5623682 ] } },
{ "type": "Feature", "properties": { "内容": "こうち看護協会訪問看護ステーション【訪問看護】高知県高知市朝倉己825番地5", "url": "https://www.kaigokensaku.mhlw.go.jp/39/index.php?action_kouhyou_detail_004_kani=true&JigyosyoCd=3960190175-00&ServiceCd=130&Type=search", "url2": "http://kochi-kangokyokai.or.jp/" }, "geometry": { "type": "Point", "coordinates": [ 133.486432849073822, 33.53620177153126 ] } },
{ "type": "Feature", "properties": { "内容": "合資会社オファーズ訪問看護ステーションおたすけまん【訪問看護】高知市潮新町１丁目１３－２６", "url": "https://www.kaigokensaku.mhlw.go.jp/39/index.php?action_kouhyou_detail_004_kani=true&JigyosyoCd=3960190316-00&ServiceCd=130&Type=search", "url2": null }, "geometry": { "type": "Point", "coordinates": [ 133.546885800000041, 33.5518659 ] } },
{ "type": "Feature", "properties": { "内容": "訪問看護ステーションしもぢ【訪問看護】高知県高知市知寄町１－５－１５図南病院内", "url": "https://www.kaigokensaku.mhlw.go.jp/39/index.php?action_kouhyou_detail_004_kani=true&JigyosyoCd=3960190266-00&ServiceCd=130&Type=search", "url2": "http://hisakai.or.jp/tonan/shimoji.html" }, "geometry": { "type": "Point", "coordinates": [ 133.556473366934142, 33.558785475678214 ] } },
{ "type": "Feature", "properties": { "内容": "訪問看護ステーション結心【訪問看護】高知県高知市朝倉横町20-35カーサ・ドゥエミーラ203号", "url": "https://www.kaigokensaku.mhlw.go.jp/39/index.php?action_kouhyou_detail_004_kani=true&JigyosyoCd=3960190605-00&ServiceCd=130&Type=search", "url2": null }, "geometry": { "type": "Point", "coordinates": [ 133.495326799999987, 33.54428 ] } },
{ "type": "Feature", "properties": { "内容": "訪問看護ステーションかがみ川【訪問看護】高知県高知市上町5丁目6番32号", "url": "https://www.kaigokensaku.mhlw.go.jp/39/index.php?action_kouhyou_detail_004_kani=true&JigyosyoCd=3960190571-00&ServiceCd=130&Type=search", "url2": "http://www.kawamura-hosp.or.jp/homecare/#03" }, "geometry": { "type": "Point", "coordinates": [ 133.517440099999988, 33.5563898 ] } },
{ "type": "Feature", "properties": { "内容": "訪問看護ステーション　海の里【訪問看護】高知市仁井田１６１８－１８", "url": "https://www.kaigokensaku.mhlw.go.jp/39/index.php?action_kouhyou_detail_004_kani=true&JigyosyoCd=3960190290-00&ServiceCd=130&Type=search", "url2": null }, "geometry": { "type": "Point", "coordinates": [ 133.572027, 33.5131904 ] } },
{ "type": "Feature", "properties": { "内容": "訪問看護ｻｰﾋﾞｽtiptop！【訪問看護】高知県高知市吉田町９－９", "url": "https://www.kaigokensaku.mhlw.go.jp/39/index.php?action_kouhyou_detail_004_kani=true&JigyosyoCd=3960190787-00&ServiceCd=130&Type=search", "url2": "https://tiptopllc21.wixsite.com/my-site" }, "geometry": { "type": "Point", "coordinates": [ 133.533928105163369, 33.572276332167554 ] } },
{ "type": "Feature", "properties": { "内容": "医療法人尚腎会　訪問看護ステーションたかす【訪問看護】高知市大津乙2705-1高知高須病院内5階", "url": "https://www.kaigokensaku.mhlw.go.jp/39/index.php?action_kouhyou_detail_004_kani=true&JigyosyoCd=3960190456-00&ServiceCd=130&Type=search", "url2": "www.takasuhp.or.jp" }, "geometry": { "type": "Point", "coordinates": [ 133.579640700000027, 33.5665651 ] } },
{ "type": "Feature", "properties": { "内容": "あおぞら診療所高知潮江【訪問看護】高知県高知市北竹島町5-10", "url": "https://www.kaigokensaku.mhlw.go.jp/39/index.php?action_kouhyou_detail_004_kani=true&JigyosyoCd=3910118649-00&ServiceCd=130&Type=search", "url2": "https://soranoiro-aozora.jp/" }, "geometry": { "type": "Point", "coordinates": [ 133.541203099999962, 33.5455859 ] } },
{ "type": "Feature", "properties": { "内容": "訪問看護ステーション　カルナ【訪問看護】高知県高知市大津甲515ｰ1", "url": "https://www.kaigokensaku.mhlw.go.jp/39/index.php?action_kouhyou_detail_004_kani=true&JigyosyoCd=3960190902-00&ServiceCd=130&Type=search", "url2": null }, "geometry": { "type": "Point", "coordinates": [ 133.614029800000054, 33.5771125 ] } },
{ "type": "Feature", "properties": { "内容": "ツクイ高知訪問看護ステーション【訪問看護】高知県高知市本町1-1-3朝日生命高知本町ビル3階", "url": "https://www.kaigokensaku.mhlw.go.jp/39/index.php?action_kouhyou_detail_004_kani=true&JigyosyoCd=3960190894-00&ServiceCd=130&Type=search", "url2": null }, "geometry": { "type": "Point", "coordinates": [ 133.5395876, 33.5599156 ] } },
{ "type": "Feature", "properties": { "内容": "訪問看護ステーション　つむぎ【訪問看護】高知県高知市長浜1620番地1第二英光マンション1階", "url": "https://www.kaigokensaku.mhlw.go.jp/39/index.php?action_kouhyou_detail_004_kani=true&JigyosyoCd=3960190829-00&ServiceCd=130&Type=search", "url2": null }, "geometry": { "type": "Point", "coordinates": [ 133.540556941802976, 33.500419266455246 ] } },
{ "type": "Feature", "properties": { "内容": "訪問看護ステーション照【訪問看護】高知県高知市神田818番地21", "url": "https://www.kaigokensaku.mhlw.go.jp/39/index.php?action_kouhyou_detail_004_kani=true&JigyosyoCd=3960190845-00&ServiceCd=130&Type=search", "url2": "https://hksteru.com" }, "geometry": { "type": "Point", "coordinates": [ 133.5105624, 33.543635399999985 ] } },
{ "type": "Feature", "properties": { "内容": "訪問看護ステーションWellvy【訪問看護】高知県高知市鴨部1072‐2コーポ朝日Ⅷ10A号室", "url": "https://www.kaigokensaku.mhlw.go.jp/39/index.php?action_kouhyou_detail_004_kani=true&JigyosyoCd=3960190878-00&ServiceCd=130&Type=search", "url2": "https://www.wellvy-kango.co.jp" }, "geometry": { "type": "Point", "coordinates": [ 133.5057447, 33.5461541 ] } },
{ "type": "Feature", "properties": { "内容": "えん訪問看護ステーション高知瀬戸【訪問看護】高知県高知市瀬戸南町1丁目19-2", "url": "https://www.kaigokensaku.mhlw.go.jp/39/index.php?action_kouhyou_detail_004_kani=true&JigyosyoCd=3960190928-00&ServiceCd=130&Type=search", "url2": "https://en-houkan.com" }, "geometry": { "type": "Point", "coordinates": [ 133.5413352, 33.5092306 ] } },
{ "type": "Feature", "properties": { "内容": "訪問看護ステーションまろ【訪問看護】高知県高知市朝倉己132番地2", "url": "https://www.kaigokensaku.mhlw.go.jp/39/index.php?action_kouhyou_detail_004_kani=true&JigyosyoCd=3960190951-00&ServiceCd=130&Type=search", "url2": null }, "geometry": { "type": "Point", "coordinates": [ 133.480823500000014, 33.5334058 ] } },
{ "type": "Feature", "properties": { "内容": "訪問看護ステーションLien【訪問看護】高知県高知市桜井町１丁目３番１２号第一桜井マンション１０１", "url": "https://www.kaigokensaku.mhlw.go.jp/39/index.php?action_kouhyou_detail_004_kani=true&JigyosyoCd=3960191009-00&ServiceCd=130&Type=search", "url2": "https://lien-kochi.com" }, "geometry": { "type": "Point", "coordinates": [ 133.549345499999987, 33.5608199 ] } },
{ "type": "Feature", "properties": { "内容": "訪問看護ステーション　ふく【訪問看護】高知県高知市中秦泉寺９６番地秦泉寺ハイツ１０５号", "url": "https://www.kaigokensaku.mhlw.go.jp/39/index.php?action_kouhyou_detail_004_kani=true&JigyosyoCd=3960191041-00&ServiceCd=130&Type=search", "url2": null }, "geometry": { "type": "Point", "coordinates": [ 133.5381705, 33.5788231 ] } },
{ "type": "Feature", "properties": { "内容": "訪問看護ステーション虹の夢桟橋【訪問看護】高知県高知市桟橋通1丁目12-17オリザビル", "url": "https://www.kaigokensaku.mhlw.go.jp/39/index.php?action_kouhyou_detail_004_kani=true&JigyosyoCd=3960191017-00&ServiceCd=130&Type=search", "url2": "https://nijinoyume-g.jp/oriza/" }, "geometry": { "type": "Point", "coordinates": [ 133.5450099, 33.5509216 ] } },
{ "type": "Feature", "properties": { "内容": "訪問看護ステーションであい【訪問看護】高知市八反町１丁目３番８号", "url": "https://www.kaigokensaku.mhlw.go.jp/39/index.php?action_kouhyou_detail_004_kani=true&JigyosyoCd=3960190647-00&ServiceCd=130&Type=search", "url2": "green-house@peace.ocn.ne.jp" }, "geometry": { "type": "Point", "coordinates": [ 133.524145100000027, 33.566887700000017 ] } },
{ "type": "Feature", "properties": { "内容": "-訪問看護ステーションいごりはーNurseー【訪問看護】高知県高知市城山町23-1宮地ビル1階", "url": "https://www.kaigokensaku.mhlw.go.jp/39/index.php?action_kouhyou_detail_004_kani=true&JigyosyoCd=3960191033-00&ServiceCd=130&Type=search", "url2": null }, "geometry": { "type": "Point", "coordinates": [ 133.5161247, 33.551108 ] } },
{ "type": "Feature", "properties": { "内容": "訪問看護センター輪看（りんか）【訪問看護】横浜西町29番32号", "url": "https://www.kaigokensaku.mhlw.go.jp/39/index.php?action_kouhyou_detail_004_kani=true&JigyosyoCd=3960190431-00&ServiceCd=130&Type=search", "url2": "arigato.or.jp" }, "geometry": { "type": "Point", "coordinates": [ 133.539041238623014, 33.519814297783789 ] } },
{ "type": "Feature", "properties": { "内容": "訪問看護ステーションくによし【訪問看護】高知市上町1丁目3-4", "url": "https://www.kaigokensaku.mhlw.go.jp/39/index.php?action_kouhyou_detail_004_kani=true&JigyosyoCd=3960190613-00&ServiceCd=130&Type=search", "url2": "hhpt://www.kniosh-hp.or.jp/" }, "geometry": { "type": "Point", "coordinates": [ 133.5262142, 33.5583903 ] } },
{ "type": "Feature", "properties": { "内容": "訪問看護ステーション　アムール【訪問看護】高知県高知市土居町１４番1号GrandTare土居町102", "url": "https://www.kaigokensaku.mhlw.go.jp/39/index.php?action_kouhyou_detail_004_kani=true&JigyosyoCd=3960190886-00&ServiceCd=130&Type=search", "url2": "https://amour-connect.jp/" }, "geometry": { "type": "Point", "coordinates": [ 133.5458777, 33.5538833 ] } },
{ "type": "Feature", "properties": { "内容": "訪問看護ステーションあすか【訪問看護】高知県室戸市佐喜浜町3589-1", "url": "https://www.kaigokensaku.mhlw.go.jp/39/index.php?action_kouhyou_detail_004_kani=true&JigyosyoCd=3960290033-00&ServiceCd=130&Type=search", "url2": null }, "geometry": { "type": "Point", "coordinates": [ 134.203527404893521, 33.403043383172218 ] } },
{ "type": "Feature", "properties": { "内容": "訪問看護ステーションおくのさと【訪問看護】高知県室戸市元甲１０７６", "url": "https://www.kaigokensaku.mhlw.go.jp/39/index.php?action_kouhyou_detail_004_kani=true&JigyosyoCd=3960290041-00&ServiceCd=130&Type=search", "url2": null }, "geometry": { "type": "Point", "coordinates": [ 134.1298622, 33.3210459 ] } },
{ "type": "Feature", "properties": { "内容": "訪問看護ステーションゼロ【訪問看護】高知県安芸市本町５－６－１４", "url": "https://www.kaigokensaku.mhlw.go.jp/39/index.php?action_kouhyou_detail_004_kani=true&JigyosyoCd=3970300350-00&ServiceCd=130&Type=search", "url2": null }, "geometry": { "type": "Point", "coordinates": [ 133.895781599999964, 33.501192 ] } },
{ "type": "Feature", "properties": { "内容": "訪問看護ステーション和ごころ【訪問看護】高知県安芸市庄之芝町1-46", "url": "https://www.kaigokensaku.mhlw.go.jp/39/index.php?action_kouhyou_detail_004_kani=true&JigyosyoCd=3960390056-00&ServiceCd=130&Type=search", "url2": null }, "geometry": { "type": "Point", "coordinates": [ 133.9019735, 33.5028366 ] } },
{ "type": "Feature", "properties": { "内容": "訪問看護ステーションあき【訪問看護】高知県安芸市港町2丁目635高知高須病院附属安芸診療所内2F", "url": "https://www.kaigokensaku.mhlw.go.jp/39/index.php?action_kouhyou_detail_004_kani=true&JigyosyoCd=3960390031-00&ServiceCd=130&Type=search", "url2": "http://www.takasuhp.or.jp" }, "geometry": { "type": "Point", "coordinates": [ 133.913234800000026, 33.50089950000001 ] } },
{ "type": "Feature", "properties": { "内容": "あいあーる訪問看護ステーション【訪問看護】高知県安芸市本町2丁目4番9号", "url": "https://www.kaigokensaku.mhlw.go.jp/39/index.php?action_kouhyou_detail_004_kani=true&JigyosyoCd=3960390064-00&ServiceCd=130&Type=search", "url2": "https://aiaru.jp" }, "geometry": { "type": "Point", "coordinates": [ 133.9071006, 33.499252500000011 ] } },
{ "type": "Feature", "properties": { "内容": "訪問看護ちどり【訪問看護】高知県南国市篠原１８１８－１コーポスカイラーク１０５", "url": "https://www.kaigokensaku.mhlw.go.jp/39/index.php?action_kouhyou_detail_004_kani=true&JigyosyoCd=3960490153-00&ServiceCd=130&Type=search", "url2": "https://www.kochi-chidori.com/" }, "geometry": { "type": "Point", "coordinates": [ 133.638449900000012, 33.5762689 ] } },
{ "type": "Feature", "properties": { "内容": "訪問看護ステーションきび【訪問看護】高知県南国市明見字五台山分800　　きび診療所2階", "url": "https://www.kaigokensaku.mhlw.go.jp/39/index.php?action_kouhyou_detail_004_kani=true&JigyosyoCd=3960490088-00&ServiceCd=130&Type=search", "url2": "https://hk-kibi.wixsite.com/my-site" }, "geometry": { "type": "Point", "coordinates": [ 133.629671624328608, 33.567460324318496 ] } },
{ "type": "Feature", "properties": { "内容": "えん訪問看護ステーション南国【訪問看護】高知県南国市篠原1818-1コーポスカイラーク103", "url": "https://www.kaigokensaku.mhlw.go.jp/39/index.php?action_kouhyou_detail_004_kani=true&JigyosyoCd=3960490146-00&ServiceCd=130&Type=search", "url2": "https://en-houkan.com/" }, "geometry": { "type": "Point", "coordinates": [ 133.638449900000012, 33.5762689 ] } },
{ "type": "Feature", "properties": { "内容": "訪問看護ステーション　なんごく【訪問看護】南国市後免町３丁目１番２７号南国中央病院", "url": "https://www.kaigokensaku.mhlw.go.jp/39/index.php?action_kouhyou_detail_004_kani=true&JigyosyoCd=3960490013-00&ServiceCd=130&Type=search", "url2": "nan_houkan@chisio-group.or.jp" }, "geometry": { "type": "Point", "coordinates": [ 133.647928840372543, 33.575751928223006 ] } },
{ "type": "Feature", "properties": { "内容": "訪問看護ステーション希望【訪問看護】高知県南国市大埇甲３２０番地南国市保健福祉センター", "url": "https://www.kaigokensaku.mhlw.go.jp/39/index.php?action_kouhyou_detail_004_kani=true&JigyosyoCd=3960490021-00&ServiceCd=130&Type=search", "url2": "http://tocho-med.or.jp" }, "geometry": { "type": "Point", "coordinates": [ 133.658202048671001, 33.571907284957426 ] } },
{ "type": "Feature", "properties": { "内容": "訪問看護ステーションJAおむすび【訪問看護】高知県南国市明見字中野526-1JA高知病院", "url": "https://www.kaigokensaku.mhlw.go.jp/39/index.php?action_kouhyou_detail_004_kani=true&JigyosyoCd=3960490138-00&ServiceCd=130&Type=search", "url2": "https:www.kouseiren.ja-kochi.or.jp/" }, "geometry": { "type": "Point", "coordinates": [ 133.619533600000011, 33.5709115 ] } },
{ "type": "Feature", "properties": { "内容": "訪問看護ステーション　リカバリー高知【訪問看護】高知県南国市大埇乙1295-1竹村ハイツ1階", "url": "https://www.kaigokensaku.mhlw.go.jp/39/index.php?action_kouhyou_detail_004_kani=true&JigyosyoCd=3960490070-00&ServiceCd=130&Type=search", "url2": "https://www.recovery-group.co.jp/company/" }, "geometry": { "type": "Point", "coordinates": [ 133.645667799999956, 33.5643414 ] } },
{ "type": "Feature", "properties": { "内容": "訪問看護ステーションおおそね【訪問看護】高知県南国市大そね乙1259-5", "url": "https://www.kaigokensaku.mhlw.go.jp/39/index.php?action_kouhyou_detail_004_kani=true&JigyosyoCd=3960490039-00&ServiceCd=130&Type=search", "url2": null }, "geometry": { "type": "Point", "coordinates": [ 133.646648199999959, 33.567055 ] } },
{ "type": "Feature", "properties": { "内容": "訪問看護ステーションあおぞら【訪問看護】高知県南国市大埇甲406番地5南国マンション202号", "url": "https://www.kaigokensaku.mhlw.go.jp/39/index.php?action_kouhyou_detail_004_kani=true&JigyosyoCd=3960490104-00&ServiceCd=130&Type=search", "url2": "https://www.kounankai.jp" }, "geometry": { "type": "Point", "coordinates": [ 133.656736499999965, 33.5725741 ] } },
{ "type": "Feature", "properties": { "内容": "訪問看護ステーションキセキレイ【訪問看護】高知県南国市大そね甲４０6番地５南国マンション２０５号", "url": "https://www.kaigokensaku.mhlw.go.jp/39/index.php?action_kouhyou_detail_004_kani=true&JigyosyoCd=3960490096-00&ServiceCd=130&Type=search", "url2": "https://www.kounannkai.jp" }, "geometry": { "type": "Point", "coordinates": [ 133.650251700000013, 33.57412810000001 ] } },
{ "type": "Feature", "properties": { "内容": "訪問看護リハステーションドリームチーム【訪問看護】高知県南国市物部１３１－１", "url": "https://www.kaigokensaku.mhlw.go.jp/39/index.php?action_kouhyou_detail_004_kani=true&JigyosyoCd=3960490047-00&ServiceCd=130&Type=search", "url2": "https://rsb14267.wixsite.com/lisus" }, "geometry": { "type": "Point", "coordinates": [ 133.649806399999989, 33.5739377 ] } },
{ "type": "Feature", "properties": { "内容": "訪問看護ステーションIAｍ【訪問看護】高岡町甲2190-1ITAHARAⅡ101号室", "url": "https://www.kaigokensaku.mhlw.go.jp/39/index.php?action_kouhyou_detail_004_kani=true&JigyosyoCd=3960590044-00&ServiceCd=130&Type=search", "url2": "http://www.houkan-iam.com/" }, "geometry": { "type": "Point", "coordinates": [ 133.42017009999995, 33.4955969 ] } },
{ "type": "Feature", "properties": { "内容": "高知市医師会立　訪問看護ステーション土佐【訪問看護】高知県土佐市高岡町甲１７９２番２土佐市高齢者総合福祉センター内", "url": "https://www.kaigokensaku.mhlw.go.jp/39/index.php?action_kouhyou_detail_004_kani=true&JigyosyoCd=3960590028-00&ServiceCd=130&Type=search", "url2": "http://www.kochi-med.or.jp/kango" }, "geometry": { "type": "Point", "coordinates": [ 133.422832177246164, 33.492154080255574 ] } },
{ "type": "Feature", "properties": { "内容": "訪問看護ステーション志【訪問看護】高知県土佐市高岡町乙3271番地6", "url": "https://www.kaigokensaku.mhlw.go.jp/39/index.php?action_kouhyou_detail_004_kani=true&JigyosyoCd=3960590051-00&ServiceCd=130&Type=search", "url2": null }, "geometry": { "type": "Point", "coordinates": [ 133.4284831, 33.5036274 ] } },
{ "type": "Feature", "properties": { "内容": "訪問看護ステーション　すさき【訪問看護】高知県須崎市緑町４－３０", "url": "https://www.kaigokensaku.mhlw.go.jp/39/index.php?action_kouhyou_detail_004_kani=true&JigyosyoCd=3960690018-00&ServiceCd=130&Type=search", "url2": "http://susaki-kuroshio-hp.or.jp/publics/index/14/" }, "geometry": { "type": "Point", "coordinates": [ 133.2894632, 33.41201610000001 ] } },
{ "type": "Feature", "properties": { "内容": "訪問看護ステーションすくも【訪問看護】高知県宿毛市中央８丁目３番６号", "url": "https://www.kaigokensaku.mhlw.go.jp/39/index.php?action_kouhyou_detail_004_kani=true&JigyosyoCd=3960990020-00&ServiceCd=130&Type=search", "url2": "http://www.ooida-hp.net" }, "geometry": { "type": "Point", "coordinates": [ 132.731096500000035, 32.9349785 ] } },
{ "type": "Feature", "properties": { "内容": "訪問看護ステーションあったか渭南【訪問看護】高知県土佐清水市越前町6番10号", "url": "https://www.kaigokensaku.mhlw.go.jp/39/index.php?action_kouhyou_detail_004_kani=true&JigyosyoCd=3960890030-00&ServiceCd=130&Type=search", "url2": "http://www.inan-hp.jp" }, "geometry": { "type": "Point", "coordinates": [ 132.9509699, 32.7811805 ] } },
{ "type": "Feature", "properties": { "内容": "竹本病院訪問看護ステーション【訪問看護】高知県四万十市右山1973番地8", "url": "https://www.kaigokensaku.mhlw.go.jp/39/index.php?action_kouhyou_detail_004_kani=true&JigyosyoCd=3961090028-00&ServiceCd=130&Type=search", "url2": null }, "geometry": { "type": "Point", "coordinates": [ 132.945969850333995, 32.978208693144389 ] } },
{ "type": "Feature", "properties": { "内容": "訪問看護ステーション　のぞみ【訪問看護】高知県四万十市坂本988番地1", "url": "https://www.kaigokensaku.mhlw.go.jp/39/index.php?action_kouhyou_detail_004_kani=true&JigyosyoCd=3961090010-00&ServiceCd=130&Type=search", "url2": null }, "geometry": { "type": "Point", "coordinates": [ 132.93608415406041, 32.974142265326222 ] } },
{ "type": "Feature", "properties": { "内容": "グリーンハーツ訪問看護ステーション四万十【訪問看護】高知県四万十市具同5390", "url": "https://www.kaigokensaku.mhlw.go.jp/39/index.php?action_kouhyou_detail_004_kani=true&JigyosyoCd=3961090036-00&ServiceCd=130&Type=search", "url2": null }, "geometry": { "type": "Point", "coordinates": [ 132.912486616243513, 32.980658518553554 ] } },
{ "type": "Feature", "properties": { "内容": "訪問看護ステーション　なかむら【訪問看護】高知県四万十市中村小姓町82番地1", "url": "https://www.kaigokensaku.mhlw.go.jp/39/index.php?action_kouhyou_detail_004_kani=true&JigyosyoCd=3960790032-00&ServiceCd=130&Type=search", "url2": null }, "geometry": { "type": "Point", "coordinates": [ 132.932902704893507, 32.99458942169057 ] } },
{ "type": "Feature", "properties": { "内容": "訪問看護ステーション縁【訪問看護】高知県香南市野市町東野202−１", "url": "https://www.kaigokensaku.mhlw.go.jp/39/index.php?action_kouhyou_detail_004_kani=true&JigyosyoCd=3971100270-00&ServiceCd=130&Type=search", "url2": "http://www.en-inc.info" }, "geometry": { "type": "Point", "coordinates": [ 133.704922874808744, 33.561880347398478 ] } },
{ "type": "Feature", "properties": { "内容": "訪問看護ステーション詩【訪問看護】高知県香南市野市町下井593番地1", "url": "https://www.kaigokensaku.mhlw.go.jp/39/index.php?action_kouhyou_detail_004_kani=true&JigyosyoCd=3961190026-00&ServiceCd=130&Type=search", "url2": "https://www.hksuta.net/company#rf8jvyojuils00h86sxy" }, "geometry": { "type": "Point", "coordinates": [ 133.686989698147585, 33.558910719308969 ] } },
{ "type": "Feature", "properties": { "内容": "訪問看護ステーションmast【訪問看護】高知県香南市香我美町徳王子２２０７ー６　カーサ仁３０１高知県香南市香我美町徳王子２２０７ー６　カーサ仁３０１", "url": "https://www.kaigokensaku.mhlw.go.jp/39/index.php?action_kouhyou_detail_004_kani=true&JigyosyoCd=3961190034-00&ServiceCd=130&Type=search", "url2": "https://mast-houkann.com/" }, "geometry": { "type": "Point", "coordinates": [ 133.7385906, 33.5595135 ] } },
{ "type": "Feature", "properties": { "内容": "つばき訪問看護ステーション【訪問看護】高知県香南市野市町西野2360-1ｸﾞﾗﾝﾋﾟｱ野市101", "url": "https://www.kaigokensaku.mhlw.go.jp/39/index.php?action_kouhyou_detail_004_kani=true&JigyosyoCd=3961190042-00&ServiceCd=130&Type=search", "url2": "tsubaki-houkan.com" }, "geometry": { "type": "Point", "coordinates": [ 133.7002101, 33.5576653 ] } },
{ "type": "Feature", "properties": { "内容": "高知中央東訪問看護ステーション【訪問看護】高知県香南市野市町西野1008-8プレステージ201", "url": "https://www.kaigokensaku.mhlw.go.jp/39/index.php?action_kouhyou_detail_004_kani=true&JigyosyoCd=3971100403-00&ServiceCd=130&Type=search", "url2": "https://kochi-zaitaku.or.jp/" }, "geometry": { "type": "Point", "coordinates": [ 133.6915228, 33.5665105 ] } },
{ "type": "Feature", "properties": { "内容": "訪問看護ステーションなかやま楽校【訪問看護】高知県安芸郡安田町大字正弘1532番地", "url": "https://www.kaigokensaku.mhlw.go.jp/39/index.php?action_kouhyou_detail_004_kani=true&JigyosyoCd=3962090050-00&ServiceCd=130&Type=search", "url2": "https://nakayamagakko.wixsite.com/website" }, "geometry": { "type": "Point", "coordinates": [ 134.001085736323546, 33.486194990033106 ] } },
{ "type": "Feature", "properties": { "内容": "訪問看護ステーションげいせい【訪問看護】高知県安芸郡芸西村和食甲4268", "url": "https://www.kaigokensaku.mhlw.go.jp/39/index.php?action_kouhyou_detail_004_kani=true&JigyosyoCd=3962090035-00&ServiceCd=130&Type=search", "url2": "https://okura-kai.com" }, "geometry": { "type": "Point", "coordinates": [ 133.820151799999962, 33.5214349 ] } },
{ "type": "Feature", "properties": { "内容": "本山町訪問看護ステーション「さくら」【訪問看護】高知県長岡郡本山町本山620番地嶺北中央病院内", "url": "https://www.kaigokensaku.mhlw.go.jp/39/index.php?action_kouhyou_detail_004_kani=true&JigyosyoCd=3962290023-00&ServiceCd=130&Type=search", "url2": null }, "geometry": { "type": "Point", "coordinates": [ 133.588059, 33.7597936 ] } },
{ "type": "Feature", "properties": { "内容": "いの町立訪問看護ステーション【訪問看護】高知県吾川郡いの町1369番地", "url": "https://www.kaigokensaku.mhlw.go.jp/39/index.php?action_kouhyou_detail_004_kani=true&JigyosyoCd=3962490045-00&ServiceCd=130&Type=search", "url2": "http://www.town.ino.kochi.jp/niyodo-hospital" }, "geometry": { "type": "Point", "coordinates": [ 133.433455057008359, 33.547168914830344 ] } },
{ "type": "Feature", "properties": { "内容": "訪問看護リハビリステーションいろは【訪問看護】高知県吾川郡いの町波川1913-2", "url": "https://www.kaigokensaku.mhlw.go.jp/39/index.php?action_kouhyou_detail_004_kani=true&JigyosyoCd=3962490052-00&ServiceCd=130&Type=search", "url2": null }, "geometry": { "type": "Point", "coordinates": [ 133.41352004082799, 33.547862310270915 ] } },
{ "type": "Feature", "properties": { "内容": "訪問看護リハビリステーションこもれび【訪問看護】高知県吾川郡いの町波川1913-2", "url": "https://www.kaigokensaku.mhlw.go.jp/39/index.php?action_kouhyou_detail_004_kani=true&JigyosyoCd=3962490060-00&ServiceCd=130&Type=search", "url2": null }, "geometry": { "type": "Point", "coordinates": [ 133.413513799999976, 33.5478908 ] } },
{ "type": "Feature", "properties": { "内容": "佐川町立高北国民健康保険病院【訪問看護】高知県高岡郡佐川町甲１６８７番地", "url": "https://www.kaigokensaku.mhlw.go.jp/39/index.php?action_kouhyou_detail_004_kani=true&JigyosyoCd=3912510025-00&ServiceCd=130&Type=search", "url2": "http://www.town.sakawa.kochi.jp/kouhoku_hospital/" }, "geometry": { "type": "Point", "coordinates": [ 133.286902300000065, 33.5037548 ] } },
{ "type": "Feature", "properties": { "内容": "医療法人社団若鮎　北島病院　訪問看護【訪問看護】高岡郡越知町越知甲１６６２", "url": "https://www.kaigokensaku.mhlw.go.jp/39/index.php?action_kouhyou_detail_004_kani=true&JigyosyoCd=3912511403-00&ServiceCd=130&Type=search", "url2": "http://www.kitajima-hp.com" }, "geometry": { "type": "Point", "coordinates": [ 133.253224, 33.5303895 ] } },
{ "type": "Feature", "properties": { "内容": "訪問看護ステーションおち【訪問看護】高知県高岡郡越知町越知甲2144番地1", "url": "https://www.kaigokensaku.mhlw.go.jp/39/index.php?action_kouhyou_detail_004_kani=true&JigyosyoCd=3962590018-00&ServiceCd=130&Type=search", "url2": null }, "geometry": { "type": "Point", "coordinates": [ 133.249009752292608, 33.53154889882596 ] } },
{ "type": "Feature", "properties": { "内容": "訪看スマイルスタジオ【訪問看護】高知県高岡郡日高村本村1-1", "url": "https://www.kaigokensaku.mhlw.go.jp/39/index.php?action_kouhyou_detail_004_kani=true&JigyosyoCd=3972501435-00&ServiceCd=130&Type=search", "url2": "http://tosa7411.com" }, "geometry": { "type": "Point", "coordinates": [ 133.335511799999949, 33.5586722 ] } },
{ "type": "Feature", "properties": { "内容": "訪問看護ステーション　くぼかわ【訪問看護】高知県高岡郡四万十町見付９０２－１", "url": "https://www.kaigokensaku.mhlw.go.jp/39/index.php?action_kouhyou_detail_004_kani=true&JigyosyoCd=3962590026-00&ServiceCd=130&Type=search", "url2": null }, "geometry": { "type": "Point", "coordinates": [ 133.148517099999907, 33.2061123 ] } },
{ "type": "Feature", "properties": { "内容": "訪問看護ステーション　おこめ【訪問看護】高知県高岡郡四万十町琴平町9番地18", "url": "https://www.kaigokensaku.mhlw.go.jp/39/index.php?action_kouhyou_detail_004_kani=true&JigyosyoCd=3962590059-00&ServiceCd=130&Type=search", "url2": null }, "geometry": { "type": "Point", "coordinates": [ 133.133111600000035, 33.2125428 ] } }
]
}
