{
"type": "FeatureCollection",
"name": "geo_39_訪問介護",
"crs": { "type": "name", "properties": { "name": "urn:ogc:def:crs:OGC:1.3:CRS84" } },
"features": [
{ "type": "Feature", "properties": { "内容": "ヘルパーステーションかがやき【訪問介護】高知県高知市二葉町８番１８号", "url": "https://www.kaigokensaku.mhlw.go.jp/39/index.php?action_kouhyou_detail_004_kani=true&JigyosyoCd=3970106898-00&ServiceCd=110&Type=search", "url2": null }, "geometry": { "type": "Point", "coordinates": [ 133.555643800000013, 33.5572448 ] } },
{ "type": "Feature", "properties": { "内容": "ソレイユ・ケアセンター【訪問介護】高知市薊野西町３丁目１１－２２", "url": "https://www.kaigokensaku.mhlw.go.jp/39/index.php?action_kouhyou_detail_004_kani=true&JigyosyoCd=3970103440-00&ServiceCd=110&Type=search", "url2": null }, "geometry": { "type": "Point", "coordinates": [ 133.55212640000002, 33.5773239 ] } },
{ "type": "Feature", "properties": { "内容": "ヘルパーステーションてとて【訪問介護】高知市北本町4丁目５－２５", "url": "https://www.kaigokensaku.mhlw.go.jp/39/index.php?action_kouhyou_detail_004_kani=true&JigyosyoCd=3970106104-00&ServiceCd=110&Type=search", "url2": null }, "geometry": { "type": "Point", "coordinates": [ 133.554546324510852, 33.566000516557153 ] } },
{ "type": "Feature", "properties": { "内容": "ヘルパーステーション　おせっかい【訪問介護】高知県高知市潮新町1丁目１３－２６", "url": "https://www.kaigokensaku.mhlw.go.jp/39/index.php?action_kouhyou_detail_004_kani=true&JigyosyoCd=3970101071-00&ServiceCd=110&Type=search", "url2": null }, "geometry": { "type": "Point", "coordinates": [ 133.546885800000041, 33.5518659 ] } },
{ "type": "Feature", "properties": { "内容": "バラヘルパーステーション【訪問介護】高知県高知市長浜1658番地22", "url": "https://www.kaigokensaku.mhlw.go.jp/39/index.php?action_kouhyou_detail_004_kani=true&JigyosyoCd=3970106666-00&ServiceCd=110&Type=search", "url2": null }, "geometry": { "type": "Point", "coordinates": [ 133.539607299999972, 33.501607299999989 ] } },
{ "type": "Feature", "properties": { "内容": "高知中央ヘルパーステーション【訪問介護】高知市北高見町50-13メゾン高見1F", "url": "https://www.kaigokensaku.mhlw.go.jp/39/index.php?action_kouhyou_detail_004_kani=true&JigyosyoCd=3970107565-00&ServiceCd=110&Type=search", "url2": "http://kochi-zaitaku.or.jp/" }, "geometry": { "type": "Point", "coordinates": [ 133.537541299999987, 33.5465659 ] } },
{ "type": "Feature", "properties": { "内容": "ヘルパーステーション・介護塾【訪問介護】高知県高知市石立町91-1", "url": "https://www.kaigokensaku.mhlw.go.jp/39/index.php?action_kouhyou_detail_004_kani=true&JigyosyoCd=3970105742-00&ServiceCd=110&Type=search", "url2": null }, "geometry": { "type": "Point", "coordinates": [ 133.516380156518522, 33.552900182416835 ] } },
{ "type": "Feature", "properties": { "内容": "訪問介護事業所　よこはま【訪問介護】高知県高知市横浜東町10番1号", "url": "https://www.kaigokensaku.mhlw.go.jp/39/index.php?action_kouhyou_detail_004_kani=true&JigyosyoCd=3970104786-00&ServiceCd=110&Type=search", "url2": null }, "geometry": { "type": "Point", "coordinates": [ 133.548098100000061, 33.5196198 ] } },
{ "type": "Feature", "properties": { "内容": "ヘルパーステーションのかぜ【訪問介護】高知県高知市神田185番地27", "url": "https://www.kaigokensaku.mhlw.go.jp/39/index.php?action_kouhyou_detail_004_kani=true&JigyosyoCd=3970107086-00&ServiceCd=110&Type=search", "url2": null }, "geometry": { "type": "Point", "coordinates": [ 133.499739180959239, 33.533487510565912 ] } },
{ "type": "Feature", "properties": { "内容": "介護２４フジヘルパー【訪問介護】高知県高知市潮見台２丁目１８１２番地", "url": "https://www.kaigokensaku.mhlw.go.jp/39/index.php?action_kouhyou_detail_004_kani=true&JigyosyoCd=3970104711-00&ServiceCd=110&Type=search", "url2": null }, "geometry": { "type": "Point", "coordinates": [ 133.618564399999968, 33.5579862 ] } },
{ "type": "Feature", "properties": { "内容": "福祉センターあさくら【訪問介護】高知市朝倉己771-9解放センター2階", "url": "https://www.kaigokensaku.mhlw.go.jp/39/index.php?action_kouhyou_detail_004_kani=true&JigyosyoCd=3970104323-00&ServiceCd=110&Type=search", "url2": null }, "geometry": { "type": "Point", "coordinates": [ 133.489942299999939, 33.5344023 ] } },
{ "type": "Feature", "properties": { "内容": "ヘルパーステーション廿代【訪問介護】高知市南元町85番住宅型有料老人ホームあさひの里", "url": "https://www.kaigokensaku.mhlw.go.jp/39/index.php?action_kouhyou_detail_004_kani=true&JigyosyoCd=3970106401-00&ServiceCd=110&Type=search", "url2": null }, "geometry": { "type": "Point", "coordinates": [ 133.507451260049493, 33.557500261989169 ] } },
{ "type": "Feature", "properties": { "内容": "ホームヘルパーステーションウェルライフ【訪問介護】高知県高知市朝倉甲200-8ウェルライフ朝倉1F", "url": "https://www.kaigokensaku.mhlw.go.jp/39/index.php?action_kouhyou_detail_004_kani=true&JigyosyoCd=3970106534-00&ServiceCd=110&Type=search", "url2": "https://kano-welllife.com" }, "geometry": { "type": "Point", "coordinates": [ 133.4991096, 33.5413273 ] } },
{ "type": "Feature", "properties": { "内容": "有限会社　ヘルパーステーションあゆ【訪問介護】高知市八反町2丁目12-32-11", "url": "https://www.kaigokensaku.mhlw.go.jp/39/index.php?action_kouhyou_detail_004_kani=true&JigyosyoCd=3970101881-00&ServiceCd=110&Type=search", "url2": null }, "geometry": { "type": "Point", "coordinates": [ 133.5128, 33.5700321 ] } },
{ "type": "Feature", "properties": { "内容": "ヘルパーステーションお結び【訪問介護】高知市百石町4丁目11番3号2F", "url": "https://www.kaigokensaku.mhlw.go.jp/39/index.php?action_kouhyou_detail_004_kani=true&JigyosyoCd=3970107177-00&ServiceCd=110&Type=search", "url2": null }, "geometry": { "type": "Point", "coordinates": [ 133.546781399999986, 33.5428054 ] } },
{ "type": "Feature", "properties": { "内容": "ヘルパーステーションはまもと【訪問介護】高知県高知市長浜6557-57", "url": "https://www.kaigokensaku.mhlw.go.jp/39/index.php?action_kouhyou_detail_004_kani=true&JigyosyoCd=3970106369-00&ServiceCd=110&Type=search", "url2": null }, "geometry": { "type": "Point", "coordinates": [ 133.5419362, 33.4993814 ] } },
{ "type": "Feature", "properties": { "内容": "山村病院　鏡居宅サービス事業所【訪問介護】高知県高知市鏡今井１２６番地", "url": "https://www.kaigokensaku.mhlw.go.jp/39/index.php?action_kouhyou_detail_004_kani=true&JigyosyoCd=3910118102-00&ServiceCd=110&Type=search", "url2": null }, "geometry": { "type": "Point", "coordinates": [ 133.471645800000033, 33.6079124 ] } },
{ "type": "Feature", "properties": { "内容": "ケアフィオーレ高知【訪問介護】高知県高知市本町3丁目3-23白亜第5ビル6階", "url": "https://www.kaigokensaku.mhlw.go.jp/39/index.php?action_kouhyou_detail_004_kani=true&JigyosyoCd=3970106849-00&ServiceCd=110&Type=search", "url2": "http://liebe-fiore.com" }, "geometry": { "type": "Point", "coordinates": [ 133.534773400000034, 33.557644400000015 ] } },
{ "type": "Feature", "properties": { "内容": "ヘルパーステーション彩【訪問介護】高知県高知市桜井町1丁目8-9", "url": "https://www.kaigokensaku.mhlw.go.jp/39/index.php?action_kouhyou_detail_004_kani=true&JigyosyoCd=3970106302-00&ServiceCd=110&Type=search", "url2": null }, "geometry": { "type": "Point", "coordinates": [ 133.547959252642556, 33.56272091842159 ] } },
{ "type": "Feature", "properties": { "内容": "ヘルパーステーション絆【訪問介護】高知市春野町弘岡中６３９", "url": "https://www.kaigokensaku.mhlw.go.jp/39/index.php?action_kouhyou_detail_004_kani=true&JigyosyoCd=3970102004-00&ServiceCd=110&Type=search", "url2": "unvs.co.jp" }, "geometry": { "type": "Point", "coordinates": [ 133.469107200000053, 33.5051021 ] } },
{ "type": "Feature", "properties": { "内容": "ホームヘルパーステーション　城西【訪問介護】高知県高知市大膳町１番２５号２階", "url": "https://www.kaigokensaku.mhlw.go.jp/39/index.php?action_kouhyou_detail_004_kani=true&JigyosyoCd=3970100586-00&ServiceCd=110&Type=search", "url2": "http://hosogi-hospital.jp/" }, "geometry": { "type": "Point", "coordinates": [ 133.523402124893408, 33.559145709209645 ] } },
{ "type": "Feature", "properties": { "内容": "ヘルパーステーション福寿の園【訪問介護】高知県高知市福井扇町7番8号和マンション3階　302号", "url": "https://www.kaigokensaku.mhlw.go.jp/39/index.php?action_kouhyou_detail_004_kani=true&JigyosyoCd=3970107763-00&ServiceCd=110&Type=search", "url2": null }, "geometry": { "type": "Point", "coordinates": [ 133.510806699999989, 33.5680409 ] } },
{ "type": "Feature", "properties": { "内容": "ヘルパーステーションやわらぎ【訪問介護】高知県高知市鴨部高町16番33号和の杜かもべ", "url": "https://www.kaigokensaku.mhlw.go.jp/39/index.php?action_kouhyou_detail_004_kani=true&JigyosyoCd=3970106450-00&ServiceCd=110&Type=search", "url2": null }, "geometry": { "type": "Point", "coordinates": [ 133.494953188954923, 33.550706803756491 ] } },
{ "type": "Feature", "properties": { "内容": "訪問介護事業所　ジョイハッピィ【訪問介護】高知県高知市小津町2番10号池上ビル102", "url": "https://www.kaigokensaku.mhlw.go.jp/39/index.php?action_kouhyou_detail_004_kani=true&JigyosyoCd=3970104828-00&ServiceCd=110&Type=search", "url2": "http://www.joyhappy.sakura.ne.jp/" }, "geometry": { "type": "Point", "coordinates": [ 133.530353600000041, 33.564241700000039 ] } },
{ "type": "Feature", "properties": { "内容": "ヘルパーステーションかなで【訪問介護】高知県高知市神田５２６－４９杉本ハイム2階西号室", "url": "https://www.kaigokensaku.mhlw.go.jp/39/index.php?action_kouhyou_detail_004_kani=true&JigyosyoCd=3970107524-00&ServiceCd=110&Type=search", "url2": null }, "geometry": { "type": "Point", "coordinates": [ 133.5102655, 33.5468256 ] } },
{ "type": "Feature", "properties": { "内容": "ホームヘルパーステーション永井【訪問介護】高知県高知市春野町西分2027-3", "url": "https://www.kaigokensaku.mhlw.go.jp/39/index.php?action_kouhyou_detail_004_kani=true&JigyosyoCd=3970104059-00&ServiceCd=110&Type=search", "url2": "http://www.nagai-hp.com/zaitaku.html" }, "geometry": { "type": "Point", "coordinates": [ 133.492883, 33.4986338 ] } },
{ "type": "Feature", "properties": { "内容": "ヘルパーステーションつばさ【訪問介護】高知市桟橋通１丁目７－１７", "url": "https://www.kaigokensaku.mhlw.go.jp/39/index.php?action_kouhyou_detail_004_kani=true&JigyosyoCd=3970103929-00&ServiceCd=110&Type=search", "url2": null }, "geometry": { "type": "Point", "coordinates": [ 133.546235900000056, 33.5511882 ] } },
{ "type": "Feature", "properties": { "内容": "ヘルパーステーションゆずりは【訪問介護】長浜1349-1", "url": "https://www.kaigokensaku.mhlw.go.jp/39/index.php?action_kouhyou_detail_004_kani=true&JigyosyoCd=3970103051-00&ServiceCd=110&Type=search", "url2": "https://nijinoyume-g.jp/" }, "geometry": { "type": "Point", "coordinates": [ 133.538463184754391, 33.508983440957216 ] } },
{ "type": "Feature", "properties": { "内容": "訪問介護事業所　ひととせ【訪問介護】高知県高知市一宮東町一丁目28-24-2ハイツショウエイ2番館211号", "url": "https://www.kaigokensaku.mhlw.go.jp/39/index.php?action_kouhyou_detail_004_kani=true&JigyosyoCd=3970105643-00&ServiceCd=110&Type=search", "url2": "http://www.life-tellus.jp/" }, "geometry": { "type": "Point", "coordinates": [ 133.577507500000024, 33.5824072 ] } },
{ "type": "Feature", "properties": { "内容": "ホームヘルパーステーションよこはま【訪問介護】高知県高知市横浜２０番１", "url": "https://www.kaigokensaku.mhlw.go.jp/39/index.php?action_kouhyou_detail_004_kani=true&JigyosyoCd=3970100123-00&ServiceCd=110&Type=search", "url2": "http://herupa-yokohama.jimdo.com/" }, "geometry": { "type": "Point", "coordinates": [ 133.553691599999979, 33.528618899999984 ] } },
{ "type": "Feature", "properties": { "内容": "セントケア高知【訪問介護】高知市高埇21-17ルミエール高埇212号", "url": "https://www.kaigokensaku.mhlw.go.jp/39/index.php?action_kouhyou_detail_004_kani=true&JigyosyoCd=3970104695-00&ServiceCd=110&Type=search", "url2": "https://www.saint-care.com/center/909/" }, "geometry": { "type": "Point", "coordinates": [ 133.557409099999973, 33.5708671 ] } },
{ "type": "Feature", "properties": { "内容": "ホームヘルパーステーション　いずみの【訪問介護】高知市薊野北町３丁目２番２８号診療棟２階", "url": "https://www.kaigokensaku.mhlw.go.jp/39/index.php?action_kouhyou_detail_004_kani=true&JigyosyoCd=3970100693-00&ServiceCd=110&Type=search", "url2": "http://www.kinrou-cl.jp/fuzoku/helper.html" }, "geometry": { "type": "Point", "coordinates": [ 133.550426600000037, 33.5817427 ] } },
{ "type": "Feature", "properties": { "内容": "ヘルパーステーションえくぼ【訪問介護】高知市鴨部１丁目１１番２-２１０３号鏡川コーポ", "url": "https://www.kaigokensaku.mhlw.go.jp/39/index.php?action_kouhyou_detail_004_kani=true&JigyosyoCd=3970100891-00&ServiceCd=110&Type=search", "url2": null }, "geometry": { "type": "Point", "coordinates": [ 133.50442929999997, 33.5508425 ] } },
{ "type": "Feature", "properties": { "内容": "ニチイケアセンター旭【訪問介護】高知市旭町２丁目２２番１５号アーバンハイツ旭１階", "url": "https://www.kaigokensaku.mhlw.go.jp/39/index.php?action_kouhyou_detail_004_kani=true&JigyosyoCd=3970100305-00&ServiceCd=110&Type=search", "url2": "http://www.nichiigakkan.co.jp" }, "geometry": { "type": "Point", "coordinates": [ 133.509622799999988, 33.5551228 ] } },
{ "type": "Feature", "properties": { "内容": "ニチイケアセンター瀬戸南【訪問介護】高知県高知市瀬戸南町２丁目８－３６", "url": "https://www.kaigokensaku.mhlw.go.jp/39/index.php?action_kouhyou_detail_004_kani=true&JigyosyoCd=3970104935-00&ServiceCd=110&Type=search", "url2": null }, "geometry": { "type": "Point", "coordinates": [ 133.541718935581883, 33.5056296 ] } },
{ "type": "Feature", "properties": { "内容": "福祉ステーション　やさしいグループ【訪問介護】高知県高知市朝倉己771-1", "url": "https://www.kaigokensaku.mhlw.go.jp/39/index.php?action_kouhyou_detail_004_kani=true&JigyosyoCd=3970100289-00&ServiceCd=110&Type=search", "url2": "https://yasashii-group.jimdosite.com" }, "geometry": { "type": "Point", "coordinates": [ 133.4897145, 33.5347412 ] } },
{ "type": "Feature", "properties": { "内容": "訪問介護ステーション万々の恵【訪問介護】高知県高知市愛宕町4丁目7-9", "url": "https://www.kaigokensaku.mhlw.go.jp/39/index.php?action_kouhyou_detail_004_kani=true&JigyosyoCd=3970106914-00&ServiceCd=110&Type=search", "url2": null }, "geometry": { "type": "Point", "coordinates": [ 133.536032859101965, 33.573387346287198 ] } },
{ "type": "Feature", "properties": { "内容": "ここわライフサービス【訪問介護】高知県高知市一宮中町３丁目２３番３号コスモ一宮I　３０１号", "url": "https://www.kaigokensaku.mhlw.go.jp/39/index.php?action_kouhyou_detail_004_kani=true&JigyosyoCd=3970103986-00&ServiceCd=110&Type=search", "url2": null }, "geometry": { "type": "Point", "coordinates": [ 133.576827, 33.5887924 ] } },
{ "type": "Feature", "properties": { "内容": "ニチイケアセンター　高知【訪問介護】高知県高知市杉井流１番２号", "url": "https://www.kaigokensaku.mhlw.go.jp/39/index.php?action_kouhyou_detail_004_kani=true&JigyosyoCd=3970100677-00&ServiceCd=110&Type=search", "url2": "http://www.nichiigakkan.co.jp/" }, "geometry": { "type": "Point", "coordinates": [ 133.554765099999941, 33.5678115 ] } },
{ "type": "Feature", "properties": { "内容": "訪問介護ステーション　まる【訪問介護】高知県高知市愛宕町３丁目10-15コーポ愛宕A-3", "url": "https://www.kaigokensaku.mhlw.go.jp/39/index.php?action_kouhyou_detail_004_kani=true&JigyosyoCd=3970108035-00&ServiceCd=110&Type=search", "url2": null }, "geometry": { "type": "Point", "coordinates": [ 133.537708, 33.5707995 ] } },
{ "type": "Feature", "properties": { "内容": "ケアサポートゆいまある【訪問介護】高知県高知市知寄町1丁目８－７カーサグラン高知205", "url": "https://www.kaigokensaku.mhlw.go.jp/39/index.php?action_kouhyou_detail_004_kani=true&JigyosyoCd=3970107631-00&ServiceCd=110&Type=search", "url2": "https://yuimaaru.c-co.jp" }, "geometry": { "type": "Point", "coordinates": [ 133.5577846, 33.5580721 ] } },
{ "type": "Feature", "properties": { "内容": "ヘルパーステーションほほえみ【訪問介護】高知県高知市神田2291-11", "url": "https://www.kaigokensaku.mhlw.go.jp/39/index.php?action_kouhyou_detail_004_kani=true&JigyosyoCd=3970100420-00&ServiceCd=110&Type=search", "url2": "http://kochi.koreikyo.jp/" }, "geometry": { "type": "Point", "coordinates": [ 133.518527536076363, 33.54650313559533 ] } },
{ "type": "Feature", "properties": { "内容": "ヘルパーステーションすまいる高知【訪問介護】高知県高知市上町2丁目11-13TR上町ビル2階南", "url": "https://www.kaigokensaku.mhlw.go.jp/39/index.php?action_kouhyou_detail_004_kani=true&JigyosyoCd=3970107847-00&ServiceCd=110&Type=search", "url2": "https://www.nishida-ph.net" }, "geometry": { "type": "Point", "coordinates": [ 133.523141900000013, 33.5551103 ] } },
{ "type": "Feature", "properties": { "内容": "訪問介護事業所わらふく【訪問介護】高知県高知市潮新町2丁目10-1VIVHOUSE1F西", "url": "https://www.kaigokensaku.mhlw.go.jp/39/index.php?action_kouhyou_detail_004_kani=true&JigyosyoCd=3970107854-00&ServiceCd=110&Type=search", "url2": null }, "geometry": { "type": "Point", "coordinates": [ 133.549781200000012, 33.5493492 ] } },
{ "type": "Feature", "properties": { "内容": "ヘルパーステーションＬｉｂ【訪問介護】高知県高知市縄手町64-1", "url": "https://www.kaigokensaku.mhlw.go.jp/39/index.php?action_kouhyou_detail_004_kani=true&JigyosyoCd=3970106732-00&ServiceCd=110&Type=search", "url2": null }, "geometry": { "type": "Point", "coordinates": [ 133.510322862093517, 33.554449063294904 ] } },
{ "type": "Feature", "properties": { "内容": "ヘルパーステーション　伊勢崎町【訪問介護】高知市伊勢崎町15-22", "url": "https://www.kaigokensaku.mhlw.go.jp/39/index.php?action_kouhyou_detail_004_kani=true&JigyosyoCd=3970102608-00&ServiceCd=110&Type=search", "url2": "http://care-net.biz/39/care-isezaki/sitemap.php" }, "geometry": { "type": "Point", "coordinates": [ 133.5314922, 33.570952 ] } },
{ "type": "Feature", "properties": { "内容": "青空ヘルパーステーション【訪問介護】高知県高知市愛宕町2丁目１８－５　２F", "url": "https://www.kaigokensaku.mhlw.go.jp/39/index.php?action_kouhyou_detail_004_kani=true&JigyosyoCd=3970107920-00&ServiceCd=110&Type=search", "url2": null }, "geometry": { "type": "Point", "coordinates": [ 133.5365548, 33.5678473 ] } },
{ "type": "Feature", "properties": { "内容": "ヘルパーステーションシルキーマリン【訪問介護】高知県高知市高見町23ファミリーハウスやいろ", "url": "https://www.kaigokensaku.mhlw.go.jp/39/index.php?action_kouhyou_detail_004_kani=true&JigyosyoCd=3970106427-00&ServiceCd=110&Type=search", "url2": null }, "geometry": { "type": "Point", "coordinates": [ 133.536807091522093, 33.543153610875045 ] } },
{ "type": "Feature", "properties": { "内容": "訪問介護事業所スマートケア【訪問介護】高知県高知市瀬戸南町2丁目3-6", "url": "https://www.kaigokensaku.mhlw.go.jp/39/index.php?action_kouhyou_detail_004_kani=true&JigyosyoCd=3970105882-00&ServiceCd=110&Type=search", "url2": null }, "geometry": { "type": "Point", "coordinates": [ 133.543458595044712, 33.507823571219063 ] } },
{ "type": "Feature", "properties": { "内容": "へルパーステーションあざみ【訪問介護】高知市一宮東町5丁目1-15", "url": "https://www.kaigokensaku.mhlw.go.jp/39/index.php?action_kouhyou_detail_004_kani=true&JigyosyoCd=3970100917-00&ServiceCd=110&Type=search", "url2": "http://care-net.biz/39/hata-dialife/" }, "geometry": { "type": "Point", "coordinates": [ 133.577807433951818, 33.588744973059477 ] } },
{ "type": "Feature", "properties": { "内容": "ヘルパーステーションほっとすまいる【訪問介護】高知県高知市百石町2丁目19-15メゾン山崎301号", "url": "https://www.kaigokensaku.mhlw.go.jp/39/index.php?action_kouhyou_detail_004_kani=true&JigyosyoCd=3970107706-00&ServiceCd=110&Type=search", "url2": null }, "geometry": { "type": "Point", "coordinates": [ 133.5415606, 33.5475751 ] } },
{ "type": "Feature", "properties": { "内容": "朝日サービス　株式会社　指定訪問介護事業所【訪問介護】高知市長浜666", "url": "https://www.kaigokensaku.mhlw.go.jp/39/index.php?action_kouhyou_detail_004_kani=true&JigyosyoCd=3970101907-00&ServiceCd=110&Type=search", "url2": null }, "geometry": { "type": "Point", "coordinates": [ 133.546253829774173, 33.50140770937923 ] } },
{ "type": "Feature", "properties": { "内容": "ヘルパーステーション照【訪問介護】高知県高知市神田８１８番地２１", "url": "https://www.kaigokensaku.mhlw.go.jp/39/index.php?action_kouhyou_detail_004_kani=true&JigyosyoCd=3970107821-00&ServiceCd=110&Type=search", "url2": "https://hksteru.com/helper-station-teru/" }, "geometry": { "type": "Point", "coordinates": [ 133.5105624, 33.5436354 ] } },
{ "type": "Feature", "properties": { "内容": "ピアハウス高知　２４時間ヘルパーステーションピア【訪問介護】高知市塚の原33-1", "url": "https://www.kaigokensaku.mhlw.go.jp/39/index.php?action_kouhyou_detail_004_kani=true&JigyosyoCd=3950180046-00&ServiceCd=110&Type=search", "url2": "http://josenkai-piahouse.jp" }, "geometry": { "type": "Point", "coordinates": [ 133.494280600000025, 33.5609216 ] } },
{ "type": "Feature", "properties": { "内容": "ニチイケアセンター高知東【訪問介護】高知県高知市高須東町14-4ドリームハウス寿1階101号室", "url": "https://www.kaigokensaku.mhlw.go.jp/39/index.php?action_kouhyou_detail_004_kani=true&JigyosyoCd=3970107342-00&ServiceCd=110&Type=search", "url2": null }, "geometry": { "type": "Point", "coordinates": [ 133.5946069, 33.5585346 ] } },
{ "type": "Feature", "properties": { "内容": "アートケア・ヘルパーステーション【訪問介護】高知県高知市長浜1624-4アーバンハイツK＆N301号室", "url": "https://www.kaigokensaku.mhlw.go.jp/39/index.php?action_kouhyou_detail_004_kani=true&JigyosyoCd=3970107219-00&ServiceCd=110&Type=search", "url2": "http://www.artcare-group.jp/company.html" }, "geometry": { "type": "Point", "coordinates": [ 133.540641160906603, 33.500043534825018 ] } },
{ "type": "Feature", "properties": { "内容": "訪問介護Y'sFamily【訪問介護】高知県高知市鴨部2丁目1-222F", "url": "https://www.kaigokensaku.mhlw.go.jp/39/index.php?action_kouhyou_detail_004_kani=true&JigyosyoCd=3970107771-00&ServiceCd=110&Type=search", "url2": null }, "geometry": { "type": "Point", "coordinates": [ 133.505825, 33.5498344 ] } },
{ "type": "Feature", "properties": { "内容": "ヘルパーステーション　ソレイユ【訪問介護】高知県高知市東城山町163-1ソレイユこうち", "url": "https://www.kaigokensaku.mhlw.go.jp/39/index.php?action_kouhyou_detail_004_kani=true&JigyosyoCd=3970100479-00&ServiceCd=110&Type=search", "url2": "http://www.kochikc.co.jp/okabayashihp/" }, "geometry": { "type": "Point", "coordinates": [ 133.516947839811706, 33.547194767412321 ] } },
{ "type": "Feature", "properties": { "内容": "ヘルパーステーションKoKoro【訪問介護】高知県高知市城山町23-6第2杉本ハイム102", "url": "https://www.kaigokensaku.mhlw.go.jp/39/index.php?action_kouhyou_detail_004_kani=true&JigyosyoCd=3970107672-00&ServiceCd=110&Type=search", "url2": null }, "geometry": { "type": "Point", "coordinates": [ 133.516139544180305, 33.550839620961483 ] } },
{ "type": "Feature", "properties": { "内容": "ニチイケアセンターあさくら【訪問介護】高知市針木東町8-19", "url": "https://www.kaigokensaku.mhlw.go.jp/39/index.php?action_kouhyou_detail_004_kani=true&JigyosyoCd=3970107078-00&ServiceCd=110&Type=search", "url2": null }, "geometry": { "type": "Point", "coordinates": [ 133.4752948, 33.5338308 ] } },
{ "type": "Feature", "properties": { "内容": "介護ステーション才加【訪問介護】高知県高知市鴨部1丁目１７－７", "url": "https://www.kaigokensaku.mhlw.go.jp/39/index.php?action_kouhyou_detail_004_kani=true&JigyosyoCd=3970106823-00&ServiceCd=110&Type=search", "url2": null }, "geometry": { "type": "Point", "coordinates": [ 133.50161879999996, 33.5516668 ] } },
{ "type": "Feature", "properties": { "内容": "社会福祉法人高知市社会福祉協議会指定訪問介護事業所ヘルパーステーション【訪問介護】高知市丸ノ内1丁目7-45総合あんしんセンター　3階", "url": "https://www.kaigokensaku.mhlw.go.jp/39/index.php?action_kouhyou_detail_004_kani=true&JigyosyoCd=3970100230-00&ServiceCd=110&Type=search", "url2": "http://www.kochi-csw.or.jp/" }, "geometry": { "type": "Point", "coordinates": [ 133.528026550665373, 33.56020435371034 ] } },
{ "type": "Feature", "properties": { "内容": "真心合同会社【訪問介護】南金田15-12", "url": "https://www.kaigokensaku.mhlw.go.jp/39/index.php?action_kouhyou_detail_004_kani=true&JigyosyoCd=3970106955-00&ServiceCd=110&Type=search", "url2": "http://hp.kaipoke.biz/v66/" }, "geometry": { "type": "Point", "coordinates": [ 133.558153377429306, 33.562981476434167 ] } },
{ "type": "Feature", "properties": { "内容": "社会福祉法人高知市社会福祉協議会　介護センターあじさい会館　指定訪問介護事業所【訪問介護】高知県高知市春野町西分１番地１", "url": "https://www.kaigokensaku.mhlw.go.jp/39/index.php?action_kouhyou_detail_004_kani=true&JigyosyoCd=3970103077-00&ServiceCd=110&Type=search", "url2": "http://www.kochi-csw.or.jp/" }, "geometry": { "type": "Point", "coordinates": [ 133.4878417, 33.4978337 ] } },
{ "type": "Feature", "properties": { "内容": "ヘルパーステーションミカリ潮江【訪問介護】高知県高知市潮新町2丁目5-20", "url": "https://www.kaigokensaku.mhlw.go.jp/39/index.php?action_kouhyou_detail_004_kani=true&JigyosyoCd=3970107607-00&ServiceCd=110&Type=search", "url2": null }, "geometry": { "type": "Point", "coordinates": [ 133.5500849, 33.5501914 ] } },
{ "type": "Feature", "properties": { "内容": "ヘルパーステーションさつき【訪問介護】高知市円行寺５２－１０", "url": "https://www.kaigokensaku.mhlw.go.jp/39/index.php?action_kouhyou_detail_004_kani=true&JigyosyoCd=3970100149-00&ServiceCd=110&Type=search", "url2": "http://www.sanjyukai.com/annai/satuki.htm" }, "geometry": { "type": "Point", "coordinates": [ 133.5137, 33.5838861 ] } },
{ "type": "Feature", "properties": { "内容": "ヘルパーステーショントマトの樹【訪問介護】高知県高知市介良乙８８３番地２", "url": "https://www.kaigokensaku.mhlw.go.jp/39/index.php?action_kouhyou_detail_004_kani=true&JigyosyoCd=3970101931-00&ServiceCd=110&Type=search", "url2": "http://www.netfamily.jp/" }, "geometry": { "type": "Point", "coordinates": [ 133.598072199999933, 33.5643129 ] } },
{ "type": "Feature", "properties": { "内容": "ヘルパーよさく【訪問介護】高知県高知市朝倉丙1543", "url": "https://www.kaigokensaku.mhlw.go.jp/39/index.php?action_kouhyou_detail_004_kani=true&JigyosyoCd=3970104976-00&ServiceCd=110&Type=search", "url2": null }, "geometry": { "type": "Point", "coordinates": [ 133.479363078835064, 33.552034176794486 ] } },
{ "type": "Feature", "properties": { "内容": "ヘルパーステーション　ワンアップ【訪問介護】高知県高知市桟橋通４丁目16-44コーポ三粧１Ｆ北", "url": "https://www.kaigokensaku.mhlw.go.jp/39/index.php?action_kouhyou_detail_004_kani=true&JigyosyoCd=3970104190-00&ServiceCd=110&Type=search", "url2": null }, "geometry": { "type": "Point", "coordinates": [ 133.548521988746586, 33.544675508202623 ] } },
{ "type": "Feature", "properties": { "内容": "ホームヘルパーステーション　あおやぎ【訪問介護】高知県高知市五台山3780-1", "url": "https://www.kaigokensaku.mhlw.go.jp/39/index.php?action_kouhyou_detail_004_kani=true&JigyosyoCd=3970100057-00&ServiceCd=110&Type=search", "url2": "http://www.sawarabikai.net/index.html" }, "geometry": { "type": "Point", "coordinates": [ 133.588254399999983, 33.548514799999985 ] } },
{ "type": "Feature", "properties": { "内容": "ヘルパーステーション　はち【訪問介護】高知県　高知市六泉寺町221-1第二六泉寺ビル103号", "url": "https://www.kaigokensaku.mhlw.go.jp/39/index.php?action_kouhyou_detail_004_kani=true&JigyosyoCd=3970103960-00&ServiceCd=110&Type=search", "url2": null }, "geometry": { "type": "Point", "coordinates": [ 133.5410283, 33.5391673 ] } },
{ "type": "Feature", "properties": { "内容": "ヘルパーステーションふぁみたす【訪問介護】高知県高知市桜井町2丁目9番37号", "url": "https://www.kaigokensaku.mhlw.go.jp/39/index.php?action_kouhyou_detail_004_kani=true&JigyosyoCd=3970107615-00&ServiceCd=110&Type=search", "url2": null }, "geometry": { "type": "Point", "coordinates": [ 133.550789900000012, 33.5626324 ] } },
{ "type": "Feature", "properties": { "内容": "ヘルパーステーション　心愛【訪問介護】瀬戸南町１丁目13-26めぞん志麻　２０２号室", "url": "https://www.kaigokensaku.mhlw.go.jp/39/index.php?action_kouhyou_detail_004_kani=true&JigyosyoCd=3970108266-00&ServiceCd=110&Type=search", "url2": null }, "geometry": { "type": "Point", "coordinates": [ 133.541117199999974, 33.5059946 ] } },
{ "type": "Feature", "properties": { "内容": "ヘルパーステーションReborn【訪問介護】高知県高知市桜井町1丁目5-14大西マンション205", "url": "https://www.kaigokensaku.mhlw.go.jp/39/index.php?action_kouhyou_detail_004_kani=true&JigyosyoCd=3970107938-00&ServiceCd=110&Type=search", "url2": null }, "geometry": { "type": "Point", "coordinates": [ 133.5484559, 33.5617687 ] } },
{ "type": "Feature", "properties": { "内容": "介護サービスほのか【訪問介護】高知県高知市高須東町3-25モーメントヤマイチ101号室", "url": "https://www.kaigokensaku.mhlw.go.jp/39/index.php?action_kouhyou_detail_004_kani=true&JigyosyoCd=3970108068-00&ServiceCd=110&Type=search", "url2": null }, "geometry": { "type": "Point", "coordinates": [ 133.5908921, 33.5587096 ] } },
{ "type": "Feature", "properties": { "内容": "ケアサポート　よつ葉【訪問介護】高知県高知市東雲町4-6ノースリバーⅡ207号", "url": "https://www.kaigokensaku.mhlw.go.jp/39/index.php?action_kouhyou_detail_004_kani=true&JigyosyoCd=3970106617-00&ServiceCd=110&Type=search", "url2": "https://yotuba.club" }, "geometry": { "type": "Point", "coordinates": [ 133.562206164033057, 33.55989139999442 ] } },
{ "type": "Feature", "properties": { "内容": "ホームヘルパーステーション　マズルカ【訪問介護】高知県高知市大津乙869番地5ウェルライフ大津1階", "url": "https://www.kaigokensaku.mhlw.go.jp/39/index.php?action_kouhyou_detail_004_kani=true&JigyosyoCd=3970108167-00&ServiceCd=110&Type=search", "url2": null }, "geometry": { "type": "Point", "coordinates": [ 133.5967643, 33.5691676 ] } },
{ "type": "Feature", "properties": { "内容": "ふれあいセンター青葉【訪問介護】高知県高知市桜井町二丁目６番３４号", "url": "https://www.kaigokensaku.mhlw.go.jp/39/index.php?action_kouhyou_detail_004_kani=true&JigyosyoCd=3970103333-00&ServiceCd=110&Type=search", "url2": null }, "geometry": { "type": "Point", "coordinates": [ 133.551187900000059, 33.5619398 ] } },
{ "type": "Feature", "properties": { "内容": "ヘルパーステーション　ミカリ【訪問介護】高知県高知市鴨部1丁目8番１１号山ノ端コーポ102号", "url": "https://www.kaigokensaku.mhlw.go.jp/39/index.php?action_kouhyou_detail_004_kani=true&JigyosyoCd=3970105502-00&ServiceCd=110&Type=search", "url2": "http://www.mikari.net/" }, "geometry": { "type": "Point", "coordinates": [ 133.506329, 33.5501649 ] } },
{ "type": "Feature", "properties": { "内容": "ヘルパーステーション　虹【訪問介護】高知県高知市旭上町32旭診療所２階", "url": "https://www.kaigokensaku.mhlw.go.jp/39/index.php?action_kouhyou_detail_004_kani=true&JigyosyoCd=3910112576-00&ServiceCd=110&Type=search", "url2": null }, "geometry": { "type": "Point", "coordinates": [ 133.503061586508238, 33.556463782267535 ] } },
{ "type": "Feature", "properties": { "内容": "ヘルパーステーションなかよし【訪問介護】高知市高須新町2-15-5サンハイツ小松105", "url": "https://www.kaigokensaku.mhlw.go.jp/39/index.php?action_kouhyou_detail_004_kani=true&JigyosyoCd=3970104034-00&ServiceCd=110&Type=search", "url2": null }, "geometry": { "type": "Point", "coordinates": [ 133.578841, 33.5591382 ] } },
{ "type": "Feature", "properties": { "内容": "ニチイケアセンター　くま【訪問介護】高知県高知市小津町5-2ダイアパレス小津町103", "url": "https://www.kaigokensaku.mhlw.go.jp/39/index.php?action_kouhyou_detail_004_kani=true&JigyosyoCd=3970101733-00&ServiceCd=110&Type=search", "url2": "http://www.nichiigakkan.co.jp" }, "geometry": { "type": "Point", "coordinates": [ 133.527285099999972, 33.56269540000001 ] } },
{ "type": "Feature", "properties": { "内容": "歩介護事業所【訪問介護】高知市南竹島町１６－１１", "url": "https://www.kaigokensaku.mhlw.go.jp/39/index.php?action_kouhyou_detail_004_kani=true&JigyosyoCd=3970102582-00&ServiceCd=110&Type=search", "url2": null }, "geometry": { "type": "Point", "coordinates": [ 133.54542790000005, 33.5394285 ] } },
{ "type": "Feature", "properties": { "内容": "合同会社ヘルパーステーションいと【訪問介護】高知県高知市朝倉南町3番45-1号", "url": "https://www.kaigokensaku.mhlw.go.jp/39/index.php?action_kouhyou_detail_004_kani=true&JigyosyoCd=3970108159-00&ServiceCd=110&Type=search", "url2": "https://ito-homecare.com" }, "geometry": { "type": "Point", "coordinates": [ 133.4928854, 33.5433394 ] } },
{ "type": "Feature", "properties": { "内容": "合同会社ほっとステーション【訪問介護】高知県高知市横浜東町2-47", "url": "https://www.kaigokensaku.mhlw.go.jp/39/index.php?action_kouhyou_detail_004_kani=true&JigyosyoCd=3970107755-00&ServiceCd=110&Type=search", "url2": "https://hottostation.com" }, "geometry": { "type": "Point", "coordinates": [ 133.5452415, 33.5226446 ] } },
{ "type": "Feature", "properties": { "内容": "ヘルパーステーションなごみ【訪問介護】高知県高知市福井扇町13-18", "url": "https://www.kaigokensaku.mhlw.go.jp/39/index.php?action_kouhyou_detail_004_kani=true&JigyosyoCd=3970108027-00&ServiceCd=110&Type=search", "url2": null }, "geometry": { "type": "Point", "coordinates": [ 133.510809057672134, 33.567443941416997 ] } },
{ "type": "Feature", "properties": { "内容": "訪問介護ステーションみやこや【訪問介護】高知県高知市朝倉甲551-6", "url": "https://www.kaigokensaku.mhlw.go.jp/39/index.php?action_kouhyou_detail_004_kani=true&JigyosyoCd=3970107961-00&ServiceCd=110&Type=search", "url2": null }, "geometry": { "type": "Point", "coordinates": [ 133.491576, 33.5393269 ] } },
{ "type": "Feature", "properties": { "内容": "ヘルパーステーションきんちゃく【訪問介護】高知県高知市御畳瀬476-2", "url": "https://www.kaigokensaku.mhlw.go.jp/39/index.php?action_kouhyou_detail_004_kani=true&JigyosyoCd=3970108225-00&ServiceCd=110&Type=search", "url2": null }, "geometry": { "type": "Point", "coordinates": [ 133.5570587, 33.5056491 ] } },
{ "type": "Feature", "properties": { "内容": "ニチイケアセンターかもだ【訪問介護】高知県高知市神田806-9楠瀬ビル1階", "url": "https://www.kaigokensaku.mhlw.go.jp/39/index.php?action_kouhyou_detail_004_kani=true&JigyosyoCd=3970107094-00&ServiceCd=110&Type=search", "url2": null }, "geometry": { "type": "Point", "coordinates": [ 133.252150699999987, 33.5481246 ] } },
{ "type": "Feature", "properties": { "内容": "訪問介護事業所　そらいろ【訪問介護】高知県高知市朝倉西町2丁目13-25", "url": "https://www.kaigokensaku.mhlw.go.jp/39/index.php?action_kouhyou_detail_004_kani=true&JigyosyoCd=3970107490-00&ServiceCd=110&Type=search", "url2": null }, "geometry": { "type": "Point", "coordinates": [ 133.48055789999998, 33.537702 ] } },
{ "type": "Feature", "properties": { "内容": "ヘルパーステーション一歩【訪問介護】高知県高知市南宝永町5-14　1階", "url": "https://www.kaigokensaku.mhlw.go.jp/39/index.php?action_kouhyou_detail_004_kani=true&JigyosyoCd=3970108233-00&ServiceCd=110&Type=search", "url2": "https://www.helperstation-ippo.com" }, "geometry": { "type": "Point", "coordinates": [ 133.5546046, 33.5573902 ] } },
{ "type": "Feature", "properties": { "内容": "訪問介護事業所　悠生【訪問介護】高知県高知市薊野北町２丁目7-11", "url": "https://www.kaigokensaku.mhlw.go.jp/39/index.php?action_kouhyou_detail_004_kani=true&JigyosyoCd=3970107789-00&ServiceCd=110&Type=search", "url2": null }, "geometry": { "type": "Point", "coordinates": [ 133.552609553067072, 33.580993700569614 ] } },
{ "type": "Feature", "properties": { "内容": "ヘルパーステーションぎんろう【訪問介護】高知県高知市十津２丁目11-20深浦マンション201号", "url": "https://www.kaigokensaku.mhlw.go.jp/39/index.php?action_kouhyou_detail_004_kani=true&JigyosyoCd=3970108274-00&ServiceCd=110&Type=search", "url2": "https://lupusland.com/%e3%83%98%e3%83%ab%e3%83%91%e3%83%bc%e3%82%b9%e3%83%86%e3%83%bc%e3%82%b7%e3%83%a7%e3%83%b3%e3%81%8e%e3%82%93%e3%82%8d%e3%81%86/" }, "geometry": { "type": "Point", "coordinates": [ 133.5699491, 33.52425010000001 ] } },
{ "type": "Feature", "properties": { "内容": "ヘルパーステーション　たんぽぽ【訪問介護】高知県高知市瀬戸南町２丁目１７－１３", "url": "https://www.kaigokensaku.mhlw.go.jp/39/index.php?action_kouhyou_detail_004_kani=true&JigyosyoCd=3970107417-00&ServiceCd=110&Type=search", "url2": "yuusin.hs@outlook.com" }, "geometry": { "type": "Point", "coordinates": [ 133.5421184, 33.5051095 ] } },
{ "type": "Feature", "properties": { "内容": "ヘルパーステーションりんくす【訪問介護】高知県高知市杉井流26-11", "url": "https://www.kaigokensaku.mhlw.go.jp/39/index.php?action_kouhyou_detail_004_kani=true&JigyosyoCd=3970105783-00&ServiceCd=110&Type=search", "url2": "ambition-links.co.jp" }, "geometry": { "type": "Point", "coordinates": [ 133.556793949811237, 33.567779298424391 ] } },
{ "type": "Feature", "properties": { "内容": "ニチイケアセンター　百石【訪問介護】高知県高知市百石町２丁目３－１４", "url": "https://www.kaigokensaku.mhlw.go.jp/39/index.php?action_kouhyou_detail_004_kani=true&JigyosyoCd=3970101667-00&ServiceCd=110&Type=search", "url2": "http://www.nichiigakkan.co.jp" }, "geometry": { "type": "Point", "coordinates": [ 133.543638900000019, 33.5492606 ] } },
{ "type": "Feature", "properties": { "内容": "ニチイケアセンター愛宕【訪問介護】高知県高知市愛宕町4丁目17-7", "url": "https://www.kaigokensaku.mhlw.go.jp/39/index.php?action_kouhyou_detail_004_kani=true&JigyosyoCd=3970100362-00&ServiceCd=110&Type=search", "url2": null }, "geometry": { "type": "Point", "coordinates": [ 133.536936200000014, 33.5748628 ] } },
{ "type": "Feature", "properties": { "内容": "ヘルパーステーションあやめ【訪問介護】朝倉甲488-11藤原第一ビル３階", "url": "https://www.kaigokensaku.mhlw.go.jp/39/index.php?action_kouhyou_detail_004_kani=true&JigyosyoCd=3970105676-00&ServiceCd=110&Type=search", "url2": null }, "geometry": { "type": "Point", "coordinates": [ 133.493030800000042, 33.5410073 ] } },
{ "type": "Feature", "properties": { "内容": "ヘルパーステーションひまわり【訪問介護】高知県室戸市室津1775－8", "url": "https://www.kaigokensaku.mhlw.go.jp/39/index.php?action_kouhyou_detail_004_kani=true&JigyosyoCd=3970200246-00&ServiceCd=110&Type=search", "url2": null }, "geometry": { "type": "Point", "coordinates": [ 134.159194599999978, 33.2931646 ] } },
{ "type": "Feature", "properties": { "内容": "訪問介護事業所　一期一会【訪問介護】高知県　室戸市　佐喜浜町　1525-3", "url": "https://www.kaigokensaku.mhlw.go.jp/39/index.php?action_kouhyou_detail_004_kani=true&JigyosyoCd=3970200352-00&ServiceCd=110&Type=search", "url2": null }, "geometry": { "type": "Point", "coordinates": [ 134.208237700000041, 33.3946525 ] } },
{ "type": "Feature", "properties": { "内容": "ヘルパーステーションはな【訪問介護】高知県室戸市羽根町甲880番地1", "url": "https://www.kaigokensaku.mhlw.go.jp/39/index.php?action_kouhyou_detail_004_kani=true&JigyosyoCd=3970200386-00&ServiceCd=110&Type=search", "url2": null }, "geometry": { "type": "Point", "coordinates": [ 134.062626499999965, 33.3636492 ] } },
{ "type": "Feature", "properties": { "内容": "ヘルパーステーション和ごころ【訪問介護】元甲1076", "url": "https://www.kaigokensaku.mhlw.go.jp/39/index.php?action_kouhyou_detail_004_kani=true&JigyosyoCd=3970200444-00&ServiceCd=110&Type=search", "url2": "aaa50508080@gmail.com" }, "geometry": { "type": "Point", "coordinates": [ 134.131669, 33.3138815 ] } },
{ "type": "Feature", "properties": { "内容": "訪問介護サービス　あすなろ【訪問介護】高知県室戸市吉良川町乙２００４－１", "url": "https://www.kaigokensaku.mhlw.go.jp/39/index.php?action_kouhyou_detail_004_kani=true&JigyosyoCd=3970200097-00&ServiceCd=110&Type=search", "url2": null }, "geometry": { "type": "Point", "coordinates": [ 134.094208500000036, 33.3362241 ] } },
{ "type": "Feature", "properties": { "内容": "ホームヘルパーステーション　あんず【訪問介護】高知県室戸市佐喜浜町３５８９－１", "url": "https://www.kaigokensaku.mhlw.go.jp/39/index.php?action_kouhyou_detail_004_kani=true&JigyosyoCd=3970200147-00&ServiceCd=110&Type=search", "url2": null }, "geometry": { "type": "Point", "coordinates": [ 134.203679700000066, 33.4029181 ] } },
{ "type": "Feature", "properties": { "内容": "ヘルパーステーション　あったか【訪問介護】高知県安芸市庄之芝町3-3", "url": "https://www.kaigokensaku.mhlw.go.jp/39/index.php?action_kouhyou_detail_004_kani=true&JigyosyoCd=3970300103-00&ServiceCd=110&Type=search", "url2": null }, "geometry": { "type": "Point", "coordinates": [ 133.902202799999941, 33.501774 ] } },
{ "type": "Feature", "properties": { "内容": "ヘルパーステーション花【訪問介護】高知県安芸市土居1977番5", "url": "https://www.kaigokensaku.mhlw.go.jp/39/index.php?action_kouhyou_detail_004_kani=true&JigyosyoCd=3970300186-00&ServiceCd=110&Type=search", "url2": null }, "geometry": { "type": "Point", "coordinates": [ 133.9115672, 33.5070484 ] } },
{ "type": "Feature", "properties": { "内容": "ホームヘルパーステーション　あき【訪問介護】高知県安芸市寿町１－７", "url": "https://www.kaigokensaku.mhlw.go.jp/39/index.php?action_kouhyou_detail_004_kani=true&JigyosyoCd=3970300020-00&ServiceCd=110&Type=search", "url2": "http://www.aki-wel.or.jp" }, "geometry": { "type": "Point", "coordinates": [ 133.903986900000064, 33.4984784 ] } },
{ "type": "Feature", "properties": { "内容": "ヘルパーステーション優【訪問介護】高知県安芸市川北乙787-5", "url": "https://www.kaigokensaku.mhlw.go.jp/39/index.php?action_kouhyou_detail_004_kani=true&JigyosyoCd=3970300293-00&ServiceCd=110&Type=search", "url2": null }, "geometry": { "type": "Point", "coordinates": [ 133.915569191401687, 33.526402 ] } },
{ "type": "Feature", "properties": { "内容": "ヘルパーステーション　てくてく【訪問介護】高知県安芸市川北甲1812-15", "url": "https://www.kaigokensaku.mhlw.go.jp/39/index.php?action_kouhyou_detail_004_kani=true&JigyosyoCd=3970300137-00&ServiceCd=110&Type=search", "url2": "http://f-shizenmura.or.jp" }, "geometry": { "type": "Point", "coordinates": [ 133.915295600000036, 33.498 ] } },
{ "type": "Feature", "properties": { "内容": "ニチイケアセンター南国【訪問介護】南国市大そね甲１６４０－３８岩崎ビル１Ｆ", "url": "https://www.kaigokensaku.mhlw.go.jp/39/index.php?action_kouhyou_detail_004_kani=true&JigyosyoCd=3970400093-00&ServiceCd=110&Type=search", "url2": "http://www.nichiigakkan.co.jp" }, "geometry": { "type": "Point", "coordinates": [ 133.648881399999937, 33.5743237 ] } },
{ "type": "Feature", "properties": { "内容": "ヘルパーステーションニシダ順天堂【訪問介護】高知県南国市大そね甲1705", "url": "https://www.kaigokensaku.mhlw.go.jp/39/index.php?action_kouhyou_detail_004_kani=true&JigyosyoCd=3940440138-00&ServiceCd=110&Type=search", "url2": "http://www.nishida-ph.net/index.html" }, "geometry": { "type": "Point", "coordinates": [ 133.6475537, 33.5743459 ] } },
{ "type": "Feature", "properties": { "内容": "冨士屋ヘルパーステーションベターライフ【訪問介護】高知県南国市後免町２丁目１番１９号", "url": "https://www.kaigokensaku.mhlw.go.jp/39/index.php?action_kouhyou_detail_004_kani=true&JigyosyoCd=3970400101-00&ServiceCd=110&Type=search", "url2": null }, "geometry": { "type": "Point", "coordinates": [ 133.646992700000027, 33.5756874 ] } },
{ "type": "Feature", "properties": { "内容": "ヘルパーステーション　ひだまり【訪問介護】高知県南国市岡豊町中島1535番地", "url": "https://www.kaigokensaku.mhlw.go.jp/39/index.php?action_kouhyou_detail_004_kani=true&JigyosyoCd=3970400135-00&ServiceCd=110&Type=search", "url2": "http://f-shizenmura.or.jp" }, "geometry": { "type": "Point", "coordinates": [ 133.615562100000034, 33.5904046 ] } },
{ "type": "Feature", "properties": { "内容": "訪問介護サービスステーションすずめ【訪問介護】高知県土佐市宇佐町宇佐2487", "url": "https://www.kaigokensaku.mhlw.go.jp/39/index.php?action_kouhyou_detail_004_kani=true&JigyosyoCd=3970500702-00&ServiceCd=110&Type=search", "url2": null }, "geometry": { "type": "Point", "coordinates": [ 133.452997900000014, 33.4522296 ] } },
{ "type": "Feature", "properties": { "内容": "訪問介護ステーション　愛浜【訪問介護】土佐市宇佐２３９４－５", "url": "https://www.kaigokensaku.mhlw.go.jp/39/index.php?action_kouhyou_detail_004_kani=true&JigyosyoCd=3970500561-00&ServiceCd=110&Type=search", "url2": null }, "geometry": { "type": "Point", "coordinates": [ 133.449835300000018, 33.4536416 ] } },
{ "type": "Feature", "properties": { "内容": "ニチイケアセンター　土佐【訪問介護】高知県土佐市蓮池字渡し上り2022野田マンション１F", "url": "https://www.kaigokensaku.mhlw.go.jp/39/index.php?action_kouhyou_detail_004_kani=true&JigyosyoCd=3970500033-00&ServiceCd=110&Type=search", "url2": "http://www.nichiigakkan.co.jp" }, "geometry": { "type": "Point", "coordinates": [ 133.409355988993838, 33.493479496924685 ] } },
{ "type": "Feature", "properties": { "内容": "特定非営利活動法人　宇佐在宅介護センター【訪問介護】土佐市宇佐町宇佐３９８ー５", "url": "https://www.kaigokensaku.mhlw.go.jp/39/index.php?action_kouhyou_detail_004_kani=true&JigyosyoCd=3970500116-00&ServiceCd=110&Type=search", "url2": null }, "geometry": { "type": "Point", "coordinates": [ 133.435448100000031, 33.4432401 ] } },
{ "type": "Feature", "properties": { "内容": "ヘルパーステーション　すまいる【訪問介護】高知県土佐市高岡町乙3234-1", "url": "https://www.kaigokensaku.mhlw.go.jp/39/index.php?action_kouhyou_detail_004_kani=true&JigyosyoCd=3970500389-00&ServiceCd=110&Type=search", "url2": "https://www.nishida-ph.net" }, "geometry": { "type": "Point", "coordinates": [ 133.32515099149623, 33.472939369054615 ] } },
{ "type": "Feature", "properties": { "内容": "特定非営利活動法人しあわせ　ヘルパーステーションさくら【訪問介護】高知県土佐市高岡町乙775番地37", "url": "https://www.kaigokensaku.mhlw.go.jp/39/index.php?action_kouhyou_detail_004_kani=true&JigyosyoCd=3970500751-00&ServiceCd=110&Type=search", "url2": null }, "geometry": { "type": "Point", "coordinates": [ 133.4090936, 33.4983326 ] } },
{ "type": "Feature", "properties": { "内容": "晴レルヤ【訪問介護】高知県土佐市宇佐町宇佐字近安1913番地5", "url": "https://www.kaigokensaku.mhlw.go.jp/39/index.php?action_kouhyou_detail_004_kani=true&JigyosyoCd=3970500645-00&ServiceCd=110&Type=search", "url2": null }, "geometry": { "type": "Point", "coordinates": [ 133.443828805091471, 33.453136682578119 ] } },
{ "type": "Feature", "properties": { "内容": "須崎市社会福祉協議会指定訪問介護事業所【訪問介護】高知県須崎市南古市町６番３交流ひろばすさき３F", "url": "https://www.kaigokensaku.mhlw.go.jp/39/index.php?action_kouhyou_detail_004_kani=true&JigyosyoCd=3970600098-00&ServiceCd=110&Type=search", "url2": "http://susaki-syakyo.or.jp" }, "geometry": { "type": "Point", "coordinates": [ 133.287826544028093, 33.388877317377244 ] } },
{ "type": "Feature", "properties": { "内容": "ヘルパーステーションすまいる須崎【訪問介護】高知県須崎市緑町1-16　嶋ハイツ1F", "url": "https://www.kaigokensaku.mhlw.go.jp/39/index.php?action_kouhyou_detail_004_kani=true&JigyosyoCd=3970600452-00&ServiceCd=110&Type=search", "url2": null }, "geometry": { "type": "Point", "coordinates": [ 133.289143299999978, 33.4113537 ] } },
{ "type": "Feature", "properties": { "内容": "ちいきの訪問介護【訪問介護】高知県宿毛市中央6丁目2番1号", "url": "https://www.kaigokensaku.mhlw.go.jp/39/index.php?action_kouhyou_detail_004_kani=true&JigyosyoCd=3970900365-00&ServiceCd=110&Type=search", "url2": null }, "geometry": { "type": "Point", "coordinates": [ 132.72678, 32.9374531 ] } },
{ "type": "Feature", "properties": { "内容": "豊寿園ホームヘルパーステーション【訪問介護】高知県宿毛市平田町戸内１８２４番地", "url": "https://www.kaigokensaku.mhlw.go.jp/39/index.php?action_kouhyou_detail_004_kani=true&JigyosyoCd=3960990012-00&ServiceCd=110&Type=search", "url2": "http://www.gallery.ne.jp/~hojuen" }, "geometry": { "type": "Point", "coordinates": [ 132.799173099999962, 32.9599389 ] } },
{ "type": "Feature", "properties": { "内容": "ヘルパーステーションアライブ【訪問介護】高知県宿毛市高砂7-11", "url": "https://www.kaigokensaku.mhlw.go.jp/39/index.php?action_kouhyou_detail_004_kani=true&JigyosyoCd=3970900258-00&ServiceCd=110&Type=search", "url2": null }, "geometry": { "type": "Point", "coordinates": [ 132.704343522090113, 32.926380748174189 ] } },
{ "type": "Feature", "properties": { "内容": "訪問介護事業所　サザンクロスすくも【訪問介護】高知県宿毛市平田町戸内2097ビィブレ栗本307号", "url": "https://www.kaigokensaku.mhlw.go.jp/39/index.php?action_kouhyou_detail_004_kani=true&JigyosyoCd=3970900381-00&ServiceCd=110&Type=search", "url2": null }, "geometry": { "type": "Point", "coordinates": [ 132.8083963, 32.966234 ] } },
{ "type": "Feature", "properties": { "内容": "ニチイケアセンター　すくも【訪問介護】高知県宿毛市高砂27-34湘南ビル１階北", "url": "https://www.kaigokensaku.mhlw.go.jp/39/index.php?action_kouhyou_detail_004_kani=true&JigyosyoCd=3970900373-00&ServiceCd=110&Type=search", "url2": null }, "geometry": { "type": "Point", "coordinates": [ 132.70416419999998, 32.928428 ] } },
{ "type": "Feature", "properties": { "内容": "訪問介護事業所　アップル【訪問介護】高知県宿毛市中央2丁目３－１　２Ｆ", "url": "https://www.kaigokensaku.mhlw.go.jp/39/index.php?action_kouhyou_detail_004_kani=true&JigyosyoCd=3970900266-00&ServiceCd=110&Type=search", "url2": null }, "geometry": { "type": "Point", "coordinates": [ 132.729189244010968, 32.939201374672379 ] } },
{ "type": "Feature", "properties": { "内容": "宿毛中央ホームヘルパーステーション【訪問介護】宿毛市中央７丁目５番４４号", "url": "https://www.kaigokensaku.mhlw.go.jp/39/index.php?action_kouhyou_detail_004_kani=true&JigyosyoCd=3970900027-00&ServiceCd=110&Type=search", "url2": "修正中" }, "geometry": { "type": "Point", "coordinates": [ 132.724913499999957, 32.9358977 ] } },
{ "type": "Feature", "properties": { "内容": "ヒロ・ケアサポート【訪問介護】宿毛市片島5-20", "url": "https://www.kaigokensaku.mhlw.go.jp/39/index.php?action_kouhyou_detail_004_kani=true&JigyosyoCd=3970900183-00&ServiceCd=110&Type=search", "url2": null }, "geometry": { "type": "Point", "coordinates": [ 132.7010259, 32.9201731 ] } },
{ "type": "Feature", "properties": { "内容": "亀の子　ヘルパーステーション【訪問介護】土佐清水市グリーンハイツ8番2号", "url": "https://www.kaigokensaku.mhlw.go.jp/39/index.php?action_kouhyou_detail_004_kani=true&JigyosyoCd=3970800110-00&ServiceCd=110&Type=search", "url2": null }, "geometry": { "type": "Point", "coordinates": [ 132.877681299999949, 32.7897623 ] } },
{ "type": "Feature", "properties": { "内容": "合資会社　サザンクロスしみず【訪問介護】高知県土佐清水市寿町6-1", "url": "https://www.kaigokensaku.mhlw.go.jp/39/index.php?action_kouhyou_detail_004_kani=true&JigyosyoCd=3970800078-00&ServiceCd=110&Type=search", "url2": null }, "geometry": { "type": "Point", "coordinates": [ 132.952267099999972, 32.779575399999985 ] } },
{ "type": "Feature", "properties": { "内容": "ホームヘルプサービスセンター「げんき」【訪問介護】高知県土佐清水市旭町１８番７１号", "url": "https://www.kaigokensaku.mhlw.go.jp/39/index.php?action_kouhyou_detail_004_kani=true&JigyosyoCd=3970800128-00&ServiceCd=110&Type=search", "url2": null }, "geometry": { "type": "Point", "coordinates": [ 132.961579900000061, 32.7792481 ] } },
{ "type": "Feature", "properties": { "内容": "医療法人聖真会　ホームヘルプサービスセンター「あったか渭南」【訪問介護】高知県土佐清水市越前町６番１０号", "url": "https://www.kaigokensaku.mhlw.go.jp/39/index.php?action_kouhyou_detail_004_kani=true&JigyosyoCd=3970800102-00&ServiceCd=110&Type=search", "url2": "http://www.inan-hp.jp/class_09.html" }, "geometry": { "type": "Point", "coordinates": [ 132.950834001188696, 32.781285750129051 ] } },
{ "type": "Feature", "properties": { "内容": "ホームヘルプステーション　にしとさ【訪問介護】高知県四万十市西土佐用井1110-31", "url": "https://www.kaigokensaku.mhlw.go.jp/39/index.php?action_kouhyou_detail_004_kani=true&JigyosyoCd=3971000272-00&ServiceCd=110&Type=search", "url2": "https://nishitosa-kawasemi.jp/" }, "geometry": { "type": "Point", "coordinates": [ 132.7956729, 33.1727856 ] } },
{ "type": "Feature", "properties": { "内容": "ヘルパーステーション介援隊【訪問介護】高知県四万十市具同字六反田3239番地29", "url": "https://www.kaigokensaku.mhlw.go.jp/39/index.php?action_kouhyou_detail_004_kani=true&JigyosyoCd=3971000280-00&ServiceCd=110&Type=search", "url2": null }, "geometry": { "type": "Point", "coordinates": [ 132.91304162441304, 32.979207896694554 ] } },
{ "type": "Feature", "properties": { "内容": "ヘルパ-ステ-ションゆらり【訪問介護】高知県四万十市駅前町13-3大正ビル1F", "url": "https://www.kaigokensaku.mhlw.go.jp/39/index.php?action_kouhyou_detail_004_kani=true&JigyosyoCd=3971000439-00&ServiceCd=110&Type=search", "url2": null }, "geometry": { "type": "Point", "coordinates": [ 132.942311, 32.9831092 ] } },
{ "type": "Feature", "properties": { "内容": "訪問介護事業所　四万十の郷【訪問介護】四万十市安並字東丸5803", "url": "https://www.kaigokensaku.mhlw.go.jp/39/index.php?action_kouhyou_detail_004_kani=true&JigyosyoCd=3970700039-00&ServiceCd=110&Type=search", "url2": "nankai-f.jp" }, "geometry": { "type": "Point", "coordinates": [ 132.9354045, 33.002197 ] } },
{ "type": "Feature", "properties": { "内容": "ニチイケアセンター四万十【訪問介護】高知県四万十市古津賀３４４８－１", "url": "https://www.kaigokensaku.mhlw.go.jp/39/index.php?action_kouhyou_detail_004_kani=true&JigyosyoCd=3971000173-00&ServiceCd=110&Type=search", "url2": null }, "geometry": { "type": "Point", "coordinates": [ 132.948945500000036, 32.9849323 ] } },
{ "type": "Feature", "properties": { "内容": "ホームヘルパーステーション福寿草【訪問介護】高知県四万十市磯ノ川20-5ホームヘルパーステーション福寿草", "url": "https://www.kaigokensaku.mhlw.go.jp/39/index.php?action_kouhyou_detail_004_kani=true&JigyosyoCd=3971000041-00&ServiceCd=110&Type=search", "url2": "www.aratanchi.com" }, "geometry": { "type": "Point", "coordinates": [ 132.843578799999932, 32.964182 ] } },
{ "type": "Feature", "properties": { "内容": "訪問介護ステーションあらたケアサービス【訪問介護】高知県四万十市中村大橋通り６丁目３－７とらやビル３Ｆ４号", "url": "https://www.kaigokensaku.mhlw.go.jp/39/index.php?action_kouhyou_detail_004_kani=true&JigyosyoCd=3971000033-00&ServiceCd=110&Type=search", "url2": "http://www.aratacare.com" }, "geometry": { "type": "Point", "coordinates": [ 132.936964094439617, 32.989974934761875 ] } },
{ "type": "Feature", "properties": { "内容": "ヘルパーステーションmomo【訪問介護】高知県香南市野市町東野1939番地2階", "url": "https://www.kaigokensaku.mhlw.go.jp/39/index.php?action_kouhyou_detail_004_kani=true&JigyosyoCd=3971100379-00&ServiceCd=110&Type=search", "url2": null }, "geometry": { "type": "Point", "coordinates": [ 133.715705500000013, 33.5512695 ] } },
{ "type": "Feature", "properties": { "内容": "訪問介護事業所　ふれあいの里【訪問介護】高知県香南市香我美町下分646", "url": "https://www.kaigokensaku.mhlw.go.jp/39/index.php?action_kouhyou_detail_004_kani=true&JigyosyoCd=3971100023-00&ServiceCd=110&Type=search", "url2": "http://konanshi-shakyo.or.jp/publics/index/11/" }, "geometry": { "type": "Point", "coordinates": [ 133.747417730084635, 33.583301065651682 ] } },
{ "type": "Feature", "properties": { "内容": "有限会社　西田順天堂薬局　ヘルパーステーション白岩【訪問介護】高知県香南市野市町東佐古727-2", "url": "https://www.kaigokensaku.mhlw.go.jp/39/index.php?action_kouhyou_detail_004_kani=true&JigyosyoCd=3971100163-00&ServiceCd=110&Type=search", "url2": "http://www.nishida-kaigo.com/shiroiwa.html" }, "geometry": { "type": "Point", "coordinates": [ 133.711026, 33.5846844 ] } },
{ "type": "Feature", "properties": { "内容": "ホームヘルパーステーションはまゆう【訪問介護】高知県香南市赤岡町５６９番地３", "url": "https://www.kaigokensaku.mhlw.go.jp/39/index.php?action_kouhyou_detail_004_kani=true&JigyosyoCd=3971100189-00&ServiceCd=110&Type=search", "url2": "https://www.kounankai.jp/info/page.php?ID=529" }, "geometry": { "type": "Point", "coordinates": [ 133.730219499999947, 33.545809 ] } },
{ "type": "Feature", "properties": { "内容": "ヘルパーステーション向日葵【訪問介護】高知県香南市野市町西野2123番地25天山台マンション202号室", "url": "https://www.kaigokensaku.mhlw.go.jp/39/index.php?action_kouhyou_detail_004_kani=true&JigyosyoCd=3971100288-00&ServiceCd=110&Type=search", "url2": null }, "geometry": { "type": "Point", "coordinates": [ 133.699913400000014, 33.5610986 ] } },
{ "type": "Feature", "properties": { "内容": "ニチイケアセンター香南東【訪問介護】赤岡町985-1シーサイドコーポ松本１０３号", "url": "https://www.kaigokensaku.mhlw.go.jp/39/index.php?action_kouhyou_detail_004_kani=true&JigyosyoCd=3971100320-00&ServiceCd=110&Type=search", "url2": null }, "geometry": { "type": "Point", "coordinates": [ 133.7269988, 33.5400614 ] } },
{ "type": "Feature", "properties": { "内容": "ヘルパーステーションかがみ【訪問介護】高知県香南市香我美町岸本205-1", "url": "https://www.kaigokensaku.mhlw.go.jp/39/index.php?action_kouhyou_detail_004_kani=true&JigyosyoCd=3971100098-00&ServiceCd=110&Type=search", "url2": "https://www.chisio-group.or.jp/" }, "geometry": { "type": "Point", "coordinates": [ 133.7321028, 33.5393126 ] } },
{ "type": "Feature", "properties": { "内容": "ヘルパーステーション　あい【訪問介護】香南市赤岡町５６９　NCハウス　207", "url": "https://www.kaigokensaku.mhlw.go.jp/39/index.php?action_kouhyou_detail_004_kani=true&JigyosyoCd=3971100072-00&ServiceCd=110&Type=search", "url2": null }, "geometry": { "type": "Point", "coordinates": [ 133.7234535, 33.541851 ] } },
{ "type": "Feature", "properties": { "内容": "ホームヘルパーステーションあん【訪問介護】高知県香美市土佐山田町宝町４丁目４番３２号ＹＳマンション１０５号室", "url": "https://www.kaigokensaku.mhlw.go.jp/39/index.php?action_kouhyou_detail_004_kani=true&JigyosyoCd=3971200245-00&ServiceCd=110&Type=search", "url2": null }, "geometry": { "type": "Point", "coordinates": [ 133.682161899999983, 33.6012327 ] } },
{ "type": "Feature", "properties": { "内容": "香美市社協　ヘルパーステーション八王子【訪問介護】高知県香美市土佐山田町２６２番地１プラザ八王子", "url": "https://www.kaigokensaku.mhlw.go.jp/39/index.php?action_kouhyou_detail_004_kani=true&JigyosyoCd=3971200021-00&ServiceCd=110&Type=search", "url2": "http://kami-shakyo.or.jp" }, "geometry": { "type": "Point", "coordinates": [ 133.687628099999984, 33.6106788 ] } },
{ "type": "Feature", "properties": { "内容": "ヘルパーステーションやまだ　訪問介護事業所【訪問介護】高知県香美市土佐山田町秦山町3丁目4番20号", "url": "https://www.kaigokensaku.mhlw.go.jp/39/index.php?action_kouhyou_detail_004_kani=true&JigyosyoCd=3971200286-00&ServiceCd=110&Type=search", "url2": "http://www.welplaza.or.jp" }, "geometry": { "type": "Point", "coordinates": [ 133.6765792, 33.6079903 ] } },
{ "type": "Feature", "properties": { "内容": "ヘルパーステーションあさひ【訪問介護】高知県香美市土佐山田町旭町４丁目２番６号", "url": "https://www.kaigokensaku.mhlw.go.jp/39/index.php?action_kouhyou_detail_004_kani=true&JigyosyoCd=3971200310-00&ServiceCd=110&Type=search", "url2": "http://www.nishida-ph.net/" }, "geometry": { "type": "Point", "coordinates": [ 133.690343399999989, 33.6059503 ] } },
{ "type": "Feature", "properties": { "内容": "冨士屋ベターライフ香北【訪問介護】高知県香美市香北町美良布2673番地2号", "url": "https://www.kaigokensaku.mhlw.go.jp/39/index.php?action_kouhyou_detail_004_kani=true&JigyosyoCd=3971200070-00&ServiceCd=110&Type=search", "url2": null }, "geometry": { "type": "Point", "coordinates": [ 133.783613422615048, 33.651110425219585 ] } },
{ "type": "Feature", "properties": { "内容": "ヘルパーステーション菜々月【訪問介護】高知県香美市土佐山田町451-5サンコートかみ601号室", "url": "https://www.kaigokensaku.mhlw.go.jp/39/index.php?action_kouhyou_detail_004_kani=true&JigyosyoCd=3971200252-00&ServiceCd=110&Type=search", "url2": "http://nanatsuki.jp/" }, "geometry": { "type": "Point", "coordinates": [ 133.678386200000034, 33.60764540000001 ] } },
{ "type": "Feature", "properties": { "内容": "東洋町訪問介護事業所【訪問介護】高知県安芸郡東洋町大字生見７５６－８", "url": "https://www.kaigokensaku.mhlw.go.jp/39/index.php?action_kouhyou_detail_004_kani=true&JigyosyoCd=3972000370-00&ServiceCd=110&Type=search", "url2": null }, "geometry": { "type": "Point", "coordinates": [ 134.279237599999988, 33.5279732 ] } },
{ "type": "Feature", "properties": { "内容": "ヘルパーステーション　てのひら【訪問介護】高知県安芸郡奈半利町乙４４０番地１", "url": "https://www.kaigokensaku.mhlw.go.jp/39/index.php?action_kouhyou_detail_004_kani=true&JigyosyoCd=3972000057-00&ServiceCd=110&Type=search", "url2": null }, "geometry": { "type": "Point", "coordinates": [ 134.0281569, 33.420404 ] } },
{ "type": "Feature", "properties": { "内容": "ヘルパーステーション　さくら【訪問介護】高知県安芸郡奈半利町乙３７０４－１", "url": "https://www.kaigokensaku.mhlw.go.jp/39/index.php?action_kouhyou_detail_004_kani=true&JigyosyoCd=3972000214-00&ServiceCd=110&Type=search", "url2": "http://www.ccc-21.co.jp/sakura/" }, "geometry": { "type": "Point", "coordinates": [ 134.021218800000042, 33.4254451 ] } },
{ "type": "Feature", "properties": { "内容": "ヘルパーステーションここ【訪問介護】高知県安芸郡芸西村和食甲1518-1", "url": "https://www.kaigokensaku.mhlw.go.jp/39/index.php?action_kouhyou_detail_004_kani=true&JigyosyoCd=3972000487-00&ServiceCd=110&Type=search", "url2": null }, "geometry": { "type": "Point", "coordinates": [ 133.813271, 33.5172914 ] } },
{ "type": "Feature", "properties": { "内容": "ヘルパーステーションみるく【訪問介護】高知県長岡郡本山町本山547番1号", "url": "https://www.kaigokensaku.mhlw.go.jp/39/index.php?action_kouhyou_detail_004_kani=true&JigyosyoCd=3972200186-00&ServiceCd=110&Type=search", "url2": "https://yurikago2023.co.jp/" }, "geometry": { "type": "Point", "coordinates": [ 133.5912406, 33.7586687 ] } },
{ "type": "Feature", "properties": { "内容": "社会福祉法人　大豊町社会福祉協議会ホームヘルプサービス【訪問介護】長岡郡大豊町黒石３４５番地７", "url": "https://www.kaigokensaku.mhlw.go.jp/39/index.php?action_kouhyou_detail_004_kani=true&JigyosyoCd=3972200087-00&ServiceCd=110&Type=search", "url2": null }, "geometry": { "type": "Point", "coordinates": [ 133.7263355, 33.7861391 ] } },
{ "type": "Feature", "properties": { "内容": "土佐町指定訪問介護事業所【訪問介護】土佐郡土佐町土居206", "url": "https://www.kaigokensaku.mhlw.go.jp/39/index.php?action_kouhyou_detail_004_kani=true&JigyosyoCd=3972300051-00&ServiceCd=110&Type=search", "url2": null }, "geometry": { "type": "Point", "coordinates": [ 133.531627500000013, 33.7366552 ] } },
{ "type": "Feature", "properties": { "内容": "ヘルパーステーション　いの【訪問介護】高知県吾川郡いの町新町1MMPビル３階北", "url": "https://www.kaigokensaku.mhlw.go.jp/39/index.php?action_kouhyou_detail_004_kani=true&JigyosyoCd=3972400851-00&ServiceCd=110&Type=search", "url2": "http://www.inofukushikai.com/" }, "geometry": { "type": "Point", "coordinates": [ 133.429541338426787, 33.547808130992863 ] } },
{ "type": "Feature", "properties": { "内容": "ニチイケアセンターいの【訪問介護】高知県吾川郡いの町1700", "url": "https://www.kaigokensaku.mhlw.go.jp/39/index.php?action_kouhyou_detail_004_kani=true&JigyosyoCd=3972400356-00&ServiceCd=110&Type=search", "url2": "http://www.nichiigakkan.co.jp" }, "geometry": { "type": "Point", "coordinates": [ 133.427199396225774, 33.548434574975019 ] } },
{ "type": "Feature", "properties": { "内容": "ヘルパーステーション優花【訪問介護】高知県吾川郡いの町駅南町62-2", "url": "https://www.kaigokensaku.mhlw.go.jp/39/index.php?action_kouhyou_detail_004_kani=true&JigyosyoCd=3972400877-00&ServiceCd=110&Type=search", "url2": "https://www.daiichishikoku.com" }, "geometry": { "type": "Point", "coordinates": [ 133.4307698, 33.5465131 ] } },
{ "type": "Feature", "properties": { "内容": "ヘルパーステーションいと【訪問介護】高知県吾川郡いの町波川６６４番地１", "url": "https://www.kaigokensaku.mhlw.go.jp/39/index.php?action_kouhyou_detail_004_kani=true&JigyosyoCd=3972400935-00&ServiceCd=110&Type=search", "url2": null }, "geometry": { "type": "Point", "coordinates": [ 133.4127679, 33.546938800000014 ] } },
{ "type": "Feature", "properties": { "内容": "訪問介護ステーション『スマート』【訪問介護】高知県吾川郡いの町加田432", "url": "https://www.kaigokensaku.mhlw.go.jp/39/index.php?action_kouhyou_detail_004_kani=true&JigyosyoCd=3972400943-00&ServiceCd=110&Type=search", "url2": "https://visiting-nursing-care.smart-alliance2020.com/" }, "geometry": { "type": "Point", "coordinates": [ 133.396774347221339, 33.549567219756902 ] } },
{ "type": "Feature", "properties": { "内容": "サポートセンター　ほのか【訪問介護】高知県吾川郡仁淀川町大崎264-8", "url": "https://www.kaigokensaku.mhlw.go.jp/39/index.php?action_kouhyou_detail_004_kani=true&JigyosyoCd=3972400653-00&ServiceCd=110&Type=search", "url2": null }, "geometry": { "type": "Point", "coordinates": [ 133.172667581367477, 33.575326024401839 ] } },
{ "type": "Feature", "properties": { "内容": "ぬくもり介護センター　おおの【訪問介護】高知県吾川郡仁淀川町森3675番地", "url": "https://www.kaigokensaku.mhlw.go.jp/39/index.php?action_kouhyou_detail_004_kani=true&JigyosyoCd=3972400513-00&ServiceCd=110&Type=search", "url2": null }, "geometry": { "type": "Point", "coordinates": [ 133.13257109999995, 33.5305449 ] } },
{ "type": "Feature", "properties": { "内容": "中土佐町訪問介護事業所【訪問介護】高知県高岡郡中土佐町上ノ加江5163番地4", "url": "https://www.kaigokensaku.mhlw.go.jp/39/index.php?action_kouhyou_detail_004_kani=true&JigyosyoCd=3972500668-00&ServiceCd=110&Type=search", "url2": "http://www.nakatosa-shakyo.or.jp" }, "geometry": { "type": "Point", "coordinates": [ 133.24093337922568, 33.304223442965686 ] } },
{ "type": "Feature", "properties": { "内容": "株式会社ケアセンターさかわ【訪問介護】乙2158番地36おの家具倉庫跡地", "url": "https://www.kaigokensaku.mhlw.go.jp/39/index.php?action_kouhyou_detail_004_kani=true&JigyosyoCd=3972501401-00&ServiceCd=110&Type=search", "url2": "https://www.big-advance.site/s/168/1335" }, "geometry": { "type": "Point", "coordinates": [ 133.283838699999933, 33.506944 ] } },
{ "type": "Feature", "properties": { "内容": "社会福祉法人　越知町社会福祉協議会【訪問介護】高知県高岡郡越知町越知甲2457", "url": "https://www.kaigokensaku.mhlw.go.jp/39/index.php?action_kouhyou_detail_004_kani=true&JigyosyoCd=3972500171-00&ServiceCd=110&Type=search", "url2": null }, "geometry": { "type": "Point", "coordinates": [ 133.246885799999973, 33.5325751 ] } },
{ "type": "Feature", "properties": { "内容": "介護サービスなごみ　高知事業所【訪問介護】高知県高岡郡越知町越知甲１５８０－１", "url": "https://www.kaigokensaku.mhlw.go.jp/39/index.php?action_kouhyou_detail_004_kani=true&JigyosyoCd=3972501054-00&ServiceCd=110&Type=search", "url2": null }, "geometry": { "type": "Point", "coordinates": [ 133.254121199999986, 33.5292618 ] } },
{ "type": "Feature", "properties": { "内容": "介護サービスなごみ　梼原事業所【訪問介護】高岡郡梼原町広野３７９四国部品　株式会社　梼原製造所　内", "url": "https://www.kaigokensaku.mhlw.go.jp/39/index.php?action_kouhyou_detail_004_kani=true&JigyosyoCd=3972501047-00&ServiceCd=110&Type=search", "url2": null }, "geometry": { "type": "Point", "coordinates": [ 132.895935099999946, 33.3988993 ] } },
{ "type": "Feature", "properties": { "内容": "ヘルパーステーション能津【訪問介護】高知県高岡郡日高村本村字流神2-2", "url": "https://www.kaigokensaku.mhlw.go.jp/39/index.php?action_kouhyou_detail_004_kani=true&JigyosyoCd=3972500882-00&ServiceCd=110&Type=search", "url2": null }, "geometry": { "type": "Point", "coordinates": [ 133.335694080118287, 33.558898085539845 ] } },
{ "type": "Feature", "properties": { "内容": "ヘルパーステーション　ひだか【訪問介護】高知県高岡郡日高村沖名１番地", "url": "https://www.kaigokensaku.mhlw.go.jp/39/index.php?action_kouhyou_detail_004_kani=true&JigyosyoCd=3972500189-00&ServiceCd=110&Type=search", "url2": "http://syuoukai.jp>syuoukai" }, "geometry": { "type": "Point", "coordinates": [ 133.373672299999953, 33.5316137 ] } },
{ "type": "Feature", "properties": { "内容": "社会福祉法人しまんと町社会福祉協議会　指定訪問介護事業所　西部【訪問介護】高知県高岡郡四万十町大正３２番地１", "url": "https://www.kaigokensaku.mhlw.go.jp/39/index.php?action_kouhyou_detail_004_kani=true&JigyosyoCd=3972500775-00&ServiceCd=110&Type=search", "url2": "http://shimanto-shakyo.jp/" }, "geometry": { "type": "Point", "coordinates": [ 132.972393499999953, 33.1836554 ] } },
{ "type": "Feature", "properties": { "内容": "ヘルパーステーション　にいだ【訪問介護】高知県高岡郡四万十町仁井田147－3", "url": "https://www.kaigokensaku.mhlw.go.jp/39/index.php?action_kouhyou_detail_004_kani=true&JigyosyoCd=3972501237-00&ServiceCd=110&Type=search", "url2": null }, "geometry": { "type": "Point", "coordinates": [ 133.164197233026897, 33.242694099618923 ] } },
{ "type": "Feature", "properties": { "内容": "ヘルパーステーション「四万十」【訪問介護】高知県高岡郡四万十町仁井田1312番地", "url": "https://www.kaigokensaku.mhlw.go.jp/39/index.php?action_kouhyou_detail_004_kani=true&JigyosyoCd=3972500478-00&ServiceCd=110&Type=search", "url2": "http://www.shimantopia.or.jp/publics/index/11/" }, "geometry": { "type": "Point", "coordinates": [ 133.159782287462747, 33.246764241048254 ] } },
{ "type": "Feature", "properties": { "内容": "訪問介護事業所　きづな【訪問介護】高知県高岡郡四万十町七里甲1311番地", "url": "https://www.kaigokensaku.mhlw.go.jp/39/index.php?action_kouhyou_detail_004_kani=true&JigyosyoCd=3972501385-00&ServiceCd=110&Type=search", "url2": null }, "geometry": { "type": "Point", "coordinates": [ 133.132283963947174, 33.264984798911527 ] } },
{ "type": "Feature", "properties": { "内容": "しまんと町社協訪問介護事業所窪川【訪問介護】高知県高岡郡四万十町茂串町１１番３０号", "url": "https://www.kaigokensaku.mhlw.go.jp/39/index.php?action_kouhyou_detail_004_kani=true&JigyosyoCd=3972500700-00&ServiceCd=110&Type=search", "url2": "http://shimanto-shakyo.jp/" }, "geometry": { "type": "Point", "coordinates": [ 133.1327842, 33.209417 ] } },
{ "type": "Feature", "properties": { "内容": "大月町指定訪問介護事業所【訪問介護】高知県幡多郡大月町鉾土６０３", "url": "https://www.kaigokensaku.mhlw.go.jp/39/index.php?action_kouhyou_detail_004_kani=true&JigyosyoCd=3972600153-00&ServiceCd=110&Type=search", "url2": "http://otsukicho-shakyo.jp/" }, "geometry": { "type": "Point", "coordinates": [ 132.709374, 32.8205119 ] } },
{ "type": "Feature", "properties": { "内容": "黒潮町社会福祉協議会訪問介護事業所【訪問介護】高知県幡多郡黒潮町佐賀920番地", "url": "https://www.kaigokensaku.mhlw.go.jp/39/index.php?action_kouhyou_detail_004_kani=true&JigyosyoCd=3972600302-00&ServiceCd=110&Type=search", "url2": "http/:kurosiochosyakyo.or.jp/" }, "geometry": { "type": "Point", "coordinates": [ 133.104993197900399, 33.081681381643769 ] } }
]
}
