{
"type": "FeatureCollection",
"name": "geo_39_訪問リハビリテーション",
"crs": { "type": "name", "properties": { "name": "urn:ogc:def:crs:OGC:1.3:CRS84" } },
"features": [
{ "type": "Feature", "properties": { "内容": "医療法人防治会　いずみの病院　訪問リハビリテーション【訪問リハビリテーション】高知県高知市薊野北町2丁目10番53号", "url": "https://www.kaigokensaku.mhlw.go.jp/39/index.php?action_kouhyou_detail_004_kani=true&JigyosyoCd=3910117302-00&ServiceCd=140&Type=search", "url2": null }, "geometry": { "type": "Point", "coordinates": [ 133.555358126983634, 33.580641337133258 ] } },
{ "type": "Feature", "properties": { "内容": "永井病院【訪問リハビリテーション】高知県高知市春野町西分2027-3", "url": "https://www.kaigokensaku.mhlw.go.jp/39/index.php?action_kouhyou_detail_004_kani=true&JigyosyoCd=3910118540-00&ServiceCd=140&Type=search", "url2": "http://www.nagai-hp.com" }, "geometry": { "type": "Point", "coordinates": [ 133.496033600000032, 33.4991819 ] } },
{ "type": "Feature", "properties": { "内容": "医療法人　瑞洋会　訪問リハビリテーション　たなか【訪問リハビリテーション】高知県高知市上町3丁目2-6", "url": "https://www.kaigokensaku.mhlw.go.jp/39/index.php?action_kouhyou_detail_004_kani=true&JigyosyoCd=3910114366-00&ServiceCd=140&Type=search", "url2": "http://www.tanakaseikei.jp/" }, "geometry": { "type": "Point", "coordinates": [ 133.5225322, 33.5581755 ] } },
{ "type": "Feature", "properties": { "内容": "竹下病院訪問リハビリテーション【訪問リハビリテーション】高知県高知市与力町3番8号", "url": "https://www.kaigokensaku.mhlw.go.jp/39/index.php?action_kouhyou_detail_004_kani=true&JigyosyoCd=3910119472-00&ServiceCd=140&Type=search", "url2": "http://www.takeshita-hp-jp" }, "geometry": { "type": "Point", "coordinates": [ 133.538175300000034, 33.557415 ] } },
{ "type": "Feature", "properties": { "内容": "愛宕病院訪問リハビリテーション【訪問リハビリテーション】高知県高知市愛宕町1丁目1番13号", "url": "https://www.kaigokensaku.mhlw.go.jp/39/index.php?action_kouhyou_detail_004_kani=true&JigyosyoCd=3910112840-00&ServiceCd=140&Type=search", "url2": "http://atago-hp.or.jp/" }, "geometry": { "type": "Point", "coordinates": [ 133.53731, 33.5653651 ] } },
{ "type": "Feature", "properties": { "内容": "細木病院【訪問リハビリテーション】高知県高知市大膳町37", "url": "https://www.kaigokensaku.mhlw.go.jp/39/index.php?action_kouhyou_detail_004_kani=true&JigyosyoCd=3910113764-00&ServiceCd=140&Type=search", "url2": "http://hosogi-hospital.jp/atc000011.htm" }, "geometry": { "type": "Point", "coordinates": [ 133.522331700000024, 33.5599383 ] } },
{ "type": "Feature", "properties": { "内容": "社会医療法人近森会訪問リハビリテーションちかもり【訪問リハビリテーション】高知県高知市廿代町2－22社会医療法人近森会近森リハビリテーション病院2階", "url": "https://www.kaigokensaku.mhlw.go.jp/39/index.php?action_kouhyou_detail_004_kani=true&JigyosyoCd=3910119340-00&ServiceCd=140&Type=search", "url2": "http://www.chikamori.com" }, "geometry": { "type": "Point", "coordinates": [ 133.542088599999943, 33.5634644 ] } },
{ "type": "Feature", "properties": { "内容": "内田脳神経外科【訪問リハビリテーション】高知県高知市塚ノ原37", "url": "https://www.kaigokensaku.mhlw.go.jp/39/index.php?action_kouhyou_detail_004_kani=true&JigyosyoCd=3910115561-00&ServiceCd=140&Type=search", "url2": "http://uchida.jyosenkai.jp/" }, "geometry": { "type": "Point", "coordinates": [ 133.494843254631036, 33.560863035486214 ] } },
{ "type": "Feature", "properties": { "内容": "訪問リハビリテーション三愛【訪問リハビリテーション】高知市一宮西町1-7-25", "url": "https://www.kaigokensaku.mhlw.go.jp/39/index.php?action_kouhyou_detail_004_kani=true&JigyosyoCd=3910113830-00&ServiceCd=140&Type=search", "url2": "http://www.sanai-hospital.jp/top/facility/sanai2.html" }, "geometry": { "type": "Point", "coordinates": [ 133.567616356414021, 33.583324490720621 ] } },
{ "type": "Feature", "properties": { "内容": "指定訪問リハビリテーション事業所　マリン【訪問リハビリテーション】高知市仁井田1618-18", "url": "https://www.kaigokensaku.mhlw.go.jp/39/index.php?action_kouhyou_detail_004_kani=true&JigyosyoCd=3910112667-00&ServiceCd=140&Type=search", "url2": "http://www.marine-hosp.jp/" }, "geometry": { "type": "Point", "coordinates": [ 133.57212343368667, 33.513200333764495 ] } },
{ "type": "Feature", "properties": { "内容": "リハビリテーション病院　すこやかな杜　訪問リハビリテーション事業所【訪問リハビリテーション】高知県高知市春野町芳原1316-1すこやかな杜", "url": "https://www.kaigokensaku.mhlw.go.jp/39/index.php?action_kouhyou_detail_004_kani=true&JigyosyoCd=3910118599-00&ServiceCd=140&Type=search", "url2": "http://www1.ocn.ne.jp/~sukoyaka/" }, "geometry": { "type": "Point", "coordinates": [ 133.513556599999987, 33.50747 ] } },
{ "type": "Feature", "properties": { "内容": "訪問リハビリテーションセンターあったかケみずき【訪問リハビリテーション】高知県高知市一宮中町２丁目９番４号", "url": "https://www.kaigokensaku.mhlw.go.jp/39/index.php?action_kouhyou_detail_004_kani=true&JigyosyoCd=3950180061-00&ServiceCd=140&Type=search", "url2": "https://www.attakacaremizuki.jp/" }, "geometry": { "type": "Point", "coordinates": [ 133.572774, 33.582091 ] } },
{ "type": "Feature", "properties": { "内容": "かもだの訪問リハビリ【訪問リハビリテーション】高知県高知市鴨部2丁目1番16号かもだの診療所2階", "url": "https://www.kaigokensaku.mhlw.go.jp/39/index.php?action_kouhyou_detail_004_kani=true&JigyosyoCd=3910118987-00&ServiceCd=140&Type=search", "url2": "https://kamodano-cl.jp" }, "geometry": { "type": "Point", "coordinates": [ 133.5056705, 33.5497018 ] } },
{ "type": "Feature", "properties": { "内容": "クリニックひろと【訪問リハビリテーション】高知県高知市長浜4823", "url": "https://www.kaigokensaku.mhlw.go.jp/39/index.php?action_kouhyou_detail_004_kani=true&JigyosyoCd=3910117658-00&ServiceCd=140&Type=search", "url2": "https://www.c-hiroto.jp/" }, "geometry": { "type": "Point", "coordinates": [ 133.548167, 33.5003071 ] } },
{ "type": "Feature", "properties": { "内容": "室戸市立室戸診療所【訪問リハビリテーション】高知県室戸市領家85番地", "url": "https://www.kaigokensaku.mhlw.go.jp/39/index.php?action_kouhyou_detail_004_kani=true&JigyosyoCd=3910210511-00&ServiceCd=140&Type=search", "url2": null }, "geometry": { "type": "Point", "coordinates": [ 134.15813270000001, 33.2916661 ] } },
{ "type": "Feature", "properties": { "内容": "森澤病院　訪問リハビリテーション事業所【訪問リハビリテーション】高知県安芸市本町2丁目13-32", "url": "https://www.kaigokensaku.mhlw.go.jp/39/index.php?action_kouhyou_detail_004_kani=true&JigyosyoCd=3910310329-00&ServiceCd=140&Type=search", "url2": "http://www.morisawa-hp.com" }, "geometry": { "type": "Point", "coordinates": [ 133.908557500000029, 33.4986691 ] } },
{ "type": "Feature", "properties": { "内容": "医療法人地塩会南国中央病院【訪問リハビリテーション】高知県南国市後免町3丁目1番27号", "url": "https://www.kaigokensaku.mhlw.go.jp/39/index.php?action_kouhyou_detail_004_kani=true&JigyosyoCd=3910410632-00&ServiceCd=140&Type=search", "url2": "http://www.chisio-group.or.jp/" }, "geometry": { "type": "Point", "coordinates": [ 133.648200528836014, 33.575794931381381 ] } },
{ "type": "Feature", "properties": { "内容": "白菊園病院【訪問リハビリテーション】土佐市新居萩の里1番地", "url": "https://www.kaigokensaku.mhlw.go.jp/39/index.php?action_kouhyou_detail_004_kani=true&JigyosyoCd=3910510191-00&ServiceCd=140&Type=search", "url2": "https://siragiku.jp" }, "geometry": { "type": "Point", "coordinates": [ 133.458649156561279, 33.449318405923357 ] } },
{ "type": "Feature", "properties": { "内容": "井上病院　訪問リハビリテーション【訪問リハビリテーション】高知県土佐市高岡町甲２０４４番地", "url": "https://www.kaigokensaku.mhlw.go.jp/39/index.php?action_kouhyou_detail_004_kani=true&JigyosyoCd=3910510308-00&ServiceCd=140&Type=search", "url2": "https://www.tosa-inouehp.jp/index.htm" }, "geometry": { "type": "Point", "coordinates": [ 133.42701809999997, 33.4962607 ] } },
{ "type": "Feature", "properties": { "内容": "高陵病院　訪問リハビリテーション【訪問リハビリテーション】高知県須崎市横町１番２８号", "url": "https://www.kaigokensaku.mhlw.go.jp/39/index.php?action_kouhyou_detail_004_kani=true&JigyosyoCd=3910610223-00&ServiceCd=140&Type=search", "url2": "http://www.koryo-hp.or.jp/" }, "geometry": { "type": "Point", "coordinates": [ 133.284250899999989, 33.390609 ] } },
{ "type": "Feature", "properties": { "内容": "訪問リハビリテーション【訪問リハビリテーション】宿毛市平田町戸内1802", "url": "https://www.kaigokensaku.mhlw.go.jp/39/index.php?action_kouhyou_detail_004_kani=true&JigyosyoCd=3910910417-00&ServiceCd=140&Type=search", "url2": "http://goseikai.jp" }, "geometry": { "type": "Point", "coordinates": [ 132.797928800000022, 32.9593806 ] } },
{ "type": "Feature", "properties": { "内容": "社会医療法人長生会　大井田病院　訪問リハビリテーション【訪問リハビリテーション】高知県宿毛市中央８丁目３番６号", "url": "https://www.kaigokensaku.mhlw.go.jp/39/index.php?action_kouhyou_detail_004_kani=true&JigyosyoCd=3910910219-00&ServiceCd=140&Type=search", "url2": "ooida-hp.net" }, "geometry": { "type": "Point", "coordinates": [ 132.7313432, 32.9351285 ] } },
{ "type": "Feature", "properties": { "内容": "医療法人聖真会渭南病院　訪問リハビリテーション【訪問リハビリテーション】高知県土佐清水市越前町6-1", "url": "https://www.kaigokensaku.mhlw.go.jp/39/index.php?action_kouhyou_detail_004_kani=true&JigyosyoCd=3910810799-00&ServiceCd=140&Type=search", "url2": "http://www.inan-hp.jp" }, "geometry": { "type": "Point", "coordinates": [ 132.951144900000031, 32.7814611 ] } },
{ "type": "Feature", "properties": { "内容": "あいさんさん【訪問リハビリテーション】四万十市駅前町9-16", "url": "https://www.kaigokensaku.mhlw.go.jp/39/index.php?action_kouhyou_detail_004_kani=true&JigyosyoCd=3950780035-00&ServiceCd=140&Type=search", "url2": null }, "geometry": { "type": "Point", "coordinates": [ 132.944396899999987, 32.9833219 ] } },
{ "type": "Feature", "properties": { "内容": "竹本病院訪問リハビリテーション【訪問リハビリテーション】高知県四万十市右山1973番地２", "url": "https://www.kaigokensaku.mhlw.go.jp/39/index.php?action_kouhyou_detail_004_kani=true&JigyosyoCd=3910711120-00&ServiceCd=140&Type=search", "url2": null }, "geometry": { "type": "Point", "coordinates": [ 132.945437699999957, 32.9785939 ] } },
{ "type": "Feature", "properties": { "内容": "木俵病院【訪問リハビリテーション】高知県四万十市中村一条通３－３－２５", "url": "https://www.kaigokensaku.mhlw.go.jp/39/index.php?action_kouhyou_detail_004_kani=true&JigyosyoCd=3910710643-00&ServiceCd=140&Type=search", "url2": null }, "geometry": { "type": "Point", "coordinates": [ 132.9373574, 32.9924841 ] } },
{ "type": "Feature", "properties": { "内容": "四万十市国民健康保険西土佐診療所【訪問リハビリテーション】高知県四万十市西土佐用井１１１０番地２８", "url": "https://www.kaigokensaku.mhlw.go.jp/39/index.php?action_kouhyou_detail_004_kani=true&JigyosyoCd=3910710965-00&ServiceCd=140&Type=search", "url2": null }, "geometry": { "type": "Point", "coordinates": [ 132.7948709, 33.1721522 ] } },
{ "type": "Feature", "properties": { "内容": "医療法人　敬善会　前田メディカルクリニック【訪問リハビリテーション】香北町美良布1516-3", "url": "https://www.kaigokensaku.mhlw.go.jp/39/index.php?action_kouhyou_detail_004_kani=true&JigyosyoCd=3911110306-00&ServiceCd=140&Type=search", "url2": "http://www.maeda-mc.com" }, "geometry": { "type": "Point", "coordinates": [ 133.774485, 33.646686 ] } },
{ "type": "Feature", "properties": { "内容": "訪問リハビリテーション　たの【訪問リハビリテーション】安芸郡田野町１４１４－１", "url": "https://www.kaigokensaku.mhlw.go.jp/39/index.php?action_kouhyou_detail_004_kani=true&JigyosyoCd=3912010745-00&ServiceCd=140&Type=search", "url2": "http://usui-kai.com/" }, "geometry": { "type": "Point", "coordinates": [ 134.009022260852021, 33.429284105299615 ] } },
{ "type": "Feature", "properties": { "内容": "仁淀川町国民健康保険大崎診療所【訪問リハビリテーション】高知県吾川郡仁淀川町大崎300番地", "url": "https://www.kaigokensaku.mhlw.go.jp/39/index.php?action_kouhyou_detail_004_kani=true&JigyosyoCd=3912410994-00&ServiceCd=140&Type=search", "url2": "https://www.town.niyodogawa.lg.jp/" }, "geometry": { "type": "Point", "coordinates": [ 133.17013750000001, 33.5729697 ] } },
{ "type": "Feature", "properties": { "内容": "佐川町立高北国民健康保険病院【訪問リハビリテーション】高知県高岡郡佐川町甲１６８７番地高北病院２Ｆ", "url": "https://www.kaigokensaku.mhlw.go.jp/39/index.php?action_kouhyou_detail_004_kani=true&JigyosyoCd=3912510025-00&ServiceCd=140&Type=search", "url2": "http://www.town.sakawa.lg.jp/kouhoku_hospital" }, "geometry": { "type": "Point", "coordinates": [ 133.28699389999997, 33.5041325 ] } },
{ "type": "Feature", "properties": { "内容": "清和病院【訪問リハビリテーション】高知県高岡郡佐川町乙1777", "url": "https://www.kaigokensaku.mhlw.go.jp/39/index.php?action_kouhyou_detail_004_kani=true&JigyosyoCd=3912511064-00&ServiceCd=140&Type=search", "url2": "http://www.seiunkai.com/" }, "geometry": { "type": "Point", "coordinates": [ 133.2804, 33.506582 ] } },
{ "type": "Feature", "properties": { "内容": "医療法人前田会前田病院　訪問リハビリテーション【訪問リハビリテーション】高知県高岡郡越知町越知甲2133前田病院リハビリテーション室", "url": "https://www.kaigokensaku.mhlw.go.jp/39/index.php?action_kouhyou_detail_004_kani=true&JigyosyoCd=3912511411-00&ServiceCd=140&Type=search", "url2": "http://maeda-kai-ochi.jp/" }, "geometry": { "type": "Point", "coordinates": [ 133.249241500000011, 33.5307654 ] } },
{ "type": "Feature", "properties": { "内容": "医療法人社団若鮎　北島病院【訪問リハビリテーション】高岡郡越知町越知甲1662", "url": "https://www.kaigokensaku.mhlw.go.jp/39/index.php?action_kouhyou_detail_004_kani=true&JigyosyoCd=3912511403-00&ServiceCd=140&Type=search", "url2": "http://www.kitajima-hp.com" }, "geometry": { "type": "Point", "coordinates": [ 133.253004058860824, 33.530456576090486 ] } },
{ "type": "Feature", "properties": { "内容": "梼原町立国民健康保険梼原病院　訪問リハビリテーション事業所【訪問リハビリテーション】高知県高岡郡梼原町川西路2320-1リハビリテーション室", "url": "https://www.kaigokensaku.mhlw.go.jp/39/index.php?action_kouhyou_detail_004_kani=true&JigyosyoCd=3912511528-00&ServiceCd=140&Type=search", "url2": "http://www.town.yusuhara.kochi.jp/hospital/index.html" }, "geometry": { "type": "Point", "coordinates": [ 132.9249139, 33.3925364 ] } },
{ "type": "Feature", "properties": { "内容": "医療法人　川村会　くぼかわ病院【訪問リハビリテーション】高知県高岡郡四万十町見付902-1", "url": "https://www.kaigokensaku.mhlw.go.jp/39/index.php?action_kouhyou_detail_004_kani=true&JigyosyoCd=3912511395-00&ServiceCd=140&Type=search", "url2": "http://kawamurakai.com/html/index01.htm" }, "geometry": { "type": "Point", "coordinates": [ 133.148517099999907, 33.2061123 ] } },
{ "type": "Feature", "properties": { "内容": "四万十町国民健康保険十和診療所【訪問リハビリテーション】高知県四万十町昭和468", "url": "https://www.kaigokensaku.mhlw.go.jp/39/index.php?action_kouhyou_detail_004_kani=true&JigyosyoCd=3912511809-00&ServiceCd=140&Type=search", "url2": null }, "geometry": { "type": "Point", "coordinates": [ 132.8972843, 33.2189584 ] } },
{ "type": "Feature", "properties": { "内容": "大月町国民健康保険大月病院【訪問リハビリテーション】高知県幡多郡大月町鉾土603番地", "url": "https://www.kaigokensaku.mhlw.go.jp/39/index.php?action_kouhyou_detail_004_kani=true&JigyosyoCd=3912610700-00&ServiceCd=140&Type=search", "url2": "http://www.town.otsuki.kochi.jp/hoken/hospital.html" }, "geometry": { "type": "Point", "coordinates": [ 132.709755088220845, 32.82117098319236 ] } }
]
}
