{
"type": "FeatureCollection",
"name": "geo_39_定期巡回・随時対応型訪問介護看護",
"crs": { "type": "name", "properties": { "name": "urn:ogc:def:crs:OGC:1.3:CRS84" } },
"features": [
{ "type": "Feature", "properties": { "内容": "定期巡回随時対応型訪問介護看護ｻｰﾋﾞｽtiptop！【定期巡回・随時対応型訪問介護看護】高知県高知市吉田町9－9１F", "url": "https://www.kaigokensaku.mhlw.go.jp/39/index.php?action_kouhyou_detail_004_kani=true&JigyosyoCd=3990101432-00&ServiceCd=760&Type=search", "url2": "https://tiptopllc21.wixsite.com/my-site" }, "geometry": { "type": "Point", "coordinates": [ 133.533920374653462, 33.572401456544583 ] } },
{ "type": "Feature", "properties": { "内容": "定期巡回随時対応型訪問介護看護アズール【定期巡回・随時対応型訪問介護看護】高知県高知市北秦泉寺87番地1コーポ泉2階西", "url": "https://www.kaigokensaku.mhlw.go.jp/39/index.php?action_kouhyou_detail_004_kani=true&JigyosyoCd=3990101317-00&ServiceCd=760&Type=search", "url2": null }, "geometry": { "type": "Point", "coordinates": [ 133.537300277007034, 33.581348323059785 ] } },
{ "type": "Feature", "properties": { "内容": "ベル定期巡回・随時対応型訪問介護看護【定期巡回・随時対応型訪問介護看護】桟橋通１丁目８－１９", "url": "https://www.kaigokensaku.mhlw.go.jp/39/index.php?action_kouhyou_detail_004_kani=true&JigyosyoCd=3990101341-00&ServiceCd=760&Type=search", "url2": null }, "geometry": { "type": "Point", "coordinates": [ 133.546882654644037, 33.551178630871469 ] } },
{ "type": "Feature", "properties": { "内容": "定期巡回随時対応型訪問介護ステーションはっぴぃ＆へるす【定期巡回・随時対応型訪問介護看護】高知県高知市仁井田1894‐3", "url": "https://www.kaigokensaku.mhlw.go.jp/39/index.php?action_kouhyou_detail_004_kani=true&JigyosyoCd=3990101325-00&ServiceCd=760&Type=search", "url2": null }, "geometry": { "type": "Point", "coordinates": [ 133.574003299999987, 33.5153412 ] } },
{ "type": "Feature", "properties": { "内容": "アート定期巡回・随時対応型訪問介護看護センター高知【定期巡回・随時対応型訪問介護看護】北御座11-8", "url": "https://www.kaigokensaku.mhlw.go.jp/39/index.php?action_kouhyou_detail_004_kani=true&JigyosyoCd=3990101366-00&ServiceCd=760&Type=search", "url2": "https://kindness-art.jp" }, "geometry": { "type": "Point", "coordinates": [ 133.561126399999978, 33.5679968 ] } },
{ "type": "Feature", "properties": { "内容": "K定期巡回・随時対応型訪問介護看護【定期巡回・随時対応型訪問介護看護】高知県高知市北新田10-25", "url": "https://www.kaigokensaku.mhlw.go.jp/39/index.php?action_kouhyou_detail_004_kani=true&JigyosyoCd=3990101697-00&ServiceCd=760&Type=search", "url2": null }, "geometry": { "type": "Point", "coordinates": [ 133.550491, 33.5529343 ] } },
{ "type": "Feature", "properties": { "内容": "定期巡回ステーションLien【定期巡回・随時対応型訪問介護看護】高知県高知市桜井町１丁目３番１２号第一桜井マンション１０１", "url": "https://www.kaigokensaku.mhlw.go.jp/39/index.php?action_kouhyou_detail_004_kani=true&JigyosyoCd=3990101754-00&ServiceCd=760&Type=search", "url2": "https://lien-kochi.com/" }, "geometry": { "type": "Point", "coordinates": [ 133.549345499999987, 33.5608199 ] } },
{ "type": "Feature", "properties": { "内容": "定期巡回・随時対応型訪問介護看護・アートケア【定期巡回・随時対応型訪問介護看護】高知県高知市長浜1624番地4アーバンハイツK＆N301号室", "url": "https://www.kaigokensaku.mhlw.go.jp/39/index.php?action_kouhyou_detail_004_kani=true&JigyosyoCd=3990101713-00&ServiceCd=760&Type=search", "url2": null }, "geometry": { "type": "Point", "coordinates": [ 133.5406591, 33.5000465 ] } },
{ "type": "Feature", "properties": { "内容": "定期巡回・随時対応型訪問介護看護　虹の夢桟橋【定期巡回・随時対応型訪問介護看護】高知県高知市桟橋通一丁目12番17号オリザビル", "url": "https://www.kaigokensaku.mhlw.go.jp/39/index.php?action_kouhyou_detail_004_kani=true&JigyosyoCd=3990101796-00&ServiceCd=760&Type=search", "url2": "https://nijinoyume-g.jp/oriza/" }, "geometry": { "type": "Point", "coordinates": [ 133.5450099, 33.5509216 ] } },
{ "type": "Feature", "properties": { "内容": "定巡ヘルパーステーション　アーク【定期巡回・随時対応型訪問介護看護】高知県高知市福井東町11-21国友ハイツ1階", "url": "https://www.kaigokensaku.mhlw.go.jp/39/index.php?action_kouhyou_detail_004_kani=true&JigyosyoCd=3990101820-00&ServiceCd=760&Type=search", "url2": "https://ark-kochi.com/" }, "geometry": { "type": "Point", "coordinates": [ 133.516278032730582, 33.566182392036765 ] } },
{ "type": "Feature", "properties": { "内容": "定期巡回随時対応型訪問介護看護つなぐ【定期巡回・随時対応型訪問介護看護】高知県高知市春野町西分695番1", "url": "https://www.kaigokensaku.mhlw.go.jp/39/index.php?action_kouhyou_detail_004_kani=true&JigyosyoCd=3990100632-00&ServiceCd=760&Type=search", "url2": "http：//furusatokai.or.jp" }, "geometry": { "type": "Point", "coordinates": [ 133.494144, 33.5085216 ] } },
{ "type": "Feature", "properties": { "内容": "定期巡回ナースケア【定期巡回・随時対応型訪問介護看護】高知県高知市永国寺町2番2号コーポ朝日イレブン2A", "url": "https://www.kaigokensaku.mhlw.go.jp/39/index.php?action_kouhyou_detail_004_kani=true&JigyosyoCd=3990100582-00&ServiceCd=760&Type=search", "url2": "nurse-care.net" }, "geometry": { "type": "Point", "coordinates": [ 133.536610746890574, 33.564144022075965 ] } },
{ "type": "Feature", "properties": { "内容": "指定定期巡回・随時対応型訪問介護看護　瀬戸虹の夢【定期巡回・随時対応型訪問介護看護】高知県高知市横浜新町4丁目2403A-MAX2階テナント", "url": "https://www.kaigokensaku.mhlw.go.jp/39/index.php?action_kouhyou_detail_004_kani=true&JigyosyoCd=3990100996-00&ServiceCd=760&Type=search", "url2": "http://nijinoyume-g.jp" }, "geometry": { "type": "Point", "coordinates": [ 133.53511195063615, 33.517166786610325 ] } },
{ "type": "Feature", "properties": { "内容": "あんぱん定期巡回・随時対応型訪問介護看護【定期巡回・随時対応型訪問介護看護】高知県高知市介良乙1201-1サンヴィレッジ介良B棟　201号室", "url": "https://www.kaigokensaku.mhlw.go.jp/39/index.php?action_kouhyou_detail_004_kani=true&JigyosyoCd=3990101663-00&ServiceCd=760&Type=search", "url2": "https://houjin.fuku-no-tane.com/" }, "geometry": { "type": "Point", "coordinates": [ 133.605861643161035, 33.56181368645305 ] } },
{ "type": "Feature", "properties": { "内容": "定期巡回・随時対応型訪問介護看護てのひら【定期巡回・随時対応型訪問介護看護】高知県高知市若草町16-5A棟", "url": "https://www.kaigokensaku.mhlw.go.jp/39/index.php?action_kouhyou_detail_004_kani=true&JigyosyoCd=3990101622-00&ServiceCd=760&Type=search", "url2": null }, "geometry": { "type": "Point", "coordinates": [ 133.486471074868774, 33.544236304662945 ] } },
{ "type": "Feature", "properties": { "内容": "定期巡回・随時対応型訪問介護看護ケアビレッジ【定期巡回・随時対応型訪問介護看護】高知県高知市朝倉丙416-1", "url": "https://www.kaigokensaku.mhlw.go.jp/39/index.php?action_kouhyou_detail_004_kani=true&JigyosyoCd=3990101689-00&ServiceCd=760&Type=search", "url2": "http://www.mizuho-medicare.com/" }, "geometry": { "type": "Point", "coordinates": [ 133.489990933326794, 33.553227491630643 ] } },
{ "type": "Feature", "properties": { "内容": "２４時間在宅介護・看護ちどり【定期巡回・随時対応型訪問介護看護】高知県南国市篠原１８１８－１コーポスカイラーク１０５", "url": "https://www.kaigokensaku.mhlw.go.jp/39/index.php?action_kouhyou_detail_004_kani=true&JigyosyoCd=3990400081-00&ServiceCd=760&Type=search", "url2": "https://www.kochi-chidori.com/" }, "geometry": { "type": "Point", "coordinates": [ 133.638449900000012, 33.5762689 ] } },
{ "type": "Feature", "properties": { "内容": "定期巡回・随時対応型訪問介護看護ケアビレッジとさ【定期巡回・随時対応型訪問介護看護】高知県土佐市蓮池1231番2", "url": "https://www.kaigokensaku.mhlw.go.jp/39/index.php?action_kouhyou_detail_004_kani=true&JigyosyoCd=3990500070-00&ServiceCd=760&Type=search", "url2": "http://mizuho-medicare.com/" }, "geometry": { "type": "Point", "coordinates": [ 133.413316, 33.4922733 ] } }
]
}
