{
"type": "FeatureCollection",
"name": "geo_39_介護医療院",
"crs": { "type": "name", "properties": { "name": "urn:ogc:def:crs:OGC:1.3:CRS84" } },
"features": [
{ "type": "Feature", "properties": { "内容": "介護医療院きむら【介護医療院】高知県高知市寿町8番8号", "url": "https://www.kaigokensaku.mhlw.go.jp/39/index.php?action_kouhyou_detail_004_kani=true&JigyosyoCd=39B0100140-00&ServiceCd=550&Type=search", "url2": "http://www.kimuraho.jp/" }, "geometry": { "type": "Point", "coordinates": [ 133.535318499999988, 33.5664708 ] } },
{ "type": "Feature", "properties": { "内容": "山村介護医療院和【介護医療院】高知県高知市下島町106番地", "url": "https://www.kaigokensaku.mhlw.go.jp/39/index.php?action_kouhyou_detail_004_kani=true&JigyosyoCd=39B0100058-00&ServiceCd=550&Type=search", "url2": "http://www.yamamurakai.coｍ" }, "geometry": { "type": "Point", "coordinates": [ 133.507645366270481, 33.554729480293091 ] } },
{ "type": "Feature", "properties": { "内容": "医療法人　島本慈愛会　島本病院付属介護医療院【介護医療院】帯屋町２丁目６番３号", "url": "https://www.kaigokensaku.mhlw.go.jp/39/index.php?action_kouhyou_detail_004_kani=true&JigyosyoCd=39B0100132-00&ServiceCd=550&Type=search", "url2": "https://shimamotohp.or.jp/" }, "geometry": { "type": "Point", "coordinates": [ 133.535207399999962, 33.5601856 ] } },
{ "type": "Feature", "properties": { "内容": "介護医療院　とさたむら【介護医療院】高知市稲荷町11番20号", "url": "https://www.kaigokensaku.mhlw.go.jp/39/index.php?action_kouhyou_detail_004_kani=true&JigyosyoCd=39B0100124-00&ServiceCd=550&Type=search", "url2": "https://www.tosatamura.jp" }, "geometry": { "type": "Point", "coordinates": [ 133.5612893, 33.556952100000032 ] } },
{ "type": "Feature", "properties": { "内容": "医療法人　厚愛会　高知城東病院【介護医療院】高知県高知市大津乙719", "url": "https://www.kaigokensaku.mhlw.go.jp/39/index.php?action_kouhyou_detail_004_kani=true&JigyosyoCd=39B0100025-00&ServiceCd=550&Type=search", "url2": "http://www.kochijoto.or.jp/" }, "geometry": { "type": "Point", "coordinates": [ 133.597177126983638, 33.567946135607727 ] } },
{ "type": "Feature", "properties": { "内容": "介護医療院　朝倉【介護医療院】高知県高知市朝倉丙1653-12", "url": "https://www.kaigokensaku.mhlw.go.jp/39/index.php?action_kouhyou_detail_004_kani=true&JigyosyoCd=39B0100090-00&ServiceCd=550&Type=search", "url2": "http:asakura-hospital.jp" }, "geometry": { "type": "Point", "coordinates": [ 133.474019, 33.5550274 ] } },
{ "type": "Feature", "properties": { "内容": "永井病院介護医療院【介護医療院】高知市春野町西分2027-3", "url": "https://www.kaigokensaku.mhlw.go.jp/39/index.php?action_kouhyou_detail_004_kani=true&JigyosyoCd=39B0100082-00&ServiceCd=550&Type=search", "url2": "http//www.nagai-hp.com/" }, "geometry": { "type": "Point", "coordinates": [ 133.4960336, 33.4991819 ] } },
{ "type": "Feature", "properties": { "内容": "図南病院　介護医療院【介護医療院】高知県高知市知寄町1丁目5-15", "url": "https://www.kaigokensaku.mhlw.go.jp/39/index.php?action_kouhyou_detail_004_kani=true&JigyosyoCd=39B0100157-00&ServiceCd=550&Type=search", "url2": "http://www.hisakai.or.jp/tonan/" }, "geometry": { "type": "Point", "coordinates": [ 133.55608, 33.5589072 ] } },
{ "type": "Feature", "properties": { "内容": "介護医療院中ノ橋【介護医療院】高知県高知市永国寺町1-46中ノ橋病院", "url": "https://www.kaigokensaku.mhlw.go.jp/39/index.php?action_kouhyou_detail_004_kani=true&JigyosyoCd=39B0100116-00&ServiceCd=550&Type=search", "url2": "https//www.nakanohashi-hp.jp/" }, "geometry": { "type": "Point", "coordinates": [ 133.536789199999987, 33.5636562 ] } },
{ "type": "Feature", "properties": { "内容": "上町病院　介護医療院【介護医療院】高知県高知市上町１丁目７番３４号", "url": "https://www.kaigokensaku.mhlw.go.jp/39/index.php?action_kouhyou_detail_004_kani=true&JigyosyoCd=39B0100074-00&ServiceCd=550&Type=search", "url2": "http://www.kamimachi-hp.or.jp/" }, "geometry": { "type": "Point", "coordinates": [ 133.5260462, 33.5570925 ] } },
{ "type": "Feature", "properties": { "内容": "介護医療院さんあい【介護医療院】高知県高知市一宮西町1丁目7番25号", "url": "https://www.kaigokensaku.mhlw.go.jp/39/index.php?action_kouhyou_detail_004_kani=true&JigyosyoCd=39B0100066-00&ServiceCd=550&Type=search", "url2": "http://www.sanai-hospital.jp/top/" }, "geometry": { "type": "Point", "coordinates": [ 133.567696822684468, 33.583298391764117 ] } },
{ "type": "Feature", "properties": { "内容": "高知総合リハビリテーション病院　介護医療院【介護医療院】高知県高知市一宮南町一丁目10番地15号", "url": "https://www.kaigokensaku.mhlw.go.jp/39/index.php?action_kouhyou_detail_004_kani=true&JigyosyoCd=39B0100017-00&ServiceCd=550&Type=search", "url2": "https://www.jojinkai.com/kouchi/" }, "geometry": { "type": "Point", "coordinates": [ 133.563712100000032, 33.5790491 ] } },
{ "type": "Feature", "properties": { "内容": "医療法人　平田会　平田病院　介護医療院【介護医療院】高知市本町5丁目4-23", "url": "https://www.kaigokensaku.mhlw.go.jp/39/index.php?action_kouhyou_detail_004_kani=true&JigyosyoCd=39B0100108-00&ServiceCd=550&Type=search", "url2": "http://www.hirata-hp.com/" }, "geometry": { "type": "Point", "coordinates": [ 133.530205313491848, 33.557409717954478 ] } },
{ "type": "Feature", "properties": { "内容": "医療法人新松田会　愛宕病院介護医療院【介護医療院】高知県高知市愛宕町1丁目1番13号", "url": "https://www.kaigokensaku.mhlw.go.jp/39/index.php?action_kouhyou_detail_004_kani=true&JigyosyoCd=39B0100041-00&ServiceCd=550&Type=search", "url2": "http://atago-hp.or.jp/" }, "geometry": { "type": "Point", "coordinates": [ 133.53731, 33.5653651 ] } },
{ "type": "Feature", "properties": { "内容": "介護医療院　あさがお【介護医療院】高知県土佐市高岡町甲2044", "url": "https://www.kaigokensaku.mhlw.go.jp/39/index.php?action_kouhyou_detail_004_kani=true&JigyosyoCd=39B0500018-00&ServiceCd=550&Type=search", "url2": null }, "geometry": { "type": "Point", "coordinates": [ 133.4270339, 33.4962278 ] } },
{ "type": "Feature", "properties": { "内容": "高陵病院介護医療院【介護医療院】高知県須崎市横町1番28号", "url": "https://www.kaigokensaku.mhlw.go.jp/39/index.php?action_kouhyou_detail_004_kani=true&JigyosyoCd=39B0600024-00&ServiceCd=550&Type=search", "url2": "http://www.koryo-hp.or.jp/" }, "geometry": { "type": "Point", "coordinates": [ 133.284368917196645, 33.390868779110818 ] } },
{ "type": "Feature", "properties": { "内容": "介護医療院ちひろ【介護医療院】高知県須崎市中町１－６－２５", "url": "https://www.kaigokensaku.mhlw.go.jp/39/index.php?action_kouhyou_detail_004_kani=true&JigyosyoCd=39B0600016-00&ServiceCd=550&Type=search", "url2": "https://chihiro-susaki.com" }, "geometry": { "type": "Point", "coordinates": [ 133.283668799999987, 33.3884947 ] } },
{ "type": "Feature", "properties": { "内容": "社会医療法人長生会　介護医療院おおいだ【介護医療院】高知県宿毛市中央8丁目3番6号大井田病院内　３階", "url": "https://www.kaigokensaku.mhlw.go.jp/39/index.php?action_kouhyou_detail_004_kani=true&JigyosyoCd=39B0900010-00&ServiceCd=550&Type=search", "url2": "http://www.ooida-hp.net" }, "geometry": { "type": "Point", "coordinates": [ 132.731499899999989, 32.935314 ] } },
{ "type": "Feature", "properties": { "内容": "足摺病院　介護医療院【介護医療院】土佐清水市旭町18番71号", "url": "https://www.kaigokensaku.mhlw.go.jp/39/index.php?action_kouhyou_detail_004_kani=true&JigyosyoCd=39B0800012-00&ServiceCd=550&Type=search", "url2": "www.ashizuribyouin.com" }, "geometry": { "type": "Point", "coordinates": [ 132.9615356, 32.77916 ] } },
{ "type": "Feature", "properties": { "内容": "介護医療院　もりした【介護医療院】高知県四万十市中村一条通2-44", "url": "https://www.kaigokensaku.mhlw.go.jp/39/index.php?action_kouhyou_detail_004_kani=true&JigyosyoCd=39B1000026-00&ServiceCd=550&Type=search", "url2": "http:www.morishitahp.jp/" }, "geometry": { "type": "Point", "coordinates": [ 132.936413899999934, 32.9920269 ] } },
{ "type": "Feature", "properties": { "内容": "介護医療院なかむら【介護医療院】高知県四万十市中村小姓町75番地中村病院", "url": "https://www.kaigokensaku.mhlw.go.jp/39/index.php?action_kouhyou_detail_004_kani=true&JigyosyoCd=39B1000018-00&ServiceCd=550&Type=search", "url2": "https://nakamura-hospital.com/" }, "geometry": { "type": "Point", "coordinates": [ 132.9323839, 32.9946726 ] } },
{ "type": "Feature", "properties": { "内容": "介護医療院きだわら【介護医療院】高知県四万十市中村一条通３－３－２５", "url": "https://www.kaigokensaku.mhlw.go.jp/39/index.php?action_kouhyou_detail_004_kani=true&JigyosyoCd=39B1000034-00&ServiceCd=550&Type=search", "url2": null }, "geometry": { "type": "Point", "coordinates": [ 132.937164918385349, 32.992063217954914 ] } },
{ "type": "Feature", "properties": { "内容": "あいさんさん【介護医療院】高知県四万十市駅前町９－１６", "url": "https://www.kaigokensaku.mhlw.go.jp/39/index.php?action_kouhyou_detail_004_kani=true&JigyosyoCd=39B1000059-00&ServiceCd=550&Type=search", "url2": null }, "geometry": { "type": "Point", "coordinates": [ 132.944396899999987, 32.9833219 ] } },
{ "type": "Feature", "properties": { "内容": "幡多クリニック介護医療院【介護医療院】高知県四万十市右山天神町10-12", "url": "https://www.kaigokensaku.mhlw.go.jp/39/index.php?action_kouhyou_detail_004_kani=true&JigyosyoCd=39B1000042-00&ServiceCd=550&Type=search", "url2": "http://hatabyouin.net./" }, "geometry": { "type": "Point", "coordinates": [ 132.941812, 32.9844923 ] } },
{ "type": "Feature", "properties": { "内容": "三谷介護医療院【介護医療院】高知県香南市野市町西野555-2", "url": "https://www.kaigokensaku.mhlw.go.jp/39/index.php?action_kouhyou_detail_004_kani=true&JigyosyoCd=39B1100016-00&ServiceCd=550&Type=search", "url2": null }, "geometry": { "type": "Point", "coordinates": [ 133.7001886, 33.5635352 ] } },
{ "type": "Feature", "properties": { "内容": "香北介護医療院【介護医療院】高知県香美市香北町美良布1064-9医療法人豊秋会　香北病院", "url": "https://www.kaigokensaku.mhlw.go.jp/39/index.php?action_kouhyou_detail_004_kani=true&JigyosyoCd=39B1200014-00&ServiceCd=550&Type=search", "url2": null }, "geometry": { "type": "Point", "coordinates": [ 133.778679399999987, 33.6500424 ] } },
{ "type": "Feature", "properties": { "内容": "早明浦病院介護医療院【介護医療院】高知県土佐郡土佐町田井1372番地", "url": "https://www.kaigokensaku.mhlw.go.jp/39/index.php?action_kouhyou_detail_004_kani=true&JigyosyoCd=39B2300011-00&ServiceCd=550&Type=search", "url2": "http://juzen-kai.or.jp/" }, "geometry": { "type": "Point", "coordinates": [ 133.5572855, 33.7468393 ] } },
{ "type": "Feature", "properties": { "内容": "医療法人　岡本会　さくら病院介護医療院【介護医療院】高知県吾川郡いの町鹿敷162", "url": "https://www.kaigokensaku.mhlw.go.jp/39/index.php?action_kouhyou_detail_004_kani=true&JigyosyoCd=39B2400027-00&ServiceCd=550&Type=search", "url2": "https://okamotokai-sakurahospital.jimdofree.com" }, "geometry": { "type": "Point", "coordinates": [ 133.3689493, 33.565773 ] } },
{ "type": "Feature", "properties": { "内容": "いの町立国民健康保険仁淀病院介護医療院【介護医療院】高知県吾川郡いの町1369", "url": "https://www.kaigokensaku.mhlw.go.jp/39/index.php?action_kouhyou_detail_004_kani=true&JigyosyoCd=39B2400035-00&ServiceCd=550&Type=search", "url2": "https://www.town.ino.kochi.jp/niyodo-hospital/" }, "geometry": { "type": "Point", "coordinates": [ 133.433621839070128, 33.547497845356425 ] } },
{ "type": "Feature", "properties": { "内容": "安部介護医療院【介護医療院】高知県吾川郡仁淀川町岩丸102番地", "url": "https://www.kaigokensaku.mhlw.go.jp/39/index.php?action_kouhyou_detail_004_kani=true&JigyosyoCd=39B2400019-00&ServiceCd=550&Type=search", "url2": "http://abehospital.com/" }, "geometry": { "type": "Point", "coordinates": [ 133.173677766270487, 33.612819917095464 ] } },
{ "type": "Feature", "properties": { "内容": "介護医療院なかとさ【介護医療院】高知県高岡郡中土佐町久礼6614", "url": "https://www.kaigokensaku.mhlw.go.jp/39/index.php?action_kouhyou_detail_004_kani=true&JigyosyoCd=39B2500024-00&ServiceCd=550&Type=search", "url2": null }, "geometry": { "type": "Point", "coordinates": [ 133.2284764, 33.3280841 ] } },
{ "type": "Feature", "properties": { "内容": "介護医療院山﨑病院【介護医療院】高知県高岡郡越知町越知甲2041-3", "url": "https://www.kaigokensaku.mhlw.go.jp/39/index.php?action_kouhyou_detail_004_kani=true&JigyosyoCd=39B2500032-00&ServiceCd=550&Type=search", "url2": "http://www.yamasaki.or.jp/" }, "geometry": { "type": "Point", "coordinates": [ 133.2509795, 33.532789700000023 ] } },
{ "type": "Feature", "properties": { "内容": "介護医療院山﨑外科整形外科病院【介護医療院】高知県高岡郡越知町越知甲２１０７番地１", "url": "https://www.kaigokensaku.mhlw.go.jp/39/index.php?action_kouhyou_detail_004_kani=true&JigyosyoCd=39B2500040-00&ServiceCd=550&Type=search", "url2": null }, "geometry": { "type": "Point", "coordinates": [ 133.250191992590374, 33.530671700825458 ] } },
{ "type": "Feature", "properties": { "内容": "大西病院介護医療院【介護医療院】高知県高岡郡四万十町古市町6番12号", "url": "https://www.kaigokensaku.mhlw.go.jp/39/index.php?action_kouhyou_detail_004_kani=true&JigyosyoCd=39B2500016-00&ServiceCd=550&Type=search", "url2": "http://www.oonishi-hp.or.jp/" }, "geometry": { "type": "Point", "coordinates": [ 133.1412997, 33.2095531 ] } },
{ "type": "Feature", "properties": { "内容": "介護医療院ことぶき【介護医療院】高知県幡多郡黒潮町出口2070番地", "url": "https://www.kaigokensaku.mhlw.go.jp/39/index.php?action_kouhyou_detail_004_kani=true&JigyosyoCd=39B2600014-00&ServiceCd=550&Type=search", "url2": "http://kotobuki-ideguchi.jp/" }, "geometry": { "type": "Point", "coordinates": [ 132.99428443372949, 32.980804601360511 ] } }
]
}
