{
"type": "FeatureCollection",
"name": "geo_39_通所リハビリテーション",
"crs": { "type": "name", "properties": { "name": "urn:ogc:def:crs:OGC:1.3:CRS84" } },
"features": [
{ "type": "Feature", "properties": { "内容": "クリニックひろと　通所リハビリテーション　うらら【通所リハビリテーション】高知県高知市長浜４８２３", "url": "https://www.kaigokensaku.mhlw.go.jp/39/index.php?action_kouhyou_detail_004_kani=true&JigyosyoCd=3910117658-00&ServiceCd=160&Type=search", "url2": "http://www.c-hiroto.jp" }, "geometry": { "type": "Point", "coordinates": [ 133.548157400000036, 33.5003136 ] } },
{ "type": "Feature", "properties": { "内容": "通所リハビリテーション　よしむら【通所リハビリテーション】高知県高知市百石町2丁目2-1", "url": "https://www.kaigokensaku.mhlw.go.jp/39/index.php?action_kouhyou_detail_004_kani=true&JigyosyoCd=3910117070-00&ServiceCd=160&Type=search", "url2": null }, "geometry": { "type": "Point", "coordinates": [ 133.544411099999934, 33.5493856 ] } },
{ "type": "Feature", "properties": { "内容": "えだしげ整形外科通所リハビリテーション【通所リハビリテーション】伊勢崎町13-13", "url": "https://www.kaigokensaku.mhlw.go.jp/39/index.php?action_kouhyou_detail_004_kani=true&JigyosyoCd=3910116551-00&ServiceCd=160&Type=search", "url2": "https://edashigeseikei.com" }, "geometry": { "type": "Point", "coordinates": [ 133.5291014, 33.5705204 ] } },
{ "type": "Feature", "properties": { "内容": "通所リハビリテーション　いとう【通所リハビリテーション】高知市介良乙1049高知東メディカルスクエア　２F", "url": "https://www.kaigokensaku.mhlw.go.jp/39/index.php?action_kouhyou_detail_004_kani=true&JigyosyoCd=3910115306-00&ServiceCd=160&Type=search", "url2": "http://www.itoseikei.net" }, "geometry": { "type": "Point", "coordinates": [ 133.596322, 33.5618291 ] } },
{ "type": "Feature", "properties": { "内容": "介護老人保健施設　あいおい【通所リハビリテーション】高知県高知市相生町１番３５号", "url": "https://www.kaigokensaku.mhlw.go.jp/39/index.php?action_kouhyou_detail_004_kani=true&JigyosyoCd=3950180087-00&ServiceCd=160&Type=search", "url2": "http://www.nonami-kai.com/aioi/" }, "geometry": { "type": "Point", "coordinates": [ 133.544377299999951, 33.5646699 ] } },
{ "type": "Feature", "properties": { "内容": "通所リハビリテーション　オーロラ【通所リハビリテーション】高知市大津乙７１９番地", "url": "https://www.kaigokensaku.mhlw.go.jp/39/index.php?action_kouhyou_detail_004_kani=true&JigyosyoCd=3910113483-00&ServiceCd=160&Type=search", "url2": "http://www.kochijoto.or.jp/aurora.html" }, "geometry": { "type": "Point", "coordinates": [ 133.597236100000032, 33.5678569 ] } },
{ "type": "Feature", "properties": { "内容": "老人保健施設シルバーマリン【通所リハビリテーション】高知県高知市仁井田１６１２－２１", "url": "https://www.kaigokensaku.mhlw.go.jp/39/index.php?action_kouhyou_detail_004_kani=true&JigyosyoCd=3950180038-00&ServiceCd=160&Type=search", "url2": "http://www.marine-hosp.jp/groups/silver_marine/index.html" }, "geometry": { "type": "Point", "coordinates": [ 133.57295739999995, 33.514232 ] } },
{ "type": "Feature", "properties": { "内容": "さんさんクリニック【通所リハビリテーション】高知県高知市鷹匠町１丁目１番８号", "url": "https://www.kaigokensaku.mhlw.go.jp/39/index.php?action_kouhyou_detail_004_kani=true&JigyosyoCd=3910117054-00&ServiceCd=160&Type=search", "url2": "http://sunsunclinic.com/tuusyorihabiri.html" }, "geometry": { "type": "Point", "coordinates": [ 133.5369721951065, 33.556585496592731 ] } },
{ "type": "Feature", "properties": { "内容": "島津病院通所リハビリテーション【通所リハビリテーション】高知市比島町４丁目5番２７号", "url": "https://www.kaigokensaku.mhlw.go.jp/39/index.php?action_kouhyou_detail_004_kani=true&JigyosyoCd=3910116395-00&ServiceCd=160&Type=search", "url2": "http://www.shimazuhp.jp/ex_reha.htm" }, "geometry": { "type": "Point", "coordinates": [ 133.549641306082094, 33.573562414679152 ] } },
{ "type": "Feature", "properties": { "内容": "だいいちリハビリテーション病院【通所リハビリテーション】高知県高知市九反田２番１４号", "url": "https://www.kaigokensaku.mhlw.go.jp/39/index.php?action_kouhyou_detail_004_kani=true&JigyosyoCd=3910110810-00&ServiceCd=160&Type=search", "url2": null }, "geometry": { "type": "Point", "coordinates": [ 133.5478938, 33.5582124 ] } },
{ "type": "Feature", "properties": { "内容": "高知厚生病院　通所リハビリテーション　こうせい【通所リハビリテーション】高知市葛島１－９－５０", "url": "https://www.kaigokensaku.mhlw.go.jp/39/index.php?action_kouhyou_detail_004_kani=true&JigyosyoCd=3910112261-00&ServiceCd=160&Type=search", "url2": "http://www.kochi-koseihp.jp/event/?id=33&mode=info&group=e02-new" }, "geometry": { "type": "Point", "coordinates": [ 133.572263799999973, 33.5587658 ] } },
{ "type": "Feature", "properties": { "内容": "介護老人保健施設　梅壽苑【通所リハビリテーション】高知市土居町９－１８", "url": "https://www.kaigokensaku.mhlw.go.jp/39/index.php?action_kouhyou_detail_004_kani=true&JigyosyoCd=3950180012-00&ServiceCd=160&Type=search", "url2": "https://www.takashiokai.jp" }, "geometry": { "type": "Point", "coordinates": [ 133.544574799999964, 33.554385 ] } },
{ "type": "Feature", "properties": { "内容": "介護老人保健施設　ピアハウス高知【通所リハビリテーション】高知市塚ノ原３６番地", "url": "https://www.kaigokensaku.mhlw.go.jp/39/index.php?action_kouhyou_detail_004_kani=true&JigyosyoCd=3950180046-00&ServiceCd=160&Type=search", "url2": "http://jyosenkai-piahouse.jp/" }, "geometry": { "type": "Point", "coordinates": [ 133.494866600000023, 33.561191 ] } },
{ "type": "Feature", "properties": { "内容": "細木病院　通所リハビリテーション　ゆうゆう【通所リハビリテーション】高知県高知市大膳町37", "url": "https://www.kaigokensaku.mhlw.go.jp/39/index.php?action_kouhyou_detail_004_kani=true&JigyosyoCd=3910113764-00&ServiceCd=160&Type=search", "url2": "http://hosogi-hospital.jp" }, "geometry": { "type": "Point", "coordinates": [ 133.5223294, 33.5599114 ] } },
{ "type": "Feature", "properties": { "内容": "老人保健施設　優【通所リハビリテーション】高知市長浜小日出1681-1", "url": "https://www.kaigokensaku.mhlw.go.jp/39/index.php?action_kouhyou_detail_004_kani=true&JigyosyoCd=3950180095-00&ServiceCd=160&Type=search", "url2": "http://www.rouken-yu.jp" }, "geometry": { "type": "Point", "coordinates": [ 133.537405300000046, 33.4996523 ] } },
{ "type": "Feature", "properties": { "内容": "通所リハビリテーション青柳【通所リハビリテーション】高知市若松町11番20号おあしす青柳", "url": "https://www.kaigokensaku.mhlw.go.jp/39/index.php?action_kouhyou_detail_004_kani=true&JigyosyoCd=3910118722-00&ServiceCd=160&Type=search", "url2": "https://www.oashisuaoyagi.jp" }, "geometry": { "type": "Point", "coordinates": [ 133.562950600000022, 33.55244 ] } },
{ "type": "Feature", "properties": { "内容": "デイケアサービスつばさ【通所リハビリテーション】高知市桟橋通1丁目７－１７", "url": "https://www.kaigokensaku.mhlw.go.jp/39/index.php?action_kouhyou_detail_004_kani=true&JigyosyoCd=3910117005-00&ServiceCd=160&Type=search", "url2": "http://www.kinugawaiin.com/index.php?data=./data/l3/" }, "geometry": { "type": "Point", "coordinates": [ 133.546235900000056, 33.5511882 ] } },
{ "type": "Feature", "properties": { "内容": "横浜病院　通所リハビリテーション【通所リハビリテーション】高知県高知市横浜東町10番1号", "url": "https://www.kaigokensaku.mhlw.go.jp/39/index.php?action_kouhyou_detail_004_kani=true&JigyosyoCd=3910114515-00&ServiceCd=160&Type=search", "url2": null }, "geometry": { "type": "Point", "coordinates": [ 133.54780985981705, 33.519854467161537 ] } },
{ "type": "Feature", "properties": { "内容": "老人保健施設　あうん高知【通所リハビリテーション】高知市一宮西町１丁目７番２５号", "url": "https://www.kaigokensaku.mhlw.go.jp/39/index.php?action_kouhyou_detail_004_kani=true&JigyosyoCd=3950180079-00&ServiceCd=160&Type=search", "url2": "http://www.sanai-hospital.jp/top/facility/aun.html#tuusyo01" }, "geometry": { "type": "Point", "coordinates": [ 133.567470679098506, 33.583365791466498 ] } },
{ "type": "Feature", "properties": { "内容": "通所リハビリテーションがんばり処すこもり【通所リハビリテーション】高知県高知市春野町芳原1316-1", "url": "https://www.kaigokensaku.mhlw.go.jp/39/index.php?action_kouhyou_detail_004_kani=true&JigyosyoCd=3910118599-00&ServiceCd=160&Type=search", "url2": "sukoyakanamori.or.jp/" }, "geometry": { "type": "Point", "coordinates": [ 133.513556599999987, 33.50747 ] } },
{ "type": "Feature", "properties": { "内容": "デイケア　ながい【通所リハビリテーション】高知県高知市春野町西分2027-3", "url": "https://www.kaigokensaku.mhlw.go.jp/39/index.php?action_kouhyou_detail_004_kani=true&JigyosyoCd=3910118540-00&ServiceCd=160&Type=search", "url2": "http://www.nagai-hp.com" }, "geometry": { "type": "Point", "coordinates": [ 133.49601610000002, 33.4992505 ] } },
{ "type": "Feature", "properties": { "内容": "平田病院通所リハビリテーション【通所リハビリテーション】高知県高知市本町5丁目4-23", "url": "https://www.kaigokensaku.mhlw.go.jp/39/index.php?action_kouhyou_detail_004_kani=true&JigyosyoCd=3910111065-00&ServiceCd=160&Type=search", "url2": "www.hirata-hp.com" }, "geometry": { "type": "Point", "coordinates": [ 133.530231599999979, 33.557359199999986 ] } },
{ "type": "Feature", "properties": { "内容": "指定通所リハビリテーション　さえんば【通所リハビリテーション】高知県高知市桜井町1丁目2番35号", "url": "https://www.kaigokensaku.mhlw.go.jp/39/index.php?action_kouhyou_detail_004_kani=true&JigyosyoCd=3910114622-00&ServiceCd=160&Type=search", "url2": "http://www.hisakai.or.jp/hisa/index.htm" }, "geometry": { "type": "Point", "coordinates": [ 133.5478243, 33.5606677 ] } },
{ "type": "Feature", "properties": { "内容": "介護老人保健施設あさひ【通所リハビリテーション】高知県室戸市領家1-1", "url": "https://www.kaigokensaku.mhlw.go.jp/39/index.php?action_kouhyou_detail_004_kani=true&JigyosyoCd=3950280010-00&ServiceCd=160&Type=search", "url2": "https://muroto-aiseikai.or.jp" }, "geometry": { "type": "Point", "coordinates": [ 134.1655376, 33.2943766 ] } },
{ "type": "Feature", "properties": { "内容": "ＥＡＳＴマリン【通所リハビリテーション】安芸市矢ノ丸３丁目１番２５号", "url": "https://www.kaigokensaku.mhlw.go.jp/39/index.php?action_kouhyou_detail_004_kani=true&JigyosyoCd=3910310477-00&ServiceCd=160&Type=search", "url2": "http://www.marine-hosp.jp/east/" }, "geometry": { "type": "Point", "coordinates": [ 133.9077605, 33.5031962 ] } },
{ "type": "Feature", "properties": { "内容": "通所リハビリテーション　もりさわ【通所リハビリテーション】高知県安芸市本町2丁目13-32", "url": "https://www.kaigokensaku.mhlw.go.jp/39/index.php?action_kouhyou_detail_004_kani=true&JigyosyoCd=3910310329-00&ServiceCd=160&Type=search", "url2": "http://www.morisawa-hp.com" }, "geometry": { "type": "Point", "coordinates": [ 133.908557500000029, 33.4986691 ] } },
{ "type": "Feature", "properties": { "内容": "介護老人保健施設　夢の里　通所リハビリテーション【通所リハビリテーション】高知県南国市岡豊町中島1521-1", "url": "https://www.kaigokensaku.mhlw.go.jp/39/index.php?action_kouhyou_detail_004_kani=true&JigyosyoCd=3950480024-00&ServiceCd=160&Type=search", "url2": "http://www.chisio-group.or.jp" }, "geometry": { "type": "Point", "coordinates": [ 133.6163037, 33.5902185 ] } },
{ "type": "Feature", "properties": { "内容": "介護老人保健施設　ケアポート南国通所リハビリテーション【通所リハビリテーション】高知県南国市大埇乙１０６９－１", "url": "https://www.kaigokensaku.mhlw.go.jp/39/index.php?action_kouhyou_detail_004_kani=true&JigyosyoCd=3950480016-00&ServiceCd=160&Type=search", "url2": "http://www.toujukai.jp" }, "geometry": { "type": "Point", "coordinates": [ 133.6487955, 33.5650592 ] } },
{ "type": "Feature", "properties": { "内容": "介護老人保健施設　JAいなほ【通所リハビリテーション】高知県南国市明見字八反田６４５－１", "url": "https://www.kaigokensaku.mhlw.go.jp/39/index.php?action_kouhyou_detail_004_kani=true&JigyosyoCd=3950480032-00&ServiceCd=160&Type=search", "url2": "http://www.kouseiren.ja-kochi.or.jp/inaho/index.html" }, "geometry": { "type": "Point", "coordinates": [ 133.624693444396968, 33.569047096886806 ] } },
{ "type": "Feature", "properties": { "内容": "医療法人　地塩会　南国中央病院【通所リハビリテーション】高知県南国市後免町３丁目１番２７号", "url": "https://www.kaigokensaku.mhlw.go.jp/39/index.php?action_kouhyou_detail_004_kani=true&JigyosyoCd=3910410632-00&ServiceCd=160&Type=search", "url2": "http://www.chisio-group.or.jp" }, "geometry": { "type": "Point", "coordinates": [ 133.648162977909806, 33.575785992598036 ] } },
{ "type": "Feature", "properties": { "内容": "井上病院　指定通所リハビリテーション【通所リハビリテーション】高知県土佐市高岡町甲2044番地", "url": "https://www.kaigokensaku.mhlw.go.jp/39/index.php?action_kouhyou_detail_004_kani=true&JigyosyoCd=3910510308-00&ServiceCd=160&Type=search", "url2": "https://www.tosa-inouehp.jp/index.htm" }, "geometry": { "type": "Point", "coordinates": [ 133.4270339, 33.4962278 ] } },
{ "type": "Feature", "properties": { "内容": "介護老人保健施設　ヴィラフローラ【通所リハビリテーション】土佐市新居274－1", "url": "https://www.kaigokensaku.mhlw.go.jp/39/index.php?action_kouhyou_detail_004_kani=true&JigyosyoCd=3950580013-00&ServiceCd=160&Type=search", "url2": "http://siragiku.jp/Vila_flora/villa_flora_top.html" }, "geometry": { "type": "Point", "coordinates": [ 133.458787499999971, 33.4492283 ] } },
{ "type": "Feature", "properties": { "内容": "ケアビレッジすさき　通所リハビリテーション【通所リハビリテーション】高知県須崎市多ノ郷甲5741", "url": "https://www.kaigokensaku.mhlw.go.jp/39/index.php?action_kouhyou_detail_004_kani=true&JigyosyoCd=3970600247-00&ServiceCd=160&Type=search", "url2": "http://kochi-mizuho.com/" }, "geometry": { "type": "Point", "coordinates": [ 133.2839166, 33.4091441 ] } },
{ "type": "Feature", "properties": { "内容": "老人保健施設　暖流【通所リハビリテーション】須崎市緑町4-30", "url": "https://www.kaigokensaku.mhlw.go.jp/39/index.php?action_kouhyou_detail_004_kani=true&JigyosyoCd=3950680011-00&ServiceCd=160&Type=search", "url2": "http://susaki-kuroshio-hp.or.jp/publics/index/13/" }, "geometry": { "type": "Point", "coordinates": [ 133.2894632, 33.4120161 ] } },
{ "type": "Feature", "properties": { "内容": "老人保健施設　ぎんなん荘【通所リハビリテーション】宿毛市平田町戸内１８０２", "url": "https://www.kaigokensaku.mhlw.go.jp/39/index.php?action_kouhyou_detail_004_kani=true&JigyosyoCd=3950980015-00&ServiceCd=160&Type=search", "url2": "http://goseikai.jp/" }, "geometry": { "type": "Point", "coordinates": [ 132.797928800000022, 32.9593806 ] } },
{ "type": "Feature", "properties": { "内容": "社会医療法人長生会　大井田病院　通所リハビリテーション【通所リハビリテーション】高知県宿毛市中央８丁目３番６号", "url": "https://www.kaigokensaku.mhlw.go.jp/39/index.php?action_kouhyou_detail_004_kani=true&JigyosyoCd=3910910219-00&ServiceCd=160&Type=search", "url2": "http://www.ooida-hp.net" }, "geometry": { "type": "Point", "coordinates": [ 132.731096500000035, 32.9349785 ] } },
{ "type": "Feature", "properties": { "内容": "医療法人聖真会渭南病院【通所リハビリテーション】高知県土佐清水市越前町6－1", "url": "https://www.kaigokensaku.mhlw.go.jp/39/index.php?action_kouhyou_detail_004_kani=true&JigyosyoCd=3910810799-00&ServiceCd=160&Type=search", "url2": "http://www.inan-hp.jp" }, "geometry": { "type": "Point", "coordinates": [ 132.951144900000031, 32.7814611 ] } },
{ "type": "Feature", "properties": { "内容": "介護老人保健施設　サンケアしみず【通所リハビリテーション】高知県土佐清水市天神町14-18", "url": "https://www.kaigokensaku.mhlw.go.jp/39/index.php?action_kouhyou_detail_004_kani=true&JigyosyoCd=3950880017-00&ServiceCd=160&Type=search", "url2": "http://matsutani-hp.or.jp/" }, "geometry": { "type": "Point", "coordinates": [ 132.9543529, 32.7827583 ] } },
{ "type": "Feature", "properties": { "内容": "通所リハビリテーション「げんき」【通所リハビリテーション】高知県土佐清水市旭町18番号71", "url": "https://www.kaigokensaku.mhlw.go.jp/39/index.php?action_kouhyou_detail_004_kani=true&JigyosyoCd=3910810948-00&ServiceCd=160&Type=search", "url2": "ashizuribyouin.com" }, "geometry": { "type": "Point", "coordinates": [ 132.9613851, 32.7782828 ] } },
{ "type": "Feature", "properties": { "内容": "介護医療院もりした　短時間通所リハビリテーション【通所リハビリテーション】高知県四万十市中村一条通2丁目44番地", "url": "https://www.kaigokensaku.mhlw.go.jp/39/index.php?action_kouhyou_detail_004_kani=true&JigyosyoCd=39B1000026-00&ServiceCd=160&Type=search", "url2": "http:www.morishitahp.jp/" }, "geometry": { "type": "Point", "coordinates": [ 132.93651464376407, 32.991928723308966 ] } },
{ "type": "Feature", "properties": { "内容": "介護老人保健施設　いろは館【通所リハビリテーション】高知県四万十市不破巾着島2050-20", "url": "https://www.kaigokensaku.mhlw.go.jp/39/index.php?action_kouhyou_detail_004_kani=true&JigyosyoCd=3950780027-00&ServiceCd=160&Type=search", "url2": null }, "geometry": { "type": "Point", "coordinates": [ 132.928230697084018, 32.981158611590622 ] } },
{ "type": "Feature", "properties": { "内容": "老人保健施設　治優園【通所リハビリテーション】高知県四万十市中村愛宕町２８番地在宅総合ケアセンター治優園", "url": "https://www.kaigokensaku.mhlw.go.jp/39/index.php?action_kouhyou_detail_004_kani=true&JigyosyoCd=3950780019-00&ServiceCd=160&Type=search", "url2": "https://kuroshiofukushikai.com/" }, "geometry": { "type": "Point", "coordinates": [ 132.933257700000013, 32.9938477 ] } },
{ "type": "Feature", "properties": { "内容": "老人保健施設　しお風【通所リハビリテーション】高知県香南市赤岡町１１８６－１", "url": "https://www.kaigokensaku.mhlw.go.jp/39/index.php?action_kouhyou_detail_004_kani=true&JigyosyoCd=3952180036-00&ServiceCd=160&Type=search", "url2": "https://www.kounankai.jp/" }, "geometry": { "type": "Point", "coordinates": [ 133.730138899999929, 33.54697 ] } },
{ "type": "Feature", "properties": { "内容": "老人保健施設　あいの里【通所リハビリテーション】高知県香南市香我美町岸本３２８－１７４", "url": "https://www.kaigokensaku.mhlw.go.jp/39/index.php?action_kouhyou_detail_004_kani=true&JigyosyoCd=3952180028-00&ServiceCd=160&Type=search", "url2": "https://www.chisio-group.or.jp/ainosato/" }, "geometry": { "type": "Point", "coordinates": [ 133.731544500000041, 33.5393098 ] } },
{ "type": "Feature", "properties": { "内容": "介護老人保健施設　とさやまだファミリア【通所リハビリテーション】高知県香美市土佐山田町548", "url": "https://www.kaigokensaku.mhlw.go.jp/39/index.php?action_kouhyou_detail_004_kani=true&JigyosyoCd=3952180010-00&ServiceCd=160&Type=search", "url2": "http://www.welplaza.or.jp" }, "geometry": { "type": "Point", "coordinates": [ 133.675557, 33.6085984 ] } },
{ "type": "Feature", "properties": { "内容": "通所リハビリテーション　さの【通所リハビリテーション】高知県香美市土佐山田町東本町3丁目２－４１佐野内科リハビリテーションクリニック", "url": "https://www.kaigokensaku.mhlw.go.jp/39/index.php?action_kouhyou_detail_004_kani=true&JigyosyoCd=3911110116-00&ServiceCd=160&Type=search", "url2": null }, "geometry": { "type": "Point", "coordinates": [ 133.688639100000046, 33.6069292 ] } },
{ "type": "Feature", "properties": { "内容": "医療法人岩河会　岩河整形外科　通所リハビリテーション【通所リハビリテーション】高知県香美市土佐山田町百石町2丁目4番20号", "url": "https://www.kaigokensaku.mhlw.go.jp/39/index.php?action_kouhyou_detail_004_kani=true&JigyosyoCd=3911110140-00&ServiceCd=160&Type=search", "url2": "https://www.iwagawakai.com" }, "geometry": { "type": "Point", "coordinates": [ 133.6973645, 33.6089315 ] } },
{ "type": "Feature", "properties": { "内容": "介護老人保健施設　あじさいの里【通所リハビリテーション】高知県香美市香北町美良布1317番地", "url": "https://www.kaigokensaku.mhlw.go.jp/39/index.php?action_kouhyou_detail_004_kani=true&JigyosyoCd=3952180044-00&ServiceCd=160&Type=search", "url2": "https://www.iwagawakai.com/" }, "geometry": { "type": "Point", "coordinates": [ 133.779593100000056, 33.6482639 ] } },
{ "type": "Feature", "properties": { "内容": "介護老人保健施設　ヘルシーケアなはり【通所リハビリテーション】高知県安芸郡奈半利町乙3740－1", "url": "https://www.kaigokensaku.mhlw.go.jp/39/index.php?action_kouhyou_detail_004_kani=true&JigyosyoCd=3952080012-00&ServiceCd=160&Type=search", "url2": "http://www.ccc-21.co.jp/jinchikai/" }, "geometry": { "type": "Point", "coordinates": [ 134.0277428, 33.4366433 ] } },
{ "type": "Feature", "properties": { "内容": "通所リハビリテーション　たの【通所リハビリテーション】高知県安芸郡田野町（その他）１４１４－1田野病院", "url": "https://www.kaigokensaku.mhlw.go.jp/39/index.php?action_kouhyou_detail_004_kani=true&JigyosyoCd=3912010745-00&ServiceCd=160&Type=search", "url2": "http://usui-kai.com/kaigo/tuusho-rihabiri/" }, "geometry": { "type": "Point", "coordinates": [ 134.008876, 33.4290942 ] } },
{ "type": "Feature", "properties": { "内容": "介護老人保健施設リゾートヒルやわらぎ【通所リハビリテーション】高知県安芸郡芸西村和食甲４２４９", "url": "https://www.kaigokensaku.mhlw.go.jp/39/index.php?action_kouhyou_detail_004_kani=true&JigyosyoCd=3952080038-00&ServiceCd=160&Type=search", "url2": "https：//okura-kai.com/" }, "geometry": { "type": "Point", "coordinates": [ 133.820118500000035, 33.5210571 ] } },
{ "type": "Feature", "properties": { "内容": "本山町　指定通所リハビリテーション【通所リハビリテーション】高知県長岡郡本山町本山600番地", "url": "https://www.kaigokensaku.mhlw.go.jp/39/index.php?action_kouhyou_detail_004_kani=true&JigyosyoCd=3972200079-00&ServiceCd=160&Type=search", "url2": null }, "geometry": { "type": "Point", "coordinates": [ 133.589407596720804, 33.759610560599448 ] } },
{ "type": "Feature", "properties": { "内容": "いの町立介護老人保健施設仁淀清流苑【通所リハビリテーション】高知県吾川郡いの町1482-2", "url": "https://www.kaigokensaku.mhlw.go.jp/39/index.php?action_kouhyou_detail_004_kani=true&JigyosyoCd=3952480022-00&ServiceCd=160&Type=search", "url2": "http://www.town.ino.kochi.jp/niyodo-hospital/seiryuen.html" }, "geometry": { "type": "Point", "coordinates": [ 133.432886300000064, 33.5477047 ] } },
{ "type": "Feature", "properties": { "内容": "通所リハビリテーション　せいわ【通所リハビリテーション】高知県高岡郡佐川町乙１７７７", "url": "https://www.kaigokensaku.mhlw.go.jp/39/index.php?action_kouhyou_detail_004_kani=true&JigyosyoCd=3912511064-00&ServiceCd=160&Type=search", "url2": "http://www.seiunkai.com/zaitaku/tuusyo.html" }, "geometry": { "type": "Point", "coordinates": [ 133.2804, 33.506582 ] } },
{ "type": "Feature", "properties": { "内容": "佐川町　デイケアセンター　さくら荘【通所リハビリテーション】高知県高岡郡佐川町甲１６８８－１", "url": "https://www.kaigokensaku.mhlw.go.jp/39/index.php?action_kouhyou_detail_004_kani=true&JigyosyoCd=3912510025-00&ServiceCd=160&Type=search", "url2": null }, "geometry": { "type": "Point", "coordinates": [ 133.286394, 33.5034381 ] } },
{ "type": "Feature", "properties": { "内容": "医療法人社団若鮎　北島病院【通所リハビリテーション】高岡郡越知町越知甲1662", "url": "https://www.kaigokensaku.mhlw.go.jp/39/index.php?action_kouhyou_detail_004_kani=true&JigyosyoCd=3912511403-00&ServiceCd=160&Type=search", "url2": "http://www.kitajima-hp.com" }, "geometry": { "type": "Point", "coordinates": [ 133.253160900000012, 33.5303999 ] } },
{ "type": "Feature", "properties": { "内容": "介護老人保健施設　ライブリーハウス輝【通所リハビリテーション】高知県高岡郡越知町越知甲１６６７番地３", "url": "https://www.kaigokensaku.mhlw.go.jp/39/index.php?action_kouhyou_detail_004_kani=true&JigyosyoCd=3952580011-00&ServiceCd=160&Type=search", "url2": "http://www.kitajima-hp.com" }, "geometry": { "type": "Point", "coordinates": [ 133.253018500000053, 33.5307477 ] } },
{ "type": "Feature", "properties": { "内容": "前田病院　デイセンター【通所リハビリテーション】高知県高岡郡越知町越知甲２１３３", "url": "https://www.kaigokensaku.mhlw.go.jp/39/index.php?action_kouhyou_detail_004_kani=true&JigyosyoCd=3912511411-00&ServiceCd=160&Type=search", "url2": "https://maeda-kai-ochi.jp/" }, "geometry": { "type": "Point", "coordinates": [ 133.249317100000013, 33.5307327 ] } },
{ "type": "Feature", "properties": { "内容": "老人デイ・ケア　シルバーコスモス【通所リハビリテーション】高知県高岡郡日高村本郷滝の前７", "url": "https://www.kaigokensaku.mhlw.go.jp/39/index.php?action_kouhyou_detail_004_kani=true&JigyosyoCd=3912511577-00&ServiceCd=160&Type=search", "url2": "https://hidakaclinic.jinseikai.kochi.jp/" }, "geometry": { "type": "Point", "coordinates": [ 133.373994499999981, 33.5349882 ] } },
{ "type": "Feature", "properties": { "内容": "四万十町国民健康保険大正診療所【通所リハビリテーション】高知県高岡郡四万十町大正４５９－１", "url": "https://www.kaigokensaku.mhlw.go.jp/39/index.php?action_kouhyou_detail_004_kani=true&JigyosyoCd=3912511791-00&ServiceCd=160&Type=search", "url2": null }, "geometry": { "type": "Point", "coordinates": [ 132.973584599999981, 33.1988344 ] } }
]
}
