{
"type": "FeatureCollection",
"name": "geo_39_小規模多機能型居宅介護",
"crs": { "type": "name", "properties": { "name": "urn:ogc:def:crs:OGC:1.3:CRS84" } },
"features": [
{ "type": "Feature", "properties": { "内容": "小規模多機能ホーム　ゆい【小規模多機能型居宅介護】土居町7番1号", "url": "https://www.kaigokensaku.mhlw.go.jp/39/index.php?action_kouhyou_detail_004_kani=true&JigyosyoCd=3990101143-00&ServiceCd=730&Type=search", "url2": "https://murumu.net/yui/" }, "geometry": { "type": "Point", "coordinates": [ 133.544317676206589, 33.555223283602523 ] } },
{ "type": "Feature", "properties": { "内容": "小規模多機能居宅介護事業所　ほのか【小規模多機能型居宅介護】高知市春野町南ヶ丘1丁目8番地２", "url": "https://www.kaigokensaku.mhlw.go.jp/39/index.php?action_kouhyou_detail_004_kani=true&JigyosyoCd=3990100194-00&ServiceCd=730&Type=search", "url2": "https://takaharufukushikai.com/" }, "geometry": { "type": "Point", "coordinates": [ 133.519578200000069, 33.5148139 ] } },
{ "type": "Feature", "properties": { "内容": "小規模多機能型居宅介護しおた【小規模多機能型居宅介護】高知県高知市塩田町１９－２６", "url": "https://www.kaigokensaku.mhlw.go.jp/39/index.php?action_kouhyou_detail_004_kani=true&JigyosyoCd=3990100558-00&ServiceCd=730&Type=search", "url2": "https://www.shimazuhp.jp/other_site/shiota.html" }, "geometry": { "type": "Point", "coordinates": [ 133.546726900000067, 33.5725439 ] } },
{ "type": "Feature", "properties": { "内容": "小規模多機能ホームぼっちり横丁【小規模多機能型居宅介護】高知県高知市一宮西町３丁目３１番２５号", "url": "https://www.kaigokensaku.mhlw.go.jp/39/index.php?action_kouhyou_detail_004_kani=true&JigyosyoCd=3990100467-00&ServiceCd=730&Type=search", "url2": "http://care-net.biz/39/hata-dialife/" }, "geometry": { "type": "Point", "coordinates": [ 133.573463400000037, 33.5881757 ] } },
{ "type": "Feature", "properties": { "内容": "指定小規模多機能型居宅介護事業所　えがおの家【小規模多機能型居宅介護】高知市瀬戸２丁目１３番４７号", "url": "https://www.kaigokensaku.mhlw.go.jp/39/index.php?action_kouhyou_detail_004_kani=true&JigyosyoCd=3970101923-00&ServiceCd=730&Type=search", "url2": "http://www.kochi-web.com/hp1/care/html1/html/egao.html" }, "geometry": { "type": "Point", "coordinates": [ 133.545040800000038, 33.5048271 ] } },
{ "type": "Feature", "properties": { "内容": "小規模多機能型居宅介護　わかくさ【小規模多機能型居宅介護】高知市若草南町22-25在宅介護センターわかくさ", "url": "https://www.kaigokensaku.mhlw.go.jp/39/index.php?action_kouhyou_detail_004_kani=true&JigyosyoCd=3990100244-00&ServiceCd=730&Type=search", "url2": "http://www.nagaisakanokai.com/wakakusa/" }, "geometry": { "type": "Point", "coordinates": [ 133.487342600000034, 33.540035 ] } },
{ "type": "Feature", "properties": { "内容": "小規模多機能型居宅介護事業所　こより【小規模多機能型居宅介護】高知県高知市西塚ノ原１３５-３", "url": "https://www.kaigokensaku.mhlw.go.jp/39/index.php?action_kouhyou_detail_004_kani=true&JigyosyoCd=3990100384-00&ServiceCd=730&Type=search", "url2": null }, "geometry": { "type": "Point", "coordinates": [ 133.488988468717281, 33.564131444208094 ] } },
{ "type": "Feature", "properties": { "内容": "小規模多機能型居宅介護事業所　さいわい【小規模多機能型居宅介護】高知県高知市幸町６番４号", "url": "https://www.kaigokensaku.mhlw.go.jp/39/index.php?action_kouhyou_detail_004_kani=true&JigyosyoCd=3990100095-00&ServiceCd=730&Type=search", "url2": "http://f-shizenmura.or.jp" }, "geometry": { "type": "Point", "coordinates": [ 133.530134147867813, 33.568056755970566 ] } },
{ "type": "Feature", "properties": { "内容": "小規模多機能型居宅介護事業所　サイタ【小規模多機能型居宅介護】高知県高知市朝倉甲２５-１在宅介護支援事業所　サイタ", "url": "https://www.kaigokensaku.mhlw.go.jp/39/index.php?action_kouhyou_detail_004_kani=true&JigyosyoCd=3990100590-00&ServiceCd=730&Type=search", "url2": "http://www.thc.or.jp/" }, "geometry": { "type": "Point", "coordinates": [ 133.499760599999945, 33.5403187 ] } },
{ "type": "Feature", "properties": { "内容": "小規模多機能医療館あさくら西【小規模多機能型居宅介護】高知県高知市朝倉南町3-55", "url": "https://www.kaigokensaku.mhlw.go.jp/39/index.php?action_kouhyou_detail_004_kani=true&JigyosyoCd=3990101788-00&ServiceCd=730&Type=search", "url2": "https://mizuhogroup.jp/vacancy_info/cv_asakuranishi/cv_asakuranishi_syokibo/" }, "geometry": { "type": "Point", "coordinates": [ 133.4939708, 33.5434067 ] } },
{ "type": "Feature", "properties": { "内容": "小規模多機能型居宅介護事業所　トマトの樹【小規模多機能型居宅介護】高知市介良乙８８３－２", "url": "https://www.kaigokensaku.mhlw.go.jp/39/index.php?action_kouhyou_detail_004_kani=true&JigyosyoCd=3990100053-00&ServiceCd=730&Type=search", "url2": "http://www.netfamily.jp/service_sm_top.html" }, "geometry": { "type": "Point", "coordinates": [ 133.598072199999933, 33.5643129 ] } },
{ "type": "Feature", "properties": { "内容": "小規模多機能型居宅介護事業所ひかり【小規模多機能型居宅介護】高知県高知市神田2159-1", "url": "https://www.kaigokensaku.mhlw.go.jp/39/index.php?action_kouhyou_detail_004_kani=true&JigyosyoCd=3990100947-00&ServiceCd=730&Type=search", "url2": null }, "geometry": { "type": "Point", "coordinates": [ 133.5194033, 33.541842400000021 ] } },
{ "type": "Feature", "properties": { "内容": "小規模多機能型居宅介護事業所　大平山【小規模多機能型居宅介護】高知県高知市仁井田4350-2誠内科２F", "url": "https://www.kaigokensaku.mhlw.go.jp/39/index.php?action_kouhyou_detail_004_kani=true&JigyosyoCd=3990100491-00&ServiceCd=730&Type=search", "url2": null }, "geometry": { "type": "Point", "coordinates": [ 133.572349, 33.5171678 ] } },
{ "type": "Feature", "properties": { "内容": "小規模多機能型居宅介護事業所かすみ草【小規模多機能型居宅介護】高知市長浜6557-29", "url": "https://www.kaigokensaku.mhlw.go.jp/39/index.php?action_kouhyou_detail_004_kani=true&JigyosyoCd=3990100475-00&ServiceCd=730&Type=search", "url2": null }, "geometry": { "type": "Point", "coordinates": [ 133.541039950926233, 33.497923105071969 ] } },
{ "type": "Feature", "properties": { "内容": "小規模多機能型居宅介護事業所ケセラ介良【小規模多機能型居宅介護】高知県高知市介良乙820-1", "url": "https://www.kaigokensaku.mhlw.go.jp/39/index.php?action_kouhyou_detail_004_kani=true&JigyosyoCd=3990101291-00&ServiceCd=730&Type=search", "url2": "https://fuku-no-tane.com/kesera-kera/" }, "geometry": { "type": "Point", "coordinates": [ 133.6006475, 33.5630843 ] } },
{ "type": "Feature", "properties": { "内容": "小規模多機能型居宅介護施設　絆【小規模多機能型居宅介護】高知県室戸市元甲208番地", "url": "https://www.kaigokensaku.mhlw.go.jp/39/index.php?action_kouhyou_detail_004_kani=true&JigyosyoCd=3990200028-00&ServiceCd=730&Type=search", "url2": "https://tokumasukougyou.com" }, "geometry": { "type": "Point", "coordinates": [ 134.133597301977488, 33.299461341536734 ] } },
{ "type": "Feature", "properties": { "内容": "小規模多機能型居宅介護施設　あるて【小規模多機能型居宅介護】高知県室戸市羽根町乙1137番地", "url": "https://www.kaigokensaku.mhlw.go.jp/39/index.php?action_kouhyou_detail_004_kani=true&JigyosyoCd=3990200010-00&ServiceCd=730&Type=search", "url2": "https://www.arute-star.com/" }, "geometry": { "type": "Point", "coordinates": [ 134.062143399999968, 33.3665407 ] } },
{ "type": "Feature", "properties": { "内容": "小規模多機能型居宅介護事業所　南風【小規模多機能型居宅介護】安芸市西浜2373", "url": "https://www.kaigokensaku.mhlw.go.jp/39/index.php?action_kouhyou_detail_004_kani=true&JigyosyoCd=3990300018-00&ServiceCd=730&Type=search", "url2": "http://www.tosakouseikai.or.jp/nanpu/" }, "geometry": { "type": "Point", "coordinates": [ 133.889955886663728, 33.502672579364607 ] } },
{ "type": "Feature", "properties": { "内容": "こじゃリハらいふ【小規模多機能型居宅介護】高知県南国市物部131-1小規模多機能型居宅介護　こじゃリハらいふ", "url": "https://www.kaigokensaku.mhlw.go.jp/39/index.php?action_kouhyou_detail_004_kani=true&JigyosyoCd=3990400065-00&ServiceCd=730&Type=search", "url2": "https://rsb14267.wixsite.com/lisus/blank-7" }, "geometry": { "type": "Point", "coordinates": [ 133.678162400000019, 33.5658588 ] } },
{ "type": "Feature", "properties": { "内容": "小規模多機能型居宅介護事業所　みそら【小規模多機能型居宅介護】南国市立田1544-2", "url": "https://www.kaigokensaku.mhlw.go.jp/39/index.php?action_kouhyou_detail_004_kani=true&JigyosyoCd=3990400032-00&ServiceCd=730&Type=search", "url2": "https://tn-misora.co.jp" }, "geometry": { "type": "Point", "coordinates": [ 133.673909392509472, 33.568812344350697 ] } },
{ "type": "Feature", "properties": { "内容": "小規模多機能型居宅介護事業所　　天の川【小規模多機能型居宅介護】中村大橋通り6-7-20天の川", "url": "https://www.kaigokensaku.mhlw.go.jp/39/index.php?action_kouhyou_detail_004_kani=true&JigyosyoCd=3991000088-00&ServiceCd=730&Type=search", "url2": null }, "geometry": { "type": "Point", "coordinates": [ 132.938257669311497, 32.989477086538876 ] } },
{ "type": "Feature", "properties": { "内容": "小規模多機能施設えびす【小規模多機能型居宅介護】高知県　四万十市　国見　929-1", "url": "https://www.kaigokensaku.mhlw.go.jp/39/index.php?action_kouhyou_detail_004_kani=true&JigyosyoCd=3991000039-00&ServiceCd=730&Type=search", "url2": null }, "geometry": { "type": "Point", "coordinates": [ 132.87933750000002, 32.9799706 ] } },
{ "type": "Feature", "properties": { "内容": "小規模多機能ホームいろは【小規模多機能型居宅介護】高知県香南市夜須町坪井1452-2", "url": "https://www.kaigokensaku.mhlw.go.jp/39/index.php?action_kouhyou_detail_004_kani=true&JigyosyoCd=3991100078-00&ServiceCd=730&Type=search", "url2": "https://www.big-advance.site/s/168/1499" }, "geometry": { "type": "Point", "coordinates": [ 133.75370231480349, 33.544502411928363 ] } },
{ "type": "Feature", "properties": { "内容": "小規模多機能ホームみそら山田【小規模多機能型居宅介護】高知県香美市土佐山田町楠目1465", "url": "https://www.kaigokensaku.mhlw.go.jp/39/index.php?action_kouhyou_detail_004_kani=true&JigyosyoCd=3991200050-00&ServiceCd=730&Type=search", "url2": "tn-misora.co.jp/smarts/index/0/" }, "geometry": { "type": "Point", "coordinates": [ 133.708373299999948, 33.6120032 ] } },
{ "type": "Feature", "properties": { "内容": "小規模多機能型居宅介護けいあい【小規模多機能型居宅介護】高知県香美市香北町美良布899", "url": "https://www.kaigokensaku.mhlw.go.jp/39/index.php?action_kouhyou_detail_004_kani=true&JigyosyoCd=3991200043-00&ServiceCd=730&Type=search", "url2": null }, "geometry": { "type": "Point", "coordinates": [ 133.7797931, 33.6527245 ] } },
{ "type": "Feature", "properties": { "内容": "小規模多機能型居宅介護和ごころ【小規模多機能型居宅介護】安芸郡田野町1915-1", "url": "https://www.kaigokensaku.mhlw.go.jp/39/index.php?action_kouhyou_detail_004_kani=true&JigyosyoCd=3992000301-00&ServiceCd=730&Type=search", "url2": null }, "geometry": { "type": "Point", "coordinates": [ 134.008107099999989, 33.4279337 ] } },
{ "type": "Feature", "properties": { "内容": "小規模多機能型居宅介護事業所　えだがわ【小規模多機能型居宅介護】高知県吾川郡いの町枝川2450-57", "url": "https://www.kaigokensaku.mhlw.go.jp/39/index.php?action_kouhyou_detail_004_kani=true&JigyosyoCd=3992400238-00&ServiceCd=730&Type=search", "url2": null }, "geometry": { "type": "Point", "coordinates": [ 133.45520590000001, 33.5533626 ] } },
{ "type": "Feature", "properties": { "内容": "小規模多機能型居宅介護事業所　新別の里【小規模多機能型居宅介護】高知県吾川郡いの町小川新別３４０番地１", "url": "https://www.kaigokensaku.mhlw.go.jp/39/index.php?action_kouhyou_detail_004_kani=true&JigyosyoCd=3992400089-00&ServiceCd=730&Type=search", "url2": null }, "geometry": { "type": "Point", "coordinates": [ 133.265489792082235, 33.626534590250955 ] } },
{ "type": "Feature", "properties": { "内容": "小規模多機能型居宅事業所　壽幸園　サテライトいの【小規模多機能型居宅介護】高知県吾川郡いの町駅前町14", "url": "https://www.kaigokensaku.mhlw.go.jp/39/index.php?action_kouhyou_detail_004_kani=true&JigyosyoCd=3992400188-00&ServiceCd=730&Type=search", "url2": "https://www.inofukushikai.com/" }, "geometry": { "type": "Point", "coordinates": [ 133.4323609, 33.5487273 ] } },
{ "type": "Feature", "properties": { "内容": "小規模多機能型居宅介護事業所壽幸園【小規模多機能型居宅介護】高知県吾川郡いの町天王南6丁目1-1", "url": "https://www.kaigokensaku.mhlw.go.jp/39/index.php?action_kouhyou_detail_004_kani=true&JigyosyoCd=3992400154-00&ServiceCd=730&Type=search", "url2": "http://www.inofukushikai.com/" }, "geometry": { "type": "Point", "coordinates": [ 133.44974030000003, 33.531862600000025 ] } },
{ "type": "Feature", "properties": { "内容": "小規模多機能型居宅介護青空【小規模多機能型居宅介護】高知県吾川郡いの町3611番地5", "url": "https://www.kaigokensaku.mhlw.go.jp/39/index.php?action_kouhyou_detail_004_kani=true&JigyosyoCd=3992400220-00&ServiceCd=730&Type=search", "url2": "http://ishikawahp.com" }, "geometry": { "type": "Point", "coordinates": [ 133.425104299999987, 33.5486309 ] } },
{ "type": "Feature", "properties": { "内容": "小規模多機能型居宅介護事業所　北の里【小規模多機能型居宅介護】高岡郡中土佐町大野見寺野109", "url": "https://www.kaigokensaku.mhlw.go.jp/39/index.php?action_kouhyou_detail_004_kani=true&JigyosyoCd=3992500094-00&ServiceCd=730&Type=search", "url2": "https://www.kitanosato2012.co.jp/" }, "geometry": { "type": "Point", "coordinates": [ 133.128945599999952, 33.3817183 ] } },
{ "type": "Feature", "properties": { "内容": "小規模多機能型居宅介護事業所　いちょうの丘笹場【小規模多機能型居宅介護】高知県高岡郡中土佐町上ノ加江5163-4", "url": "https://www.kaigokensaku.mhlw.go.jp/39/index.php?action_kouhyou_detail_004_kani=true&JigyosyoCd=3992500268-00&ServiceCd=730&Type=search", "url2": "http://www.nakatosa-syakyo.or.jp" }, "geometry": { "type": "Point", "coordinates": [ 133.240853, 33.3041359 ] } },
{ "type": "Feature", "properties": { "内容": "佐川町社会福祉協議会共生型小規模多機能ぷらっとホームさかわ【小規模多機能型居宅介護】高知県高岡郡佐川町甲377番１地域共生交流拠点ぷらっとホームさかわ", "url": "https://www.kaigokensaku.mhlw.go.jp/39/index.php?action_kouhyou_detail_004_kani=true&JigyosyoCd=3992500235-00&ServiceCd=730&Type=search", "url2": "https://sakawa-shakyo.jp/" }, "geometry": { "type": "Point", "coordinates": [ 133.29323930000001, 33.5006966 ] } },
{ "type": "Feature", "properties": { "内容": "小規模多機能型居宅介護事業所かいな【小規模多機能型居宅介護】高知県高岡郡佐川町字関田乙3358-6", "url": "https://www.kaigokensaku.mhlw.go.jp/39/index.php?action_kouhyou_detail_004_kani=true&JigyosyoCd=3992500060-00&ServiceCd=730&Type=search", "url2": null }, "geometry": { "type": "Point", "coordinates": [ 133.29368243928684, 33.511225009073904 ] } },
{ "type": "Feature", "properties": { "内容": "小規模多機能ホーム香月【小規模多機能型居宅介護】高知県高岡郡四万十町香月が丘７番３０号", "url": "https://www.kaigokensaku.mhlw.go.jp/39/index.php?action_kouhyou_detail_004_kani=true&JigyosyoCd=3992500177-00&ServiceCd=730&Type=search", "url2": "http://shimanto-shakyo.jp/" }, "geometry": { "type": "Point", "coordinates": [ 133.130541200000039, 33.215944 ] } },
{ "type": "Feature", "properties": { "内容": "小規模多機能型居宅介護おおがた【小規模多機能型居宅介護】高知県幡多郡黒潮町入野３０１７－２", "url": "https://www.kaigokensaku.mhlw.go.jp/39/index.php?action_kouhyou_detail_004_kani=true&JigyosyoCd=3992600068-00&ServiceCd=730&Type=search", "url2": "https://www.hatabyouin.net/oogata.html" }, "geometry": { "type": "Point", "coordinates": [ 133.013455099999987, 33.0323408 ] } }
]
}
