{
"type": "FeatureCollection",
"name": "geo_39_看護小規模多機能型居宅介護（複合型サービス）",
"crs": { "type": "name", "properties": { "name": "urn:ogc:def:crs:OGC:1.3:CRS84" } },
"features": [
{ "type": "Feature", "properties": { "内容": "医療法人　山口会　看護小規模多機能型居宅介護こうせい【看護小規模多機能型居宅介護（複合型サービス）】高知県高知市葛島２丁目５番１２号", "url": "https://www.kaigokensaku.mhlw.go.jp/39/index.php?action_kouhyou_detail_004_kani=true&JigyosyoCd=3990100798-00&ServiceCd=&Type=search", "url2": "http://www.kochi-koseihp.jp/" }, "geometry": { "type": "Point", "coordinates": [ 133.57230266627036, 33.557876783648162 ] } },
{ "type": "Feature", "properties": { "内容": "看護小規模多機能型居宅介護　であい【看護小規模多機能型居宅介護（複合型サービス）】高知県高知市八反町1丁目3番8号", "url": "https://www.kaigokensaku.mhlw.go.jp/39/index.php?action_kouhyou_detail_004_kani=true&JigyosyoCd=3990100665-00&ServiceCd=&Type=search", "url2": "http://www.kochi-web.com/hp1/care/html1/html/egao.html" }, "geometry": { "type": "Point", "coordinates": [ 133.524145099999942, 33.5668877 ] } },
{ "type": "Feature", "properties": { "内容": "看護小規模多機能ホームあさくら【看護小規模多機能型居宅介護（複合型サービス）】高知県高知市朝倉丙533-1地域密着型複合施設", "url": "https://www.kaigokensaku.mhlw.go.jp/39/index.php?action_kouhyou_detail_004_kani=true&JigyosyoCd=3990101044-00&ServiceCd=&Type=search", "url2": "https://mizuhogroup.jp" }, "geometry": { "type": "Point", "coordinates": [ 133.486472, 33.555672 ] } },
{ "type": "Feature", "properties": { "内容": "IMC看護小規模多機能一宮南【看護小規模多機能型居宅介護（複合型サービス）】高知県高知市一宮南町1丁目6-42", "url": "https://www.kaigokensaku.mhlw.go.jp/39/index.php?action_kouhyou_detail_004_kani=true&JigyosyoCd=3990101481-00&ServiceCd=&Type=search", "url2": "https://imc-ls.com" }, "geometry": { "type": "Point", "coordinates": [ 133.567946122753909, 33.579375853138288 ] } },
{ "type": "Feature", "properties": { "内容": "看護小規模多機能型居宅介護事業所かがみ川【看護小規模多機能型居宅介護（複合型サービス）】高知県高知市玉水町３０番１５", "url": "https://www.kaigokensaku.mhlw.go.jp/39/index.php?action_kouhyou_detail_004_kani=true&JigyosyoCd=3990101119-00&ServiceCd=&Type=search", "url2": "http//www.kawamura-hosp.or.jp" }, "geometry": { "type": "Point", "coordinates": [ 133.5155234, 33.5555598 ] } },
{ "type": "Feature", "properties": { "内容": "看護小規模多機能型居宅介護生きがいファームはるの【看護小規模多機能型居宅介護（複合型サービス）】高知県高知市春野町西分695番1", "url": "https://www.kaigokensaku.mhlw.go.jp/39/index.php?action_kouhyou_detail_004_kani=true&JigyosyoCd=3990100640-00&ServiceCd=&Type=search", "url2": "http://furusatokai.or.jp" }, "geometry": { "type": "Point", "coordinates": [ 133.49427811045075, 33.508937576071645 ] } },
{ "type": "Feature", "properties": { "内容": "看護小規模多機能型居宅介護事業所ありがとう【看護小規模多機能型居宅介護（複合型サービス）】高知県高知市横浜西町29番32号", "url": "https://www.kaigokensaku.mhlw.go.jp/39/index.php?action_kouhyou_detail_004_kani=true&JigyosyoCd=3990101150-00&ServiceCd=&Type=search", "url2": "info@arigato.or.jp" }, "geometry": { "type": "Point", "coordinates": [ 133.5392129, 33.5199753 ] } },
{ "type": "Feature", "properties": { "内容": "看護小規模多機能ホームふくい【看護小規模多機能型居宅介護（複合型サービス）】高知県高知市福井町451-1", "url": "https://www.kaigokensaku.mhlw.go.jp/39/index.php?action_kouhyou_detail_004_kani=true&JigyosyoCd=3990101580-00&ServiceCd=&Type=search", "url2": null }, "geometry": { "type": "Point", "coordinates": [ 133.5005825, 33.5742158 ] } },
{ "type": "Feature", "properties": { "内容": "なかやま楽校【看護小規模多機能型居宅介護（複合型サービス）】高知県安芸郡安田町大字正弘１５３２番地", "url": "https://www.kaigokensaku.mhlw.go.jp/39/index.php?action_kouhyou_detail_004_kani=true&JigyosyoCd=3992000319-00&ServiceCd=&Type=search", "url2": "https://nakayamagakko.wixsite.com/website" }, "geometry": { "type": "Point", "coordinates": [ 134.00125605659602, 33.486167734645321 ] } }
]
}
