{
"type": "FeatureCollection",
"name": "geo_39_短期入所療養介護（介護老人保健施設）",
"crs": { "type": "name", "properties": { "name": "urn:ogc:def:crs:OGC:1.3:CRS84" } },
"features": [
{ "type": "Feature", "properties": { "内容": "介護老人保健施設　あったかケアみずき【短期入所療養介護（介護老人保健施設）】高知市一宮中町2丁目９・４", "url": "https://www.kaigokensaku.mhlw.go.jp/39/index.php?action_kouhyou_detail_004_kani=true&JigyosyoCd=3950180061-00&ServiceCd=220&Type=search", "url2": "http://www.attakacaremizuki.jp/" }, "geometry": { "type": "Point", "coordinates": [ 133.572749599999952, 33.5820905 ] } },
{ "type": "Feature", "properties": { "内容": "老人保健施設　あいおい【短期入所療養介護（介護老人保健施設）】高知県高知市相生町１番３５号", "url": "https://www.kaigokensaku.mhlw.go.jp/39/index.php?action_kouhyou_detail_004_kani=true&JigyosyoCd=3950180087-00&ServiceCd=220&Type=search", "url2": "http://www.nonami-kai.com/aioi/" }, "geometry": { "type": "Point", "coordinates": [ 133.544377299999951, 33.5646699 ] } },
{ "type": "Feature", "properties": { "内容": "老人保健施設　シルバーマリン【短期入所療養介護（介護老人保健施設）】仁井田1612-21", "url": "https://www.kaigokensaku.mhlw.go.jp/39/index.php?action_kouhyou_detail_004_kani=true&JigyosyoCd=3950180038-00&ServiceCd=220&Type=search", "url2": "http://www.marine-hosp.jp/groups/silver_marine/" }, "geometry": { "type": "Point", "coordinates": [ 133.57295739999995, 33.514232 ] } },
{ "type": "Feature", "properties": { "内容": "介護老人保健施設　梅壽苑【短期入所療養介護（介護老人保健施設）】高知市土居町９－１８", "url": "https://www.kaigokensaku.mhlw.go.jp/39/index.php?action_kouhyou_detail_004_kani=true&JigyosyoCd=3950180012-00&ServiceCd=220&Type=search", "url2": "https://www.takashiokai.jp" }, "geometry": { "type": "Point", "coordinates": [ 133.544531214103472, 33.554354824121631 ] } },
{ "type": "Feature", "properties": { "内容": "介護老人保健施設　ピアハウス高知【短期入所療養介護（介護老人保健施設）】高知県高知市塚ノ原３６番地", "url": "https://www.kaigokensaku.mhlw.go.jp/39/index.php?action_kouhyou_detail_004_kani=true&JigyosyoCd=3950180046-00&ServiceCd=220&Type=search", "url2": "http://jyosenkai-piahouse.jp/" }, "geometry": { "type": "Point", "coordinates": [ 133.494866600000023, 33.561191 ] } },
{ "type": "Feature", "properties": { "内容": "老人保健施設　優【短期入所療養介護（介護老人保健施設）】高知市長浜小日出1681-1", "url": "https://www.kaigokensaku.mhlw.go.jp/39/index.php?action_kouhyou_detail_004_kani=true&JigyosyoCd=3950180095-00&ServiceCd=220&Type=search", "url2": "http://www.rouken-yu.jp" }, "geometry": { "type": "Point", "coordinates": [ 133.537448215344284, 33.499459946591728 ] } },
{ "type": "Feature", "properties": { "内容": "老人保健施設　あうん高知【短期入所療養介護（介護老人保健施設）】高知県高知市一宮西町１丁目７番２５号", "url": "https://www.kaigokensaku.mhlw.go.jp/39/index.php?action_kouhyou_detail_004_kani=true&JigyosyoCd=3950180079-00&ServiceCd=220&Type=search", "url2": "http://www.sanai-hospital.jp/cont3/cont3.html" }, "geometry": { "type": "Point", "coordinates": [ 133.567461720612073, 33.583362037523301 ] } },
{ "type": "Feature", "properties": { "内容": "介護老人保健施設　あさひ【短期入所療養介護（介護老人保健施設）】高知県室戸市領家１番１", "url": "https://www.kaigokensaku.mhlw.go.jp/39/index.php?action_kouhyou_detail_004_kani=true&JigyosyoCd=3950280010-00&ServiceCd=220&Type=search", "url2": "http://muroto-aiseikai.com" }, "geometry": { "type": "Point", "coordinates": [ 134.165496800000028, 33.2944285 ] } },
{ "type": "Feature", "properties": { "内容": "介護老人保健施設　夢の里【短期入所療養介護（介護老人保健施設）】高知県南国市岡豊町中島1521-1", "url": "https://www.kaigokensaku.mhlw.go.jp/39/index.php?action_kouhyou_detail_004_kani=true&JigyosyoCd=3950480024-00&ServiceCd=220&Type=search", "url2": "http://www.chisio-group.or.jp" }, "geometry": { "type": "Point", "coordinates": [ 133.6163037, 33.5902185 ] } },
{ "type": "Feature", "properties": { "内容": "介護老人保健施設　JAいなほ【短期入所療養介護（介護老人保健施設）】高知県南国市明見字八反田６４５－１", "url": "https://www.kaigokensaku.mhlw.go.jp/39/index.php?action_kouhyou_detail_004_kani=true&JigyosyoCd=3950480032-00&ServiceCd=220&Type=search", "url2": "http://www.kouseiren.ja-kochi.or.jp/inaho/index.html" }, "geometry": { "type": "Point", "coordinates": [ 133.62462907138061, 33.568957702024719 ] } },
{ "type": "Feature", "properties": { "内容": "介護老人保健施設　ヴィラフローラ【短期入所療養介護（介護老人保健施設）】土佐市新居274－1", "url": "https://www.kaigokensaku.mhlw.go.jp/39/index.php?action_kouhyou_detail_004_kani=true&JigyosyoCd=3950580013-00&ServiceCd=220&Type=search", "url2": "http://siragiku.jp/Vila_flora/villa_flora_top.html" }, "geometry": { "type": "Point", "coordinates": [ 133.458787499999971, 33.4492283 ] } },
{ "type": "Feature", "properties": { "内容": "老人保健施設　暖流【短期入所療養介護（介護老人保健施設）】須崎市緑町4-30", "url": "https://www.kaigokensaku.mhlw.go.jp/39/index.php?action_kouhyou_detail_004_kani=true&JigyosyoCd=3950680011-00&ServiceCd=220&Type=search", "url2": "http://susaki-kuroshio-hp.or.jp/publics/index/13/" }, "geometry": { "type": "Point", "coordinates": [ 133.2894632, 33.4120161 ] } },
{ "type": "Feature", "properties": { "内容": "老人保健施設　ぎんなん荘【短期入所療養介護（介護老人保健施設）】高知県宿毛市平田町戸内1802", "url": "https://www.kaigokensaku.mhlw.go.jp/39/index.php?action_kouhyou_detail_004_kani=true&JigyosyoCd=3950980015-00&ServiceCd=220&Type=search", "url2": "http://goseikai.jp/" }, "geometry": { "type": "Point", "coordinates": [ 132.797937199999978, 32.9593778 ] } },
{ "type": "Feature", "properties": { "内容": "介護老人保健施設サンケアしみず【短期入所療養介護（介護老人保健施設）】高知県土佐清水市天神町１４番１８号", "url": "https://www.kaigokensaku.mhlw.go.jp/39/index.php?action_kouhyou_detail_004_kani=true&JigyosyoCd=3950880017-00&ServiceCd=220&Type=search", "url2": "http://matsutani-hp.or.jp/" }, "geometry": { "type": "Point", "coordinates": [ 132.9543529, 32.7827583 ] } },
{ "type": "Feature", "properties": { "内容": "介護老人保健施設いろは館【短期入所療養介護（介護老人保健施設）】高知県四万十市不破巾着島2050-20", "url": "https://www.kaigokensaku.mhlw.go.jp/39/index.php?action_kouhyou_detail_004_kani=true&JigyosyoCd=3950780027-00&ServiceCd=220&Type=search", "url2": null }, "geometry": { "type": "Point", "coordinates": [ 132.9343989, 32.9820782 ] } },
{ "type": "Feature", "properties": { "内容": "老人保健施設　治優園【短期入所療養介護（介護老人保健施設）】高知県四万十市中村愛宕町29", "url": "https://www.kaigokensaku.mhlw.go.jp/39/index.php?action_kouhyou_detail_004_kani=true&JigyosyoCd=3950780019-00&ServiceCd=220&Type=search", "url2": "https://kuroshiofukushikai.com/index.html" }, "geometry": { "type": "Point", "coordinates": [ 132.932805, 32.993931 ] } },
{ "type": "Feature", "properties": { "内容": "老人保健施設　しお風【短期入所療養介護（介護老人保健施設）】高知県香南市赤岡町1186番地1", "url": "https://www.kaigokensaku.mhlw.go.jp/39/index.php?action_kouhyou_detail_004_kani=true&JigyosyoCd=3952180036-00&ServiceCd=220&Type=search", "url2": "https://www.kounankai.jp/" }, "geometry": { "type": "Point", "coordinates": [ 133.7262246, 33.5432693 ] } },
{ "type": "Feature", "properties": { "内容": "介護老人保健施設　あいの里【短期入所療養介護（介護老人保健施設）】高知県香南市香我美町岸本328-174", "url": "https://www.kaigokensaku.mhlw.go.jp/39/index.php?action_kouhyou_detail_004_kani=true&JigyosyoCd=3952180028-00&ServiceCd=220&Type=search", "url2": "https://www.chisio-group.or.jp/ainosato/" }, "geometry": { "type": "Point", "coordinates": [ 133.732735400000024, 33.539054899999982 ] } },
{ "type": "Feature", "properties": { "内容": "介護老人保健施設とさやまだファミリア【短期入所療養介護（介護老人保健施設）】高知県香美市土佐山田町548", "url": "https://www.kaigokensaku.mhlw.go.jp/39/index.php?action_kouhyou_detail_004_kani=true&JigyosyoCd=3952180010-00&ServiceCd=220&Type=search", "url2": "http://www.kuzume.or.jp/" }, "geometry": { "type": "Point", "coordinates": [ 133.67558, 33.6085667 ] } },
{ "type": "Feature", "properties": { "内容": "介護老人保健施設ヘルシーケアなはり【短期入所療養介護（介護老人保健施設）】高知県安芸郡奈半利町乙３７４０－１", "url": "https://www.kaigokensaku.mhlw.go.jp/39/index.php?action_kouhyou_detail_004_kani=true&JigyosyoCd=3952080012-00&ServiceCd=220&Type=search", "url2": "http://www.ccc-21.co.jp/hcn/" }, "geometry": { "type": "Point", "coordinates": [ 134.027749099999937, 33.4365547 ] } },
{ "type": "Feature", "properties": { "内容": "介護老人保健施設リゾートヒルやわらぎ【短期入所療養介護（介護老人保健施設）】高知県安芸郡芸西村和食甲4249", "url": "https://www.kaigokensaku.mhlw.go.jp/39/index.php?action_kouhyou_detail_004_kani=true&JigyosyoCd=3952080038-00&ServiceCd=220&Type=search", "url2": "https://okura-kai.com/" }, "geometry": { "type": "Point", "coordinates": [ 133.820118500000035, 33.5210571 ] } },
{ "type": "Feature", "properties": { "内容": "介護老人保健施設　レイクビューさめうら【短期入所療養介護（介護老人保健施設）】高知県土佐郡土佐町田井１３７２番地", "url": "https://www.kaigokensaku.mhlw.go.jp/39/index.php?action_kouhyou_detail_004_kani=true&JigyosyoCd=3952380016-00&ServiceCd=220&Type=search", "url2": "http://juzen-kai.or.jp/LV/index.html" }, "geometry": { "type": "Point", "coordinates": [ 133.557353499999977, 33.7468936 ] } },
{ "type": "Feature", "properties": { "内容": "いの町立介護老人保健施設仁淀清流苑【短期入所療養介護（介護老人保健施設）】高知県吾川郡いの町1482-2", "url": "https://www.kaigokensaku.mhlw.go.jp/39/index.php?action_kouhyou_detail_004_kani=true&JigyosyoCd=3952480022-00&ServiceCd=220&Type=search", "url2": "http://www.town.ino.kochi.jp/niyodo-hospital/seiryuen.html" }, "geometry": { "type": "Point", "coordinates": [ 133.432886300000064, 33.5477047 ] } },
{ "type": "Feature", "properties": { "内容": "介護老人保健施設　希望【短期入所療養介護（介護老人保健施設）】高知県高岡郡佐川町甲１６８７番地", "url": "https://www.kaigokensaku.mhlw.go.jp/39/index.php?action_kouhyou_detail_004_kani=true&JigyosyoCd=3952580052-00&ServiceCd=220&Type=search", "url2": "https://www.town.sakawa.lg.jp/kouhoku_hospital/" }, "geometry": { "type": "Point", "coordinates": [ 133.287191495795696, 33.503883178380889 ] } },
{ "type": "Feature", "properties": { "内容": "老人保健施設　ライブリーハウス輝【短期入所療養介護（介護老人保健施設）】高岡郡越知町越知甲１６６７番地３", "url": "https://www.kaigokensaku.mhlw.go.jp/39/index.php?action_kouhyou_detail_004_kani=true&JigyosyoCd=3952580011-00&ServiceCd=220&Type=search", "url2": "http://www.kitajima-hp.com" }, "geometry": { "type": "Point", "coordinates": [ 133.253018500000053, 33.5307477 ] } }
]
}
