{
"type": "FeatureCollection",
"name": "geo_39_居宅介護支援",
"crs": { "type": "name", "properties": { "name": "urn:ogc:def:crs:OGC:1.3:CRS84" } },
"features": [
{ "type": "Feature", "properties": { "内容": "居宅介護支援事業所　アイエムシー【居宅介護支援】高知市竹島町１３番地1うしおえメディカルビル・イーア3Fうしおえメディカルビル・イーア3F", "url": "https://www.kaigokensaku.mhlw.go.jp/39/index.php?action_kouhyou_detail_004_kani=true&JigyosyoCd=3970101840-00&ServiceCd=430&Type=search", "url2": null }, "geometry": { "type": "Point", "coordinates": [ 133.542513355145388, 33.542995409129517 ] } },
{ "type": "Feature", "properties": { "内容": "居宅介護支援事業所　廿代【居宅介護支援】高知県高知市南元町85番地住宅型有料老人ホームあさひの里　１階", "url": "https://www.kaigokensaku.mhlw.go.jp/39/index.php?action_kouhyou_detail_004_kani=true&JigyosyoCd=3970106609-00&ServiceCd=430&Type=search", "url2": null }, "geometry": { "type": "Point", "coordinates": [ 133.507912600000026, 33.557343799999984 ] } },
{ "type": "Feature", "properties": { "内容": "みなみ居宅介護支援事業所【居宅介護支援】高知県高知市本町３丁目６－２８", "url": "https://www.kaigokensaku.mhlw.go.jp/39/index.php?action_kouhyou_detail_004_kani=true&JigyosyoCd=3910111149-00&ServiceCd=430&Type=search", "url2": null }, "geometry": { "type": "Point", "coordinates": [ 133.5349784, 33.5571927 ] } },
{ "type": "Feature", "properties": { "内容": "居宅介護支援事業所　さつき【居宅介護支援】高知市神田45番地7あすなろコーポ１階", "url": "https://www.kaigokensaku.mhlw.go.jp/39/index.php?action_kouhyou_detail_004_kani=true&JigyosyoCd=3970102285-00&ServiceCd=430&Type=search", "url2": null }, "geometry": { "type": "Point", "coordinates": [ 133.500089100000054, 33.5381836 ] } },
{ "type": "Feature", "properties": { "内容": "居宅介護支援事業所まろ【居宅介護支援】高知県高知市大谷公園町１１－３９", "url": "https://www.kaigokensaku.mhlw.go.jp/39/index.php?action_kouhyou_detail_004_kani=true&JigyosyoCd=3970107110-00&ServiceCd=430&Type=search", "url2": null }, "geometry": { "type": "Point", "coordinates": [ 133.4816509, 33.5359924 ] } },
{ "type": "Feature", "properties": { "内容": "山村病院　居宅介護支援事業所【居宅介護支援】高知県高知市下島町106番地", "url": "https://www.kaigokensaku.mhlw.go.jp/39/index.php?action_kouhyou_detail_004_kani=true&JigyosyoCd=3970102780-00&ServiceCd=430&Type=search", "url2": "http://www.yamamurakai.com" }, "geometry": { "type": "Point", "coordinates": [ 133.507795232541014, 33.554682293469824 ] } },
{ "type": "Feature", "properties": { "内容": "さくらケアマネステーション【居宅介護支援】高知市大原町87-1杉本ビル101", "url": "https://www.kaigokensaku.mhlw.go.jp/39/index.php?action_kouhyou_detail_004_kani=true&JigyosyoCd=3970107797-00&ServiceCd=430&Type=search", "url2": null }, "geometry": { "type": "Point", "coordinates": [ 133.5267345, 33.5525752 ] } },
{ "type": "Feature", "properties": { "内容": "居宅介護支援事業所みやび【居宅介護支援】高知県高知市塩田町4番4号佐藤コーポ101", "url": "https://www.kaigokensaku.mhlw.go.jp/39/index.php?action_kouhyou_detail_004_kani=true&JigyosyoCd=3970107805-00&ServiceCd=430&Type=search", "url2": null }, "geometry": { "type": "Point", "coordinates": [ 133.545318, 33.5703121 ] } },
{ "type": "Feature", "properties": { "内容": "うしおえ居宅介護支援事業所【居宅介護支援】高知市梅ノ辻６－６", "url": "https://www.kaigokensaku.mhlw.go.jp/39/index.php?action_kouhyou_detail_004_kani=true&JigyosyoCd=3970101097-00&ServiceCd=430&Type=search", "url2": "http://www.takashiokai.jp" }, "geometry": { "type": "Point", "coordinates": [ 133.544505399999906, 33.5538989 ] } },
{ "type": "Feature", "properties": { "内容": "居宅介護支援事業所　こはる【居宅介護支援】高知県高知市高須新木1-2グレーシア高須Ⅰ　101号室", "url": "https://www.kaigokensaku.mhlw.go.jp/39/index.php?action_kouhyou_detail_004_kani=true&JigyosyoCd=3970104521-00&ServiceCd=430&Type=search", "url2": null }, "geometry": { "type": "Point", "coordinates": [ 133.583450792407916, 33.560632322270195 ] } },
{ "type": "Feature", "properties": { "内容": "居宅　花さか爺【居宅介護支援】高知県高知市大津乙1952-15", "url": "https://www.kaigokensaku.mhlw.go.jp/39/index.php?action_kouhyou_detail_004_kani=true&JigyosyoCd=3970106278-00&ServiceCd=430&Type=search", "url2": null }, "geometry": { "type": "Point", "coordinates": [ 133.5919672, 33.5703149 ] } },
{ "type": "Feature", "properties": { "内容": "居宅介護支援事業所はるの若菜荘【居宅介護支援】春野町南ヶ丘1丁目8番地2", "url": "https://www.kaigokensaku.mhlw.go.jp/39/index.php?action_kouhyou_detail_004_kani=true&JigyosyoCd=3970103192-00&ServiceCd=430&Type=search", "url2": null }, "geometry": { "type": "Point", "coordinates": [ 133.5196161, 33.5147651 ] } },
{ "type": "Feature", "properties": { "内容": "永井居宅介護支援事業所【居宅介護支援】高知県高知市春野町西分2027－3", "url": "https://www.kaigokensaku.mhlw.go.jp/39/index.php?action_kouhyou_detail_004_kani=true&JigyosyoCd=3910118540-00&ServiceCd=430&Type=search", "url2": "http://www.nagai-hp.com/" }, "geometry": { "type": "Point", "coordinates": [ 133.495974591401676, 33.499325047222918 ] } },
{ "type": "Feature", "properties": { "内容": "居宅介護支援事業所　つばさ【居宅介護支援】高知市桟橋通１丁目７－１７", "url": "https://www.kaigokensaku.mhlw.go.jp/39/index.php?action_kouhyou_detail_004_kani=true&JigyosyoCd=3970103416-00&ServiceCd=430&Type=search", "url2": null }, "geometry": { "type": "Point", "coordinates": [ 133.546235900000056, 33.5511882 ] } },
{ "type": "Feature", "properties": { "内容": "指定居宅介護支援事業所　ヤード【居宅介護支援】高知市東秦泉寺７５番地１", "url": "https://www.kaigokensaku.mhlw.go.jp/39/index.php?action_kouhyou_detail_004_kani=true&JigyosyoCd=3960190225-00&ServiceCd=430&Type=search", "url2": "https://www.fukudacl.or.jp/yard.html" }, "geometry": { "type": "Point", "coordinates": [ 133.5460243, 33.5778959 ] } },
{ "type": "Feature", "properties": { "内容": "ケアセンター　フィレール【居宅介護支援】高知県高知市鴨部2丁目20番5号かもさぽ", "url": "https://www.kaigokensaku.mhlw.go.jp/39/index.php?action_kouhyou_detail_004_kani=true&JigyosyoCd=3970106203-00&ServiceCd=430&Type=search", "url2": "http://kamodano-cl.jp/" }, "geometry": { "type": "Point", "coordinates": [ 133.504901639236977, 33.5485997502538 ] } },
{ "type": "Feature", "properties": { "内容": "かみまち指定居宅介護支援事業所【居宅介護支援】高知県高知市西町104番地", "url": "https://www.kaigokensaku.mhlw.go.jp/39/index.php?action_kouhyou_detail_004_kani=true&JigyosyoCd=3970107730-00&ServiceCd=430&Type=search", "url2": "http：//www.kuniyoshi‐hp.or.jp/" }, "geometry": { "type": "Point", "coordinates": [ 133.5219401, 33.5594883 ] } },
{ "type": "Feature", "properties": { "内容": "ケアセンターソレイユ【居宅介護支援】高知市東城山町163-1ソレイユこうち", "url": "https://www.kaigokensaku.mhlw.go.jp/39/index.php?action_kouhyou_detail_004_kani=true&JigyosyoCd=3960190183-00&ServiceCd=430&Type=search", "url2": "http://okabayashi.jp" }, "geometry": { "type": "Point", "coordinates": [ 133.517073136137327, 33.547201207372368 ] } },
{ "type": "Feature", "properties": { "内容": "指定居宅介護支援事業所　梅の辻【居宅介護支援】高知市梅ノ辻８－７梅ノ辻クリニック　５Ｆ", "url": "https://www.kaigokensaku.mhlw.go.jp/39/index.php?action_kouhyou_detail_004_kani=true&JigyosyoCd=3970101360-00&ServiceCd=430&Type=search", "url2": "http://www.umenotsuji-cl.jp/" }, "geometry": { "type": "Point", "coordinates": [ 133.543527566270427, 33.553616424079664 ] } },
{ "type": "Feature", "properties": { "内容": "居宅介護支援事業所スタイル【居宅介護支援】高知市高須２丁目１３－１", "url": "https://www.kaigokensaku.mhlw.go.jp/39/index.php?action_kouhyou_detail_004_kani=true&JigyosyoCd=3970104422-00&ServiceCd=430&Type=search", "url2": null }, "geometry": { "type": "Point", "coordinates": [ 133.58479698743588, 33.561119799391371 ] } },
{ "type": "Feature", "properties": { "内容": "居宅介護支援事業所　クララ【居宅介護支援】高知県高知市大津乙719", "url": "https://www.kaigokensaku.mhlw.go.jp/39/index.php?action_kouhyou_detail_004_kani=true&JigyosyoCd=3970105080-00&ServiceCd=430&Type=search", "url2": "http://www.kochijoto.or.jp/" }, "geometry": { "type": "Point", "coordinates": [ 133.597546004254923, 33.567841782544527 ] } },
{ "type": "Feature", "properties": { "内容": "居宅介護支援事業所とらすと【居宅介護支援】高知県高知市知寄町1丁目4-17清涼ハイツ７Ｄ", "url": "https://www.kaigokensaku.mhlw.go.jp/39/index.php?action_kouhyou_detail_004_kani=true&JigyosyoCd=3970106708-00&ServiceCd=430&Type=search", "url2": null }, "geometry": { "type": "Point", "coordinates": [ 133.558093491722786, 33.558556464899375 ] } },
{ "type": "Feature", "properties": { "内容": "アートケア・居宅介護支援事業所【居宅介護支援】高知県高知市長浜4450-1", "url": "https://www.kaigokensaku.mhlw.go.jp/39/index.php?action_kouhyou_detail_004_kani=true&JigyosyoCd=3970107813-00&ServiceCd=430&Type=search", "url2": "https://artcare-group.jp/nagahama.html" }, "geometry": { "type": "Point", "coordinates": [ 133.547978462018989, 33.489193270933761 ] } },
{ "type": "Feature", "properties": { "内容": "島津病院居宅介護支援【居宅介護支援】高知市比島町4丁目7番13号和希ビル３F", "url": "https://www.kaigokensaku.mhlw.go.jp/39/index.php?action_kouhyou_detail_004_kani=true&JigyosyoCd=3910116395-00&ServiceCd=430&Type=search", "url2": "http://www.shimazuhp.jp/k-care.htm" }, "geometry": { "type": "Point", "coordinates": [ 133.54982659999996, 33.573501608450698 ] } },
{ "type": "Feature", "properties": { "内容": "生協介護の窓口【居宅介護支援】高知市口細山206-9", "url": "https://www.kaigokensaku.mhlw.go.jp/39/index.php?action_kouhyou_detail_004_kani=true&JigyosyoCd=3910114887-00&ServiceCd=430&Type=search", "url2": "http://www.kochi-hco-op.or.jp" }, "geometry": { "type": "Point", "coordinates": [ 133.489883288885494, 33.56728820141393 ] } },
{ "type": "Feature", "properties": { "内容": "指定居宅介護支援事業所　瀬戸虹の夢【居宅介護支援】高知市横浜新町4丁目2403番地", "url": "https://www.kaigokensaku.mhlw.go.jp/39/index.php?action_kouhyou_detail_004_kani=true&JigyosyoCd=3970102665-00&ServiceCd=430&Type=search", "url2": "https://nijinoyume-g.jp/" }, "geometry": { "type": "Point", "coordinates": [ 133.536421400000023, 33.51588940000002 ] } },
{ "type": "Feature", "properties": { "内容": "居宅こ結び【居宅介護支援】高知県高知市百石町4丁目11-3　2階", "url": "https://www.kaigokensaku.mhlw.go.jp/39/index.php?action_kouhyou_detail_004_kani=true&JigyosyoCd=3970105577-00&ServiceCd=430&Type=search", "url2": null }, "geometry": { "type": "Point", "coordinates": [ 133.546781399999986, 33.5428054 ] } },
{ "type": "Feature", "properties": { "内容": "居宅介護支援事業所　らいと【居宅介護支援】高知県高知市薊野中町15番9号高知インターマンション201", "url": "https://www.kaigokensaku.mhlw.go.jp/39/index.php?action_kouhyou_detail_004_kani=true&JigyosyoCd=3970107664-00&ServiceCd=430&Type=search", "url2": null }, "geometry": { "type": "Point", "coordinates": [ 133.5581038, 33.5810812 ] } },
{ "type": "Feature", "properties": { "内容": "居宅介護支援事業所グランボヌール【居宅介護支援】高知県高知市布師田字宮ノ辺１３６２", "url": "https://www.kaigokensaku.mhlw.go.jp/39/index.php?action_kouhyou_detail_004_kani=true&JigyosyoCd=3970100131-00&ServiceCd=430&Type=search", "url2": "http://nankai-f.jp/" }, "geometry": { "type": "Point", "coordinates": [ 133.601419, 33.587096 ] } },
{ "type": "Feature", "properties": { "内容": "居宅介護支援事業所あんず【居宅介護支援】高知県高知市神田17-2", "url": "https://www.kaigokensaku.mhlw.go.jp/39/index.php?action_kouhyou_detail_004_kani=true&JigyosyoCd=3970107425-00&ServiceCd=430&Type=search", "url2": null }, "geometry": { "type": "Point", "coordinates": [ 133.5008269, 33.5411095 ] } },
{ "type": "Feature", "properties": { "内容": "医療法人互光会　居宅介護支援事業所ひかり【居宅介護支援】高知市長浜８０１長浜病院１階", "url": "https://www.kaigokensaku.mhlw.go.jp/39/index.php?action_kouhyou_detail_004_kani=true&JigyosyoCd=3910111958-00&ServiceCd=430&Type=search", "url2": "http://www.nagahama-hp.or.jp" }, "geometry": { "type": "Point", "coordinates": [ 133.5448993, 33.5011191 ] } },
{ "type": "Feature", "properties": { "内容": "ライフサポート　すみれ【居宅介護支援】高知市塩屋崎町１丁目８－２１", "url": "https://www.kaigokensaku.mhlw.go.jp/39/index.php?action_kouhyou_detail_004_kani=true&JigyosyoCd=3970101204-00&ServiceCd=430&Type=search", "url2": null }, "geometry": { "type": "Point", "coordinates": [ 133.5407947, 33.551138 ] } },
{ "type": "Feature", "properties": { "内容": "独立行政法人地域医療機能推進機構　高知西病院附属居宅介護支援センター【居宅介護支援】高知市神田317-12", "url": "https://www.kaigokensaku.mhlw.go.jp/39/index.php?action_kouhyou_detail_004_kani=true&JigyosyoCd=3910113756-00&ServiceCd=430&Type=search", "url2": "http://kochi.jcho.go.jp/" }, "geometry": { "type": "Point", "coordinates": [ 133.501988100000062, 33.5409825 ] } },
{ "type": "Feature", "properties": { "内容": "高知厚生病院　指定居宅介護支援事業所こうせい【居宅介護支援】高知県高知市葛島２丁目5-11こうせい在宅事業部", "url": "https://www.kaigokensaku.mhlw.go.jp/39/index.php?action_kouhyou_detail_004_kani=true&JigyosyoCd=3970107656-00&ServiceCd=430&Type=search", "url2": "http://www.kochi-koseihp.jp/" }, "geometry": { "type": "Point", "coordinates": [ 133.572164, 33.5577679 ] } },
{ "type": "Feature", "properties": { "内容": "居宅介護支援事業所結いまある【居宅介護支援】高知県高知市知寄町1丁目８－７カーサグラン高知205", "url": "https://www.kaigokensaku.mhlw.go.jp/39/index.php?action_kouhyou_detail_004_kani=true&JigyosyoCd=3970107698-00&ServiceCd=430&Type=search", "url2": "https://yuimaaru.c-co.jp" }, "geometry": { "type": "Point", "coordinates": [ 133.5577846, 33.5580721 ] } },
{ "type": "Feature", "properties": { "内容": "ケアサポートセンター　ほそぎ【居宅介護支援】高知県高知市大膳町1番25号", "url": "https://www.kaigokensaku.mhlw.go.jp/39/index.php?action_kouhyou_detail_004_kani=true&JigyosyoCd=3970100602-00&ServiceCd=430&Type=search", "url2": "www.jinsei-kai.com" }, "geometry": { "type": "Point", "coordinates": [ 133.523227100000014, 33.559928 ] } },
{ "type": "Feature", "properties": { "内容": "居宅介護支援事業所　わかば【居宅介護支援】高知県高知市本町2丁目4番3号リンクノースケアセンター中2階", "url": "https://www.kaigokensaku.mhlw.go.jp/39/index.php?action_kouhyou_detail_004_kani=true&JigyosyoCd=3960190258-00&ServiceCd=430&Type=search", "url2": "http://www.takeshita-hp.jp" }, "geometry": { "type": "Point", "coordinates": [ 133.538436433729572, 33.557890574936863 ] } },
{ "type": "Feature", "properties": { "内容": "ケア・アシスト　ふれあい【居宅介護支援】高知市北竹島町370-10", "url": "https://www.kaigokensaku.mhlw.go.jp/39/index.php?action_kouhyou_detail_004_kani=true&JigyosyoCd=3970101253-00&ServiceCd=430&Type=search", "url2": null }, "geometry": { "type": "Point", "coordinates": [ 133.541021388241205, 33.54244794654285 ] } },
{ "type": "Feature", "properties": { "内容": "居宅介護支援事業所　たんぽぽ【居宅介護支援】高知県高知市仁井田１５３３－１", "url": "https://www.kaigokensaku.mhlw.go.jp/39/index.php?action_kouhyou_detail_004_kani=true&JigyosyoCd=3970106229-00&ServiceCd=430&Type=search", "url2": null }, "geometry": { "type": "Point", "coordinates": [ 133.579815, 33.516929 ] } },
{ "type": "Feature", "properties": { "内容": "ニチイケアセンター愛宕【居宅介護支援】高知県高知市愛宕町４丁目17番7号", "url": "https://www.kaigokensaku.mhlw.go.jp/39/index.php?action_kouhyou_detail_004_kani=true&JigyosyoCd=3970100362-00&ServiceCd=430&Type=search", "url2": "http://www.nichiigakkan.co.jp" }, "geometry": { "type": "Point", "coordinates": [ 133.537222, 33.5749007 ] } },
{ "type": "Feature", "properties": { "内容": "居宅介護支援事業所　マリン【居宅介護支援】高知県高知市仁井田１６１２－２１", "url": "https://www.kaigokensaku.mhlw.go.jp/39/index.php?action_kouhyou_detail_004_kani=true&JigyosyoCd=3950180038-00&ServiceCd=430&Type=search", "url2": null }, "geometry": { "type": "Point", "coordinates": [ 133.57295739999995, 33.514232 ] } },
{ "type": "Feature", "properties": { "内容": "居宅介護支援事業所「一宮」【居宅介護支援】高知県高知市一宮西町1丁目7番16号山本ハイツ102号", "url": "https://www.kaigokensaku.mhlw.go.jp/39/index.php?action_kouhyou_detail_004_kani=true&JigyosyoCd=3970100719-00&ServiceCd=430&Type=search", "url2": "http://www.sanai-hospital.jp/cont3/cont3.html" }, "geometry": { "type": "Point", "coordinates": [ 133.567694214469839, 33.583332273964579 ] } },
{ "type": "Feature", "properties": { "内容": "居宅介護支援事業所　まさき【居宅介護支援】高知県高知市春野町平和3393番地11", "url": "https://www.kaigokensaku.mhlw.go.jp/39/index.php?action_kouhyou_detail_004_kani=true&JigyosyoCd=3970103093-00&ServiceCd=430&Type=search", "url2": null }, "geometry": { "type": "Point", "coordinates": [ 133.51634260000003, 33.5037928 ] } },
{ "type": "Feature", "properties": { "内容": "ケアプランセンターもとちか【居宅介護支援】高知県高知市長浜4981番地", "url": "https://www.kaigokensaku.mhlw.go.jp/39/index.php?action_kouhyou_detail_004_kani=true&JigyosyoCd=3970106138-00&ServiceCd=430&Type=search", "url2": "http://www.kounankai.jp/" }, "geometry": { "type": "Point", "coordinates": [ 133.551076700000067, 33.4998026 ] } },
{ "type": "Feature", "properties": { "内容": "居宅介護支援事業所リロ【居宅介護支援】高知県高知市桟橋通１丁目８－１９", "url": "https://www.kaigokensaku.mhlw.go.jp/39/index.php?action_kouhyou_detail_004_kani=true&JigyosyoCd=3970107516-00&ServiceCd=430&Type=search", "url2": null }, "geometry": { "type": "Point", "coordinates": [ 133.546901, 33.551166600000016 ] } },
{ "type": "Feature", "properties": { "内容": "居宅介護支援事業所　ポム【居宅介護支援】朝倉甲２５番地１", "url": "https://www.kaigokensaku.mhlw.go.jp/39/index.php?action_kouhyou_detail_004_kani=true&JigyosyoCd=3970100107-00&ServiceCd=430&Type=search", "url2": "http://www.thc.or.jp/" }, "geometry": { "type": "Point", "coordinates": [ 133.501250729587582, 33.544164568483474 ] } },
{ "type": "Feature", "properties": { "内容": "社会福祉法人　高知市社会福祉協議会　土佐山指定居宅介護支援事業所【居宅介護支援】高知県高知市土佐山桑尾1842番地2", "url": "https://www.kaigokensaku.mhlw.go.jp/39/index.php?action_kouhyou_detail_004_kani=true&JigyosyoCd=3970101766-00&ServiceCd=430&Type=search", "url2": "http://www.kochi-csw.or.jp" }, "geometry": { "type": "Point", "coordinates": [ 133.526638953967222, 33.631829063835994 ] } },
{ "type": "Feature", "properties": { "内容": "居宅介護支援事業所　アールハーツ【居宅介護支援】高知市朝倉東町２５－１１", "url": "https://www.kaigokensaku.mhlw.go.jp/39/index.php?action_kouhyou_detail_004_kani=true&JigyosyoCd=3970102632-00&ServiceCd=430&Type=search", "url2": null }, "geometry": { "type": "Point", "coordinates": [ 133.498091299999942, 33.5463096 ] } },
{ "type": "Feature", "properties": { "内容": "居宅介護支援事業所　梅ノ木【居宅介護支援】高知県高知市朝倉西町1丁目5-7", "url": "https://www.kaigokensaku.mhlw.go.jp/39/index.php?action_kouhyou_detail_004_kani=true&JigyosyoCd=3970104653-00&ServiceCd=430&Type=search", "url2": null }, "geometry": { "type": "Point", "coordinates": [ 133.482729581059289, 33.542477841846335 ] } },
{ "type": "Feature", "properties": { "内容": "居宅介護支援センター城見【居宅介護支援】高知市城見町３－１２", "url": "https://www.kaigokensaku.mhlw.go.jp/39/index.php?action_kouhyou_detail_004_kani=true&JigyosyoCd=3970103861-00&ServiceCd=430&Type=search", "url2": "http://www.kochi-kinen.jp/kyotaku.htm" }, "geometry": { "type": "Point", "coordinates": [ 133.551876799999945, 33.5596123 ] } },
{ "type": "Feature", "properties": { "内容": "ケアプランセンターＬｉｂ【居宅介護支援】高知県高知市縄手町64-1", "url": "https://www.kaigokensaku.mhlw.go.jp/39/index.php?action_kouhyou_detail_004_kani=true&JigyosyoCd=3970106724-00&ServiceCd=430&Type=search", "url2": null }, "geometry": { "type": "Point", "coordinates": [ 133.51030591175072, 33.554455825153262 ] } },
{ "type": "Feature", "properties": { "内容": "居宅介護支援事業所あったか！合同会社【居宅介護支援】高知県高知市朝倉西町2丁目17-33", "url": "https://www.kaigokensaku.mhlw.go.jp/39/index.php?action_kouhyou_detail_004_kani=true&JigyosyoCd=3970105379-00&ServiceCd=430&Type=search", "url2": null }, "geometry": { "type": "Point", "coordinates": [ 133.476226900000029, 33.5392264 ] } },
{ "type": "Feature", "properties": { "内容": "居宅介護支援事業所　だいいち【居宅介護支援】高知県高知市九反田2-14", "url": "https://www.kaigokensaku.mhlw.go.jp/39/index.php?action_kouhyou_detail_004_kani=true&JigyosyoCd=3910110810-00&ServiceCd=430&Type=search", "url2": null }, "geometry": { "type": "Point", "coordinates": [ 133.5478938, 33.5582124 ] } },
{ "type": "Feature", "properties": { "内容": "居宅介護支援事業所さわらび【居宅介護支援】高知県高知市五台山3780-1", "url": "https://www.kaigokensaku.mhlw.go.jp/39/index.php?action_kouhyou_detail_004_kani=true&JigyosyoCd=3970100057-00&ServiceCd=430&Type=search", "url2": "http://www.sawarabikai.net/sawarabi-k.html" }, "geometry": { "type": "Point", "coordinates": [ 133.588254399999983, 33.548514799999985 ] } },
{ "type": "Feature", "properties": { "内容": "居宅介護支援事業所　結心【居宅介護支援】高知県高知市朝倉横町20-35カーサ・ドゥエミーラ205", "url": "https://www.kaigokensaku.mhlw.go.jp/39/index.php?action_kouhyou_detail_004_kani=true&JigyosyoCd=3970107029-00&ServiceCd=430&Type=search", "url2": null }, "geometry": { "type": "Point", "coordinates": [ 133.495326799999987, 33.54428 ] } },
{ "type": "Feature", "properties": { "内容": "居宅介護支援事業所　かのん【居宅介護支援】高知県高知市吸江27番地2", "url": "https://www.kaigokensaku.mhlw.go.jp/39/index.php?action_kouhyou_detail_004_kani=true&JigyosyoCd=3970107037-00&ServiceCd=430&Type=search", "url2": "http://hp.kaipoke.biz/9y0/" }, "geometry": { "type": "Point", "coordinates": [ 133.572164, 33.543896 ] } },
{ "type": "Feature", "properties": { "内容": "ふくし生協居宅介護支援事業所【居宅介護支援】高知市河ノ瀬町３０－１サンアースビル１F", "url": "https://www.kaigokensaku.mhlw.go.jp/39/index.php?action_kouhyou_detail_004_kani=true&JigyosyoCd=3970101899-00&ServiceCd=430&Type=search", "url2": "http://kochi.koreikyo.jp/" }, "geometry": { "type": "Point", "coordinates": [ 133.5231463, 33.5499099 ] } },
{ "type": "Feature", "properties": { "内容": "ケアプランセンタートマトの樹【居宅介護支援】高知県高知市介良乙８８３-２", "url": "https://www.kaigokensaku.mhlw.go.jp/39/index.php?action_kouhyou_detail_004_kani=true&JigyosyoCd=3970101949-00&ServiceCd=430&Type=search", "url2": "http://www.netfamily.jp" }, "geometry": { "type": "Point", "coordinates": [ 133.598072199999933, 33.564312900000033 ] } },
{ "type": "Feature", "properties": { "内容": "森の里居宅介護支援事業所【居宅介護支援】高知県高知市横浜２０番１", "url": "https://www.kaigokensaku.mhlw.go.jp/39/index.php?action_kouhyou_detail_004_kani=true&JigyosyoCd=3970100123-00&ServiceCd=430&Type=search", "url2": "http://www.inforyoma.or.jp/helios/" }, "geometry": { "type": "Point", "coordinates": [ 133.553691599999979, 33.5286189 ] } },
{ "type": "Feature", "properties": { "内容": "居宅介護支援事業所　ゆう【居宅介護支援】高知市北本町１丁目2-6", "url": "https://www.kaigokensaku.mhlw.go.jp/39/index.php?action_kouhyou_detail_004_kani=true&JigyosyoCd=3970102145-00&ServiceCd=430&Type=search", "url2": null }, "geometry": { "type": "Point", "coordinates": [ 133.54047745385904, 33.565210261215384 ] } },
{ "type": "Feature", "properties": { "内容": "医療法人　野並会　居宅介護支援事業所　しんぼり【居宅介護支援】高知市駅前町1番24号野並会ビル", "url": "https://www.kaigokensaku.mhlw.go.jp/39/index.php?action_kouhyou_detail_004_kani=true&JigyosyoCd=3970100644-00&ServiceCd=430&Type=search", "url2": null }, "geometry": { "type": "Point", "coordinates": [ 133.543969604229659, 33.564745889412606 ] } },
{ "type": "Feature", "properties": { "内容": "居宅介護支援事業所　ポラリス【居宅介護支援】高知県高知市北新田町9-23", "url": "https://www.kaigokensaku.mhlw.go.jp/39/index.php?action_kouhyou_detail_004_kani=true&JigyosyoCd=3970107599-00&ServiceCd=430&Type=search", "url2": null }, "geometry": { "type": "Point", "coordinates": [ 133.550819993274843, 33.553301382237635 ] } },
{ "type": "Feature", "properties": { "内容": "あったかケアみずき指定居宅介護支援事業所【居宅介護支援】高知県高知市一宮中町2丁目9-4", "url": "https://www.kaigokensaku.mhlw.go.jp/39/index.php?action_kouhyou_detail_004_kani=true&JigyosyoCd=3950180061-00&ServiceCd=430&Type=search", "url2": "http:/www.attakacaremizuki.jp" }, "geometry": { "type": "Point", "coordinates": [ 133.572788100000025, 33.5821149 ] } },
{ "type": "Feature", "properties": { "内容": "居宅介護支援事業所　里の光【居宅介護支援】高知市伊勢崎町15-22", "url": "https://www.kaigokensaku.mhlw.go.jp/39/index.php?action_kouhyou_detail_004_kani=true&JigyosyoCd=3970102558-00&ServiceCd=430&Type=search", "url2": "http://care-net.biz/39/care-isezaki/service.php?servicePageID=b43" }, "geometry": { "type": "Point", "coordinates": [ 133.5314922, 33.570952 ] } },
{ "type": "Feature", "properties": { "内容": "高知中央居宅介護支援事業所【居宅介護支援】高知市北高見町50-1", "url": "https://www.kaigokensaku.mhlw.go.jp/39/index.php?action_kouhyou_detail_004_kani=true&JigyosyoCd=3960190480-00&ServiceCd=430&Type=search", "url2": "http://kochi-zaitaku.or.jp/" }, "geometry": { "type": "Point", "coordinates": [ 133.537541299999987, 33.5467433 ] } },
{ "type": "Feature", "properties": { "内容": "居宅介護支援センター　かがみ川【居宅介護支援】高知県高知市上町５丁目6-32", "url": "https://www.kaigokensaku.mhlw.go.jp/39/index.php?action_kouhyou_detail_004_kani=true&JigyosyoCd=3910112238-00&ServiceCd=430&Type=search", "url2": "http://www.kawamura-hosp.or.jp" }, "geometry": { "type": "Point", "coordinates": [ 133.517412454631085, 33.556477916743709 ] } },
{ "type": "Feature", "properties": { "内容": "社会福祉法人高知市社会福祉協議会　介護センターあじさい会館　指定居宅介護支援事業所【居宅介護支援】高知県高知市春野町西分1番地1", "url": "https://www.kaigokensaku.mhlw.go.jp/39/index.php?action_kouhyou_detail_004_kani=true&JigyosyoCd=3970103085-00&ServiceCd=430&Type=search", "url2": "http://www.kochi-csw.or.jp/" }, "geometry": { "type": "Point", "coordinates": [ 133.4878417, 33.4978337 ] } },
{ "type": "Feature", "properties": { "内容": "居宅介護支援事業所あかり【居宅介護支援】高知県高知市朝倉本町１丁目12-28-6", "url": "https://www.kaigokensaku.mhlw.go.jp/39/index.php?action_kouhyou_detail_004_kani=true&JigyosyoCd=3970104752-00&ServiceCd=430&Type=search", "url2": null }, "geometry": { "type": "Point", "coordinates": [ 133.490329850926202, 33.548996409122843 ] } },
{ "type": "Feature", "properties": { "内容": "在宅ケアセンター　みかづき【居宅介護支援】高知市円行寺５２－１０", "url": "https://www.kaigokensaku.mhlw.go.jp/39/index.php?action_kouhyou_detail_004_kani=true&JigyosyoCd=3970100149-00&ServiceCd=430&Type=search", "url2": "http://www.sanjyukai.com/" }, "geometry": { "type": "Point", "coordinates": [ 133.5137, 33.5838861 ] } },
{ "type": "Feature", "properties": { "内容": "居宅介護支援事業所　陽だまり【居宅介護支援】高知県高知市福井町519-3井上コーポ1階西", "url": "https://www.kaigokensaku.mhlw.go.jp/39/index.php?action_kouhyou_detail_004_kani=true&JigyosyoCd=3970107409-00&ServiceCd=430&Type=search", "url2": null }, "geometry": { "type": "Point", "coordinates": [ 133.5092157, 33.5628622 ] } },
{ "type": "Feature", "properties": { "内容": "きょたくかいごしえん　りはびっと【居宅介護支援】種崎728番地9", "url": "https://www.kaigokensaku.mhlw.go.jp/39/index.php?action_kouhyou_detail_004_kani=true&JigyosyoCd=3970106880-00&ServiceCd=430&Type=search", "url2": null }, "geometry": { "type": "Point", "coordinates": [ 133.5679595, 33.5036136 ] } },
{ "type": "Feature", "properties": { "内容": "居宅介護支援事業所ロング・フィールド【居宅介護支援】高知県高知市塚ノ原１７３－１", "url": "https://www.kaigokensaku.mhlw.go.jp/39/index.php?action_kouhyou_detail_004_kani=true&JigyosyoCd=3970105320-00&ServiceCd=430&Type=search", "url2": "http://hp.kaipoke.biz/333/index.html" }, "geometry": { "type": "Point", "coordinates": [ 133.498149499999954, 33.5614466 ] } },
{ "type": "Feature", "properties": { "内容": "明和総合サービス　居宅介護支援事業【居宅介護支援】高知市鴨部１丁目１１番２鏡川コーポ2103号", "url": "https://www.kaigokensaku.mhlw.go.jp/39/index.php?action_kouhyou_detail_004_kani=true&JigyosyoCd=3970100891-00&ServiceCd=430&Type=search", "url2": null }, "geometry": { "type": "Point", "coordinates": [ 133.504720480604078, 33.550816927683805 ] } },
{ "type": "Feature", "properties": { "内容": "居宅介護支援事業所たいよう【居宅介護支援】高知県高知市塚ノ原365－3", "url": "https://www.kaigokensaku.mhlw.go.jp/39/index.php?action_kouhyou_detail_004_kani=true&JigyosyoCd=3970105825-00&ServiceCd=430&Type=search", "url2": null }, "geometry": { "type": "Point", "coordinates": [ 133.495797, 33.5641796 ] } },
{ "type": "Feature", "properties": { "内容": "居宅介護支援事業所長瀬【居宅介護支援】高知県高知市中万々１６７－１", "url": "https://www.kaigokensaku.mhlw.go.jp/39/index.php?action_kouhyou_detail_004_kani=true&JigyosyoCd=3970103580-00&ServiceCd=430&Type=search", "url2": null }, "geometry": { "type": "Point", "coordinates": [ 133.514949699999988, 33.5686685 ] } },
{ "type": "Feature", "properties": { "内容": "高知市在宅介護支援センター　あさくら【居宅介護支援】高知県高知市若草南町22番25号", "url": "https://www.kaigokensaku.mhlw.go.jp/39/index.php?action_kouhyou_detail_004_kani=true&JigyosyoCd=3970103473-00&ServiceCd=430&Type=search", "url2": "http://www.nagaisakanokai.com/wakakusa/asakura.html" }, "geometry": { "type": "Point", "coordinates": [ 133.487342600000034, 33.540035 ] } },
{ "type": "Feature", "properties": { "内容": "アシスタント高知居宅介護支援事業所【居宅介護支援】高知県高知市桟橋通３丁目２９－４", "url": "https://www.kaigokensaku.mhlw.go.jp/39/index.php?action_kouhyou_detail_004_kani=true&JigyosyoCd=3970104315-00&ServiceCd=430&Type=search", "url2": "http://www.aoi-ask.com/shien/" }, "geometry": { "type": "Point", "coordinates": [ 133.547405840812189, 33.546127995233434 ] } },
{ "type": "Feature", "properties": { "内容": "ケアプランセンターLien【居宅介護支援】高知県高知市桜井町１丁目３番１２号第一桜井マンション１０１", "url": "https://www.kaigokensaku.mhlw.go.jp/39/index.php?action_kouhyou_detail_004_kani=true&JigyosyoCd=3970108126-00&ServiceCd=430&Type=search", "url2": "https://lien-kochi.com/" }, "geometry": { "type": "Point", "coordinates": [ 133.549345499999987, 33.5608199 ] } },
{ "type": "Feature", "properties": { "内容": "ケアプランセンターえん【居宅介護支援】高知県高知市朝倉本町一丁目7番26号", "url": "https://www.kaigokensaku.mhlw.go.jp/39/index.php?action_kouhyou_detail_004_kani=true&JigyosyoCd=3970108092-00&ServiceCd=430&Type=search", "url2": "https://en-houkan.com/office-list/kochi-careplan" }, "geometry": { "type": "Point", "coordinates": [ 133.492574600000012, 33.5475742 ] } },
{ "type": "Feature", "properties": { "内容": "歩介護事業所【居宅介護支援】高知市南竹島町１６－１１", "url": "https://www.kaigokensaku.mhlw.go.jp/39/index.php?action_kouhyou_detail_004_kani=true&JigyosyoCd=3970102582-00&ServiceCd=430&Type=search", "url2": null }, "geometry": { "type": "Point", "coordinates": [ 133.54542790000005, 33.5394285 ] } },
{ "type": "Feature", "properties": { "内容": "居宅介護支援事業所心音【居宅介護支援】高知県高知市瀬戸西町3丁目117", "url": "https://www.kaigokensaku.mhlw.go.jp/39/index.php?action_kouhyou_detail_004_kani=true&JigyosyoCd=3970107383-00&ServiceCd=430&Type=search", "url2": null }, "geometry": { "type": "Point", "coordinates": [ 133.5420489, 33.5097705 ] } },
{ "type": "Feature", "properties": { "内容": "ウィーク・ケアプランセンター・高知【居宅介護支援】高知県高知市南はりまや町二丁目7番8号ウィークスビル３F", "url": "https://www.kaigokensaku.mhlw.go.jp/39/index.php?action_kouhyou_detail_004_kani=true&JigyosyoCd=3970108134-00&ServiceCd=430&Type=search", "url2": "https://kochi-weeks.co.jp" }, "geometry": { "type": "Point", "coordinates": [ 133.5454087, 33.5572653 ] } },
{ "type": "Feature", "properties": { "内容": "うえすとりばー【居宅介護支援】高知市朝倉甲55－1コーポ幸３０１号", "url": "https://www.kaigokensaku.mhlw.go.jp/39/index.php?action_kouhyou_detail_004_kani=true&JigyosyoCd=3970108258-00&ServiceCd=430&Type=search", "url2": null }, "geometry": { "type": "Point", "coordinates": [ 133.501552800000013, 33.5435879 ] } },
{ "type": "Feature", "properties": { "内容": "医療法人久会　居宅介護支援事業所しもぢ【居宅介護支援】高知市桜井町１丁目２番３５号", "url": "https://www.kaigokensaku.mhlw.go.jp/39/index.php?action_kouhyou_detail_004_kani=true&JigyosyoCd=3910114622-00&ServiceCd=430&Type=search", "url2": null }, "geometry": { "type": "Point", "coordinates": [ 133.5478243, 33.5606677 ] } },
{ "type": "Feature", "properties": { "内容": "居宅介護支援事業所　絆【居宅介護支援】高知県高知市若草町1番24号", "url": "https://www.kaigokensaku.mhlw.go.jp/39/index.php?action_kouhyou_detail_004_kani=true&JigyosyoCd=3970105536-00&ServiceCd=430&Type=search", "url2": "www.unvs.co.jp/wakakusa.html" }, "geometry": { "type": "Point", "coordinates": [ 133.489878399999952, 33.5439901 ] } },
{ "type": "Feature", "properties": { "内容": "居宅介護支援事業所　メルシィ【居宅介護支援】高知県高知市大津乙985番地6", "url": "https://www.kaigokensaku.mhlw.go.jp/39/index.php?action_kouhyou_detail_004_kani=true&JigyosyoCd=3970107912-00&ServiceCd=430&Type=search", "url2": null }, "geometry": { "type": "Point", "coordinates": [ 133.599568799999986, 33.5725561 ] } },
{ "type": "Feature", "properties": { "内容": "居宅介護支援事業所　英【居宅介護支援】高知県高知市瀬戸南町２丁目３－３７アーバンハイツセト２０５", "url": "https://www.kaigokensaku.mhlw.go.jp/39/index.php?action_kouhyou_detail_004_kani=true&JigyosyoCd=3970103358-00&ServiceCd=430&Type=search", "url2": null }, "geometry": { "type": "Point", "coordinates": [ 133.543049099999962, 33.5075656 ] } },
{ "type": "Feature", "properties": { "内容": "居宅介護支援事業所繭合同会社【居宅介護支援】高知県高知市塩屋崎町2丁目５－６", "url": "https://www.kaigokensaku.mhlw.go.jp/39/index.php?action_kouhyou_detail_004_kani=true&JigyosyoCd=3970103747-00&ServiceCd=430&Type=search", "url2": null }, "geometry": { "type": "Point", "coordinates": [ 133.5400205, 33.548923499999979 ] } },
{ "type": "Feature", "properties": { "内容": "居宅介護支援事業所　桂浜【居宅介護支援】高知県高知市長浜４４４４－１", "url": "https://www.kaigokensaku.mhlw.go.jp/39/index.php?action_kouhyou_detail_004_kani=true&JigyosyoCd=3970103648-00&ServiceCd=430&Type=search", "url2": "http://www.fuku-cij.jp/other/index.html" }, "geometry": { "type": "Point", "coordinates": [ 133.5462579, 33.4887755 ] } },
{ "type": "Feature", "properties": { "内容": "ふくいの居宅介護支援事業所【居宅介護支援】上本宮町113-11", "url": "https://www.kaigokensaku.mhlw.go.jp/39/index.php?action_kouhyou_detail_004_kani=true&JigyosyoCd=3970106047-00&ServiceCd=430&Type=search", "url2": null }, "geometry": { "type": "Point", "coordinates": [ 133.490217199999989, 33.5554544 ] } },
{ "type": "Feature", "properties": { "内容": "居宅介護支援事業所　心愛【居宅介護支援】高知県高知市神田684-11", "url": "https://www.kaigokensaku.mhlw.go.jp/39/index.php?action_kouhyou_detail_004_kani=true&JigyosyoCd=3970108019-00&ServiceCd=430&Type=search", "url2": "www.kochi-cocoa.com" }, "geometry": { "type": "Point", "coordinates": [ 133.5157, 33.5465517 ] } },
{ "type": "Feature", "properties": { "内容": "福祉ステーションやさしいグループ【居宅介護支援】高知県高知市朝倉己７７１－1", "url": "https://www.kaigokensaku.mhlw.go.jp/39/index.php?action_kouhyou_detail_004_kani=true&JigyosyoCd=3970100289-00&ServiceCd=430&Type=search", "url2": null }, "geometry": { "type": "Point", "coordinates": [ 133.489660855819665, 33.534705427864402 ] } },
{ "type": "Feature", "properties": { "内容": "居宅介護支援事業所　ケアマネ！高知【居宅介護支援】高知県高知市六泉寺町1-1", "url": "https://www.kaigokensaku.mhlw.go.jp/39/index.php?action_kouhyou_detail_004_kani=true&JigyosyoCd=3970104224-00&ServiceCd=430&Type=search", "url2": "http://www.k-creaty.co.jp/" }, "geometry": { "type": "Point", "coordinates": [ 133.540415849073725, 33.540303530181085 ] } },
{ "type": "Feature", "properties": { "内容": "居宅介護支援事業所　あさかぜ【居宅介護支援】高知県高知市西塚ノ原131番地1", "url": "https://www.kaigokensaku.mhlw.go.jp/39/index.php?action_kouhyou_detail_004_kani=true&JigyosyoCd=3970104547-00&ServiceCd=430&Type=search", "url2": null }, "geometry": { "type": "Point", "coordinates": [ 133.4890624, 33.564165 ] } },
{ "type": "Feature", "properties": { "内容": "居宅介護支援事業所　海の里【居宅介護支援】高知市仁井田１６１８番地１８", "url": "https://www.kaigokensaku.mhlw.go.jp/39/index.php?action_kouhyou_detail_004_kani=true&JigyosyoCd=3970100115-00&ServiceCd=430&Type=search", "url2": "http://uminosato.or.jp/caremanage/" }, "geometry": { "type": "Point", "coordinates": [ 133.572027, 33.5131904 ] } },
{ "type": "Feature", "properties": { "内容": "居宅介護支援事業所　おおつ【居宅介護支援】高知県高知市大津乙893番地1ルミネハイツ　B203号", "url": "https://www.kaigokensaku.mhlw.go.jp/39/index.php?action_kouhyou_detail_004_kani=true&JigyosyoCd=3970107946-00&ServiceCd=430&Type=search", "url2": null }, "geometry": { "type": "Point", "coordinates": [ 133.595901793254086, 33.570597017260887 ] } },
{ "type": "Feature", "properties": { "内容": "ツクイ高知神田【居宅介護支援】高知県高知市神田1404-1", "url": "https://www.kaigokensaku.mhlw.go.jp/39/index.php?action_kouhyou_detail_004_kani=true&JigyosyoCd=3970107326-00&ServiceCd=430&Type=search", "url2": "https://www.tsukui.net/home-care/2498/" }, "geometry": { "type": "Point", "coordinates": [ 133.517750020237742, 33.541176781333789 ] } },
{ "type": "Feature", "properties": { "内容": "居宅介護支援事業所まるごと応援隊【居宅介護支援】高知県高知市一宮西町3丁目31-25", "url": "https://www.kaigokensaku.mhlw.go.jp/39/index.php?action_kouhyou_detail_004_kani=true&JigyosyoCd=3970105148-00&ServiceCd=430&Type=search", "url2": "https://hata-dialife.jp" }, "geometry": { "type": "Point", "coordinates": [ 133.573427300000048, 33.5881424 ] } },
{ "type": "Feature", "properties": { "内容": "居宅介護支援事業所　よつば【居宅介護支援】大谷公園町16-25", "url": "https://www.kaigokensaku.mhlw.go.jp/39/index.php?action_kouhyou_detail_004_kani=true&JigyosyoCd=3970107052-00&ServiceCd=430&Type=search", "url2": null }, "geometry": { "type": "Point", "coordinates": [ 133.4820645, 33.5349594 ] } },
{ "type": "Feature", "properties": { "内容": "ケアマネステーション　りんくす【居宅介護支援】高知県高知市杉井流２６－１１", "url": "https://www.kaigokensaku.mhlw.go.jp/39/index.php?action_kouhyou_detail_004_kani=true&JigyosyoCd=3970105809-00&ServiceCd=430&Type=search", "url2": "https://ambition-links.co.jp/company/" }, "geometry": { "type": "Point", "coordinates": [ 133.556836533088756, 33.567791537206489 ] } },
{ "type": "Feature", "properties": { "内容": "ピアハウス高知居宅介護支援事業所【居宅介護支援】高知市塚ノ原４３在宅介護総合ステーションあさひ1階", "url": "https://www.kaigokensaku.mhlw.go.jp/39/index.php?action_kouhyou_detail_004_kani=true&JigyosyoCd=3950180046-00&ServiceCd=430&Type=search", "url2": "jyosenkai-piahouse.jp/" }, "geometry": { "type": "Point", "coordinates": [ 133.494280600000025, 33.5609216 ] } },
{ "type": "Feature", "properties": { "内容": "居宅介護支援事業所　花みずき【居宅介護支援】高知県室戸市室津1775-8", "url": "https://www.kaigokensaku.mhlw.go.jp/39/index.php?action_kouhyou_detail_004_kani=true&JigyosyoCd=3970200246-00&ServiceCd=430&Type=search", "url2": null }, "geometry": { "type": "Point", "coordinates": [ 134.159194599999978, 33.2931646 ] } },
{ "type": "Feature", "properties": { "内容": "居宅介護支援事業所あすなろ【居宅介護支援】高知県室戸市吉良川町乙２００４－１", "url": "https://www.kaigokensaku.mhlw.go.jp/39/index.php?action_kouhyou_detail_004_kani=true&JigyosyoCd=3970200089-00&ServiceCd=430&Type=search", "url2": "asunaro.miura@shirt.ocn.ne.jp" }, "geometry": { "type": "Point", "coordinates": [ 134.09428349999996, 33.33615470000003 ] } },
{ "type": "Feature", "properties": { "内容": "居宅介護支援事業所ゆうなぎ【居宅介護支援】高知県室戸市元甲2307-2", "url": "https://www.kaigokensaku.mhlw.go.jp/39/index.php?action_kouhyou_detail_004_kani=true&JigyosyoCd=3970200436-00&ServiceCd=430&Type=search", "url2": null }, "geometry": { "type": "Point", "coordinates": [ 134.1140771, 33.295036900000014 ] } },
{ "type": "Feature", "properties": { "内容": "居宅介護支援事業所あおい【居宅介護支援】高知県室戸市佐喜浜町３５８９番地１", "url": "https://www.kaigokensaku.mhlw.go.jp/39/index.php?action_kouhyou_detail_004_kani=true&JigyosyoCd=3970200329-00&ServiceCd=430&Type=search", "url2": null }, "geometry": { "type": "Point", "coordinates": [ 134.20355608465573, 33.403115566293117 ] } },
{ "type": "Feature", "properties": { "内容": "指定居宅介護支援事業所ゆい【居宅介護支援】高知県室戸市浮津三番町64番地", "url": "https://www.kaigokensaku.mhlw.go.jp/39/index.php?action_kouhyou_detail_004_kani=true&JigyosyoCd=3970200394-00&ServiceCd=430&Type=search", "url2": null }, "geometry": { "type": "Point", "coordinates": [ 134.143076400000041, 33.2934255 ] } },
{ "type": "Feature", "properties": { "内容": "居宅介護支援事業所りぼん【居宅介護支援】高知県室戸市羽根町甲880番地1", "url": "https://www.kaigokensaku.mhlw.go.jp/39/index.php?action_kouhyou_detail_004_kani=true&JigyosyoCd=3970200378-00&ServiceCd=430&Type=search", "url2": null }, "geometry": { "type": "Point", "coordinates": [ 134.062626499999965, 33.3636492 ] } },
{ "type": "Feature", "properties": { "内容": "西田順天堂居宅介護支援事業所東部【居宅介護支援】高知県安芸市庄之芝町3-3", "url": "https://www.kaigokensaku.mhlw.go.jp/39/index.php?action_kouhyou_detail_004_kani=true&JigyosyoCd=3970300103-00&ServiceCd=430&Type=search", "url2": null }, "geometry": { "type": "Point", "coordinates": [ 133.902202799999941, 33.501774 ] } },
{ "type": "Feature", "properties": { "内容": "東部ケアプランセンター　花【居宅介護支援】高知県安芸市土居1977番5", "url": "https://www.kaigokensaku.mhlw.go.jp/39/index.php?action_kouhyou_detail_004_kani=true&JigyosyoCd=3970300186-00&ServiceCd=430&Type=search", "url2": "https://manoamano87.jp" }, "geometry": { "type": "Point", "coordinates": [ 133.911576229538213, 33.507054885956691 ] } },
{ "type": "Feature", "properties": { "内容": "居宅介護支援事業所「うちはらの」【居宅介護支援】高知県安芸市川北乙1735番地", "url": "https://www.kaigokensaku.mhlw.go.jp/39/index.php?action_kouhyou_detail_004_kani=true&JigyosyoCd=3970300087-00&ServiceCd=430&Type=search", "url2": "http://tsutsujinooka.jp/" }, "geometry": { "type": "Point", "coordinates": [ 133.913597799999934, 33.5276018 ] } },
{ "type": "Feature", "properties": { "内容": "居宅介護支援事業所てくてく【居宅介護支援】安芸市川北甲1812番地15", "url": "https://www.kaigokensaku.mhlw.go.jp/39/index.php?action_kouhyou_detail_004_kani=true&JigyosyoCd=3970300178-00&ServiceCd=430&Type=search", "url2": "http://f-shizenmura.or.jp" }, "geometry": { "type": "Point", "coordinates": [ 133.915295600000036, 33.498 ] } },
{ "type": "Feature", "properties": { "内容": "居宅介護支援事業所　ＥＡＳＴマリン【居宅介護支援】高知県安芸市矢ノ丸３丁目１番２５号", "url": "https://www.kaigokensaku.mhlw.go.jp/39/index.php?action_kouhyou_detail_004_kani=true&JigyosyoCd=3910310477-00&ServiceCd=430&Type=search", "url2": "http://www.marine-hosp.jp/east/" }, "geometry": { "type": "Point", "coordinates": [ 133.9077605, 33.5031962 ] } },
{ "type": "Feature", "properties": { "内容": "居宅介護支援事業所　優【居宅介護支援】高知県安芸市川北乙787番地5", "url": "https://www.kaigokensaku.mhlw.go.jp/39/index.php?action_kouhyou_detail_004_kani=true&JigyosyoCd=3970300343-00&ServiceCd=430&Type=search", "url2": null }, "geometry": { "type": "Point", "coordinates": [ 133.926986099999965, 33.527005700000025 ] } },
{ "type": "Feature", "properties": { "内容": "居宅介護支援事業所ケアサポートあき【居宅介護支援】高知県安芸市港町2丁目635高知高須病院附属安芸診療所内2F", "url": "https://www.kaigokensaku.mhlw.go.jp/39/index.php?action_kouhyou_detail_004_kani=true&JigyosyoCd=3970300319-00&ServiceCd=430&Type=search", "url2": "http://www.takasuhp.or.jp" }, "geometry": { "type": "Point", "coordinates": [ 133.913234800000026, 33.50089950000001 ] } },
{ "type": "Feature", "properties": { "内容": "居宅介護支援事業所　とも【居宅介護支援】高知県安芸市伊尾木314番地", "url": "https://www.kaigokensaku.mhlw.go.jp/39/index.php?action_kouhyou_detail_004_kani=true&JigyosyoCd=3970300301-00&ServiceCd=430&Type=search", "url2": "https;//kyotaku-tomo.com" }, "geometry": { "type": "Point", "coordinates": [ 133.930724300000065, 33.492443 ] } },
{ "type": "Feature", "properties": { "内容": "土佐清風園居宅介護支援事業所【居宅介護支援】高知県南国市岡豊町小篭３５９－１", "url": "https://www.kaigokensaku.mhlw.go.jp/39/index.php?action_kouhyou_detail_004_kani=true&JigyosyoCd=3970400044-00&ServiceCd=430&Type=search", "url2": "http://tosaseifukai.com/index.html" }, "geometry": { "type": "Point", "coordinates": [ 133.6256525, 33.5782671 ] } },
{ "type": "Feature", "properties": { "内容": "指定居宅介護支援事業所　冨士屋ベターライフ【居宅介護支援】高知県南国市後免町２丁目１番１９号", "url": "https://www.kaigokensaku.mhlw.go.jp/39/index.php?action_kouhyou_detail_004_kani=true&JigyosyoCd=3970400101-00&ServiceCd=430&Type=search", "url2": null }, "geometry": { "type": "Point", "coordinates": [ 133.646992700000027, 33.5756874 ] } },
{ "type": "Feature", "properties": { "内容": "居宅介護支援事業所　ミモザ【居宅介護支援】高知県高知市緑ヶ丘3丁目703番地", "url": "https://www.kaigokensaku.mhlw.go.jp/39/index.php?action_kouhyou_detail_004_kani=true&JigyosyoCd=3970400812-00&ServiceCd=430&Type=search", "url2": "https://miyaden-mimoza.jimdofree.com/" }, "geometry": { "type": "Point", "coordinates": [ 133.606537300000014, 33.5330491 ] } },
{ "type": "Feature", "properties": { "内容": "ケアマネセンターこじゃリハぷらん【居宅介護支援】高知県南国市物部131-1", "url": "https://www.kaigokensaku.mhlw.go.jp/39/index.php?action_kouhyou_detail_004_kani=true&JigyosyoCd=3970400820-00&ServiceCd=430&Type=search", "url2": "https://rsb14267.wixsite.com/lisus" }, "geometry": { "type": "Point", "coordinates": [ 133.678282599999989, 33.5657604 ] } },
{ "type": "Feature", "properties": { "内容": "居宅介護支援事業所ひだまり【居宅介護支援】高知県南国市岡豊町中島1535特別養護老人ホーム陽だまりの里内", "url": "https://www.kaigokensaku.mhlw.go.jp/39/index.php?action_kouhyou_detail_004_kani=true&JigyosyoCd=3970400770-00&ServiceCd=430&Type=search", "url2": "http://f-shizenmura.or.jp" }, "geometry": { "type": "Point", "coordinates": [ 133.6161582, 33.5901901 ] } },
{ "type": "Feature", "properties": { "内容": "藤寿会南国居宅介護支援事業所【居宅介護支援】南国市大そね乙1072-1", "url": "https://www.kaigokensaku.mhlw.go.jp/39/index.php?action_kouhyou_detail_004_kani=true&JigyosyoCd=3970400028-00&ServiceCd=430&Type=search", "url2": "http://www.toujukai.jp/" }, "geometry": { "type": "Point", "coordinates": [ 133.6501091, 33.565944100000017 ] } },
{ "type": "Feature", "properties": { "内容": "居宅介護支援事業所「南国中央病院・夢の里」【居宅介護支援】高知県南国市後免町3丁目1-27", "url": "https://www.kaigokensaku.mhlw.go.jp/39/index.php?action_kouhyou_detail_004_kani=true&JigyosyoCd=3970400127-00&ServiceCd=430&Type=search", "url2": "http://www.chisio-group.or.jp" }, "geometry": { "type": "Point", "coordinates": [ 133.648189799999955, 33.576237399999954 ] } },
{ "type": "Feature", "properties": { "内容": "西田順天堂居宅介護支援事業所【居宅介護支援】高知県南国市大埇甲1705", "url": "https://www.kaigokensaku.mhlw.go.jp/39/index.php?action_kouhyou_detail_004_kani=true&JigyosyoCd=3940440138-00&ServiceCd=430&Type=search", "url2": "http://www.nishida-ph.net" }, "geometry": { "type": "Point", "coordinates": [ 133.647512523942567, 33.574392847323082 ] } },
{ "type": "Feature", "properties": { "内容": "居宅介護支援事業所JAみのり【居宅介護支援】高知県南国市明見字八反田645-1介護老人保健施設ＪＡいなほ", "url": "https://www.kaigokensaku.mhlw.go.jp/39/index.php?action_kouhyou_detail_004_kani=true&JigyosyoCd=3970400341-00&ServiceCd=430&Type=search", "url2": "http://www.kouseiren.ja-kochi.or.jp/inaho/index.html" }, "geometry": { "type": "Point", "coordinates": [ 133.624564698364253, 33.569064975848129 ] } },
{ "type": "Feature", "properties": { "内容": "居宅介護支援事業所よつば【居宅介護支援】高知県土佐市家俊241－11", "url": "https://www.kaigokensaku.mhlw.go.jp/39/index.php?action_kouhyou_detail_004_kani=true&JigyosyoCd=3970500777-00&ServiceCd=430&Type=search", "url2": null }, "geometry": { "type": "Point", "coordinates": [ 133.34910519999994, 33.4622088 ] } },
{ "type": "Feature", "properties": { "内容": "居宅介護支援事業所ケアビレッジとさ【居宅介護支援】高知県土佐市蓮池1231番2", "url": "https://www.kaigokensaku.mhlw.go.jp/39/index.php?action_kouhyou_detail_004_kani=true&JigyosyoCd=3970500793-00&ServiceCd=430&Type=search", "url2": "http://www.mizuho-medicare.com/" }, "geometry": { "type": "Point", "coordinates": [ 133.4042512, 33.4889036 ] } },
{ "type": "Feature", "properties": { "内容": "あ・とむ居宅介護支援事業所【居宅介護支援】高知県土佐市北地６２３番１", "url": "https://www.kaigokensaku.mhlw.go.jp/39/index.php?action_kouhyou_detail_004_kani=true&JigyosyoCd=3970500181-00&ServiceCd=430&Type=search", "url2": "http://npo-atom.main.jp/wp/" }, "geometry": { "type": "Point", "coordinates": [ 133.380852279695148, 33.487772849088586 ] } },
{ "type": "Feature", "properties": { "内容": "ファミリー　居宅介護支援事業所【居宅介護支援】土佐市高岡町乙3234-1", "url": "https://www.kaigokensaku.mhlw.go.jp/39/index.php?action_kouhyou_detail_004_kani=true&JigyosyoCd=3970500405-00&ServiceCd=430&Type=search", "url2": "https://www.nishida-ph.net/nursing/nursing-shikoku/" }, "geometry": { "type": "Point", "coordinates": [ 133.42701798531948, 33.504885394363114 ] } },
{ "type": "Feature", "properties": { "内容": "居宅介護支援事業所きりん【居宅介護支援】高知県土佐市高岡町甲1792番地２", "url": "https://www.kaigokensaku.mhlw.go.jp/39/index.php?action_kouhyou_detail_004_kani=true&JigyosyoCd=3970500744-00&ServiceCd=430&Type=search", "url2": null }, "geometry": { "type": "Point", "coordinates": [ 133.423156, 33.492074948205214 ] } },
{ "type": "Feature", "properties": { "内容": "居宅介護支援事業所　ひなぎく【居宅介護支援】高知県土佐市新居274番地1", "url": "https://www.kaigokensaku.mhlw.go.jp/39/index.php?action_kouhyou_detail_004_kani=true&JigyosyoCd=3970500140-00&ServiceCd=430&Type=search", "url2": "http://siragiku.jp/hinagiku/hinagiku_top.html" }, "geometry": { "type": "Point", "coordinates": [ 133.459168373680086, 33.449725127258461 ] } },
{ "type": "Feature", "properties": { "内容": "居宅介護支援事業所ケアビレッジ【居宅介護支援】高知県須崎市多ノ郷甲5741", "url": "https://www.kaigokensaku.mhlw.go.jp/39/index.php?action_kouhyou_detail_004_kani=true&JigyosyoCd=3970600221-00&ServiceCd=430&Type=search", "url2": "http://kochi-mizuho.com/cv_susaki/kyotaku.html" }, "geometry": { "type": "Point", "coordinates": [ 133.283895699999988, 33.4090385 ] } },
{ "type": "Feature", "properties": { "内容": "居宅介護支援事業所きづき【居宅介護支援】高知県須崎市浦ノ内東分４０９番地２", "url": "https://www.kaigokensaku.mhlw.go.jp/39/index.php?action_kouhyou_detail_004_kani=true&JigyosyoCd=3970600528-00&ServiceCd=430&Type=search", "url2": null }, "geometry": { "type": "Point", "coordinates": [ 133.3632538, 33.431586 ] } },
{ "type": "Feature", "properties": { "内容": "ケアプランセンターくりの木【居宅介護支援】高知県須崎市安和1201番地54", "url": "https://www.kaigokensaku.mhlw.go.jp/39/index.php?action_kouhyou_detail_004_kani=true&JigyosyoCd=3970600502-00&ServiceCd=430&Type=search", "url2": null }, "geometry": { "type": "Point", "coordinates": [ 133.26294928650816, 33.358133045043786 ] } },
{ "type": "Feature", "properties": { "内容": "居宅介護支援事業所楽リハ【居宅介護支援】高知県須崎市多ノ郷甲1069－1", "url": "https://www.kaigokensaku.mhlw.go.jp/39/index.php?action_kouhyou_detail_004_kani=true&JigyosyoCd=3970600510-00&ServiceCd=430&Type=search", "url2": null }, "geometry": { "type": "Point", "coordinates": [ 133.2809503, 33.412941 ] } },
{ "type": "Feature", "properties": { "内容": "清流の家居宅介護支援事業所【居宅介護支援】高知県須崎市上分丙１７５８番地８", "url": "https://www.kaigokensaku.mhlw.go.jp/39/index.php?action_kouhyou_detail_004_kani=true&JigyosyoCd=3970600023-00&ServiceCd=430&Type=search", "url2": "http://mb.scatv.ne.jp/~seiryuso/" }, "geometry": { "type": "Point", "coordinates": [ 133.236941800000068, 33.3997083 ] } },
{ "type": "Feature", "properties": { "内容": "ケアプランセンターどんぐりの里【居宅介護支援】高知県須崎市吾井郷乙1909番地3", "url": "https://www.kaigokensaku.mhlw.go.jp/39/index.php?action_kouhyou_detail_004_kani=true&JigyosyoCd=3970600536-00&ServiceCd=430&Type=search", "url2": null }, "geometry": { "type": "Point", "coordinates": [ 133.292975002654998, 33.418365716583203 ] } },
{ "type": "Feature", "properties": { "内容": "宿毛市東部居宅介護支援事業所【居宅介護支援】高知県宿毛市平田町戸内1824番地", "url": "https://www.kaigokensaku.mhlw.go.jp/39/index.php?action_kouhyou_detail_004_kani=true&JigyosyoCd=3960990012-00&ServiceCd=430&Type=search", "url2": "http://www.gallery.ne.jp/~hojuen/" }, "geometry": { "type": "Point", "coordinates": [ 132.798878057008352, 32.960060427489999 ] } },
{ "type": "Feature", "properties": { "内容": "有限会社　たんぽぽ指定居宅介護支援事業所【居宅介護支援】高知県宿毛市橋上町平野２２８番地", "url": "https://www.kaigokensaku.mhlw.go.jp/39/index.php?action_kouhyou_detail_004_kani=true&JigyosyoCd=3970900050-00&ServiceCd=430&Type=search", "url2": null }, "geometry": { "type": "Point", "coordinates": [ 132.759899099999984, 32.9684532 ] } },
{ "type": "Feature", "properties": { "内容": "宿毛市中央居宅介護支援事業所【居宅介護支援】高知県宿毛市中央７丁目５番４４号", "url": "https://www.kaigokensaku.mhlw.go.jp/39/index.php?action_kouhyou_detail_004_kani=true&JigyosyoCd=3970900027-00&ServiceCd=430&Type=search", "url2": "http://sukumofukushikai.net" }, "geometry": { "type": "Point", "coordinates": [ 132.724913499999957, 32.9358977 ] } },
{ "type": "Feature", "properties": { "内容": "居宅介護支援事業所ヒロ・ケアサポート【居宅介護支援】高知県宿毛市片島5－20", "url": "https://www.kaigokensaku.mhlw.go.jp/39/index.php?action_kouhyou_detail_004_kani=true&JigyosyoCd=3970900183-00&ServiceCd=430&Type=search", "url2": "https://www.wankara.jp/" }, "geometry": { "type": "Point", "coordinates": [ 132.7014972, 32.9205334 ] } },
{ "type": "Feature", "properties": { "内容": "しみず居宅介護支援事業所【居宅介護支援】高知県土佐清水市天神町１４－１８", "url": "https://www.kaigokensaku.mhlw.go.jp/39/index.php?action_kouhyou_detail_004_kani=true&JigyosyoCd=3910810872-00&ServiceCd=430&Type=search", "url2": "http://matsutani-hp.or.jp/?page_id=88" }, "geometry": { "type": "Point", "coordinates": [ 132.9543529, 32.7827583 ] } },
{ "type": "Feature", "properties": { "内容": "指定居宅介護支援事業所「あったか渭南」【居宅介護支援】高知県土佐清水市越前町６番１０号", "url": "https://www.kaigokensaku.mhlw.go.jp/39/index.php?action_kouhyou_detail_004_kani=true&JigyosyoCd=3970800045-00&ServiceCd=430&Type=search", "url2": "http://www.inan-hp.jp/class_10.html" }, "geometry": { "type": "Point", "coordinates": [ 132.950914467459143, 32.781479684206182 ] } },
{ "type": "Feature", "properties": { "内容": "居宅介護支援事業所　あんきな家【居宅介護支援】高知県土佐清水市加久見1464-279", "url": "https://www.kaigokensaku.mhlw.go.jp/39/index.php?action_kouhyou_detail_004_kani=true&JigyosyoCd=3970800151-00&ServiceCd=430&Type=search", "url2": "法人全体のﾎｰﾑページを利用" }, "geometry": { "type": "Point", "coordinates": [ 132.9255336, 32.7848033 ] } },
{ "type": "Feature", "properties": { "内容": "あしずり居宅介護支援事業所【居宅介護支援】高知県土佐清水市旭町１８番７１号", "url": "https://www.kaigokensaku.mhlw.go.jp/39/index.php?action_kouhyou_detail_004_kani=true&JigyosyoCd=3970800128-00&ServiceCd=430&Type=search", "url2": null }, "geometry": { "type": "Point", "coordinates": [ 132.961579900000061, 32.7792481 ] } },
{ "type": "Feature", "properties": { "内容": "特定非営利活動法人　高知県介護の会【居宅介護支援】高知県四万十市国見929番地1", "url": "https://www.kaigokensaku.mhlw.go.jp/39/index.php?action_kouhyou_detail_004_kani=true&JigyosyoCd=3970700070-00&ServiceCd=430&Type=search", "url2": null }, "geometry": { "type": "Point", "coordinates": [ 132.87933750000002, 32.9799706 ] } },
{ "type": "Feature", "properties": { "内容": "居宅介護支援事業所　えびす【居宅介護支援】高知県四万十市不破巾着島2050-20", "url": "https://www.kaigokensaku.mhlw.go.jp/39/index.php?action_kouhyou_detail_004_kani=true&JigyosyoCd=3960790024-00&ServiceCd=430&Type=search", "url2": null }, "geometry": { "type": "Point", "coordinates": [ 132.928124699464291, 32.981275652741054 ] } },
{ "type": "Feature", "properties": { "内容": "居宅介護支援事業所　のぞみ【居宅介護支援】高知県四万十市坂本988番地1", "url": "https://www.kaigokensaku.mhlw.go.jp/39/index.php?action_kouhyou_detail_004_kani=true&JigyosyoCd=3961090010-00&ServiceCd=430&Type=search", "url2": null }, "geometry": { "type": "Point", "coordinates": [ 132.936084117206178, 32.974120474357051 ] } },
{ "type": "Feature", "properties": { "内容": "居宅介護支援事業所　かわせみ【居宅介護支援】高知県四万十市西土佐用井１１１０番地１", "url": "https://www.kaigokensaku.mhlw.go.jp/39/index.php?action_kouhyou_detail_004_kani=true&JigyosyoCd=3972600047-00&ServiceCd=430&Type=search", "url2": "https://nishitosa-kawasemi.jp/facility" }, "geometry": { "type": "Point", "coordinates": [ 132.795020199999954, 33.1724967 ] } },
{ "type": "Feature", "properties": { "内容": "居宅介護支援事業所　介援隊【居宅介護支援】四万十市具同字六反田3239番地29", "url": "https://www.kaigokensaku.mhlw.go.jp/39/index.php?action_kouhyou_detail_004_kani=true&JigyosyoCd=3971000298-00&ServiceCd=430&Type=search", "url2": null }, "geometry": { "type": "Point", "coordinates": [ 132.913132151158493, 32.979208007616442 ] } },
{ "type": "Feature", "properties": { "内容": "居宅介護支援事業所　虹の丘【居宅介護支援】高知県四万十市右山１９７３番地８", "url": "https://www.kaigokensaku.mhlw.go.jp/39/index.php?action_kouhyou_detail_004_kani=true&JigyosyoCd=3971000082-00&ServiceCd=430&Type=search", "url2": "http://yusunoki.or.jp/" }, "geometry": { "type": "Point", "coordinates": [ 132.945783351589967, 32.978178993529184 ] } },
{ "type": "Feature", "properties": { "内容": "居宅介護支援事業所いこい【居宅介護支援】高知県四万十市西土佐半家462", "url": "https://www.kaigokensaku.mhlw.go.jp/39/index.php?action_kouhyou_detail_004_kani=true&JigyosyoCd=3971000421-00&ServiceCd=430&Type=search", "url2": null }, "geometry": { "type": "Point", "coordinates": [ 132.7957992, 33.2069738 ] } },
{ "type": "Feature", "properties": { "内容": "居宅介護支援事業所　黒潮【居宅介護支援】高知県四万十市中村愛宕町２８番地在宅総合ケアセンター治優園", "url": "https://www.kaigokensaku.mhlw.go.jp/39/index.php?action_kouhyou_detail_004_kani=true&JigyosyoCd=3950780019-00&ServiceCd=430&Type=search", "url2": "https://kuroshiofukushikai.com/" }, "geometry": { "type": "Point", "coordinates": [ 132.933257700000013, 32.9938477 ] } },
{ "type": "Feature", "properties": { "内容": "居宅介護支援事業所　四万十の郷【居宅介護支援】高知県四万十市安並字東丸5803", "url": "https://www.kaigokensaku.mhlw.go.jp/39/index.php?action_kouhyou_detail_004_kani=true&JigyosyoCd=3970700039-00&ServiceCd=430&Type=search", "url2": "http://nankai-f.jp/" }, "geometry": { "type": "Point", "coordinates": [ 132.9354045, 33.002197 ] } },
{ "type": "Feature", "properties": { "内容": "指定居宅介護支援事業所　ラブ【居宅介護支援】高知県四万十市駅前町9番16号", "url": "https://www.kaigokensaku.mhlw.go.jp/39/index.php?action_kouhyou_detail_004_kani=true&JigyosyoCd=3910710734-00&ServiceCd=430&Type=search", "url2": null }, "geometry": { "type": "Point", "coordinates": [ 132.9444134, 32.9833186 ] } },
{ "type": "Feature", "properties": { "内容": "居宅介護支援事業所　なかむら【居宅介護支援】高知県四万十市中村小姓町82番地1", "url": "https://www.kaigokensaku.mhlw.go.jp/39/index.php?action_kouhyou_detail_004_kani=true&JigyosyoCd=3910710254-00&ServiceCd=430&Type=search", "url2": null }, "geometry": { "type": "Point", "coordinates": [ 132.932993900000042, 32.9947199 ] } },
{ "type": "Feature", "properties": { "内容": "居宅介護支援事業所あらた【居宅介護支援】高知県四万十市中村大橋通6丁目３－７とらやビル３Ｆ4号", "url": "https://www.kaigokensaku.mhlw.go.jp/39/index.php?action_kouhyou_detail_004_kani=true&JigyosyoCd=3971000033-00&ServiceCd=430&Type=search", "url2": null }, "geometry": { "type": "Point", "coordinates": [ 132.937031599999955, 32.9900037 ] } },
{ "type": "Feature", "properties": { "内容": "ｹｱﾏﾈｽﾃｰｼｮﾝ虹のそら【居宅介護支援】高知県香南市野市町下井371番地9東棟", "url": "https://www.kaigokensaku.mhlw.go.jp/39/index.php?action_kouhyou_detail_004_kani=true&JigyosyoCd=3971100395-00&ServiceCd=430&Type=search", "url2": null }, "geometry": { "type": "Point", "coordinates": [ 133.693339, 33.5573828 ] } },
{ "type": "Feature", "properties": { "内容": "ケアプランセンターあいな【居宅介護支援】高知県香南市野市町みどり野東１丁目22番地", "url": "https://www.kaigokensaku.mhlw.go.jp/39/index.php?action_kouhyou_detail_004_kani=true&JigyosyoCd=3971100361-00&ServiceCd=430&Type=search", "url2": "https://www.big-advance.site/c/168/1533/profile" }, "geometry": { "type": "Point", "coordinates": [ 133.7214531, 33.5656494 ] } },
{ "type": "Feature", "properties": { "内容": "ケアマネセンター白岩【居宅介護支援】高知県香南市野市町東佐古727-2", "url": "https://www.kaigokensaku.mhlw.go.jp/39/index.php?action_kouhyou_detail_004_kani=true&JigyosyoCd=3971100239-00&ServiceCd=430&Type=search", "url2": "www.nishida-kaigo.com" }, "geometry": { "type": "Point", "coordinates": [ 133.711184300000014, 33.5847788 ] } },
{ "type": "Feature", "properties": { "内容": "ケアプランセンター縁【居宅介護支援】高知県香南市野市町東野202番地1", "url": "https://www.kaigokensaku.mhlw.go.jp/39/index.php?action_kouhyou_detail_004_kani=true&JigyosyoCd=3971100296-00&ServiceCd=430&Type=search", "url2": "https://www.en-inc.info" }, "geometry": { "type": "Point", "coordinates": [ 133.705058400000013, 33.562173200000011 ] } },
{ "type": "Feature", "properties": { "内容": "ケアテラス　モカ【居宅介護支援】高知県香南市野市町東野338番地2メゾングロワール201号", "url": "https://www.kaigokensaku.mhlw.go.jp/39/index.php?action_kouhyou_detail_004_kani=true&JigyosyoCd=3971100353-00&ServiceCd=430&Type=search", "url2": null }, "geometry": { "type": "Point", "coordinates": [ 133.7140755, 33.5629775 ] } },
{ "type": "Feature", "properties": { "内容": "ケアプランセンター　はまゆう【居宅介護支援】香南市赤岡町１１６０－１", "url": "https://www.kaigokensaku.mhlw.go.jp/39/index.php?action_kouhyou_detail_004_kani=true&JigyosyoCd=3972100071-00&ServiceCd=430&Type=search", "url2": "https://www.kounankai.jp/hama_hamayu.html" }, "geometry": { "type": "Point", "coordinates": [ 133.730083299999933, 33.5463756 ] } },
{ "type": "Feature", "properties": { "内容": "三宝荘居宅介護支援事業所【居宅介護支援】高知県香南市野市町母代寺１８８番地", "url": "https://www.kaigokensaku.mhlw.go.jp/39/index.php?action_kouhyou_detail_004_kani=true&JigyosyoCd=3972100055-00&ServiceCd=430&Type=search", "url2": "https://konan－kami.JP" }, "geometry": { "type": "Point", "coordinates": [ 133.702737899999988, 33.5817488 ] } },
{ "type": "Feature", "properties": { "内容": "香南市社会福祉協議会　居宅介護支援事業所【居宅介護支援】高知県香南市香我美町下分646(香南市役所香我美庁舎２階）", "url": "https://www.kaigokensaku.mhlw.go.jp/39/index.php?action_kouhyou_detail_004_kani=true&JigyosyoCd=3971100015-00&ServiceCd=430&Type=search", "url2": "http://konanshi-shakyo.or.jp/" }, "geometry": { "type": "Point", "coordinates": [ 133.741691580206293, 33.570768577651457 ] } },
{ "type": "Feature", "properties": { "内容": "ケアサポートきらら【居宅介護支援】香南市野市町大谷530番地", "url": "https://www.kaigokensaku.mhlw.go.jp/39/index.php?action_kouhyou_detail_004_kani=true&JigyosyoCd=3971100106-00&ServiceCd=430&Type=search", "url2": null }, "geometry": { "type": "Point", "coordinates": [ 133.707523499999979, 33.5744414 ] } },
{ "type": "Feature", "properties": { "内容": "ケアマネセンター向日葵【居宅介護支援】高知県香南市野市町西野2123番地25天山台マンション202号室", "url": "https://www.kaigokensaku.mhlw.go.jp/39/index.php?action_kouhyou_detail_004_kani=true&JigyosyoCd=3971100338-00&ServiceCd=430&Type=search", "url2": null }, "geometry": { "type": "Point", "coordinates": [ 133.699934, 33.5611048 ] } },
{ "type": "Feature", "properties": { "内容": "居宅介護支援事業所かがみ【居宅介護支援】高知県香南市香我美町岸本３２８－１７４", "url": "https://www.kaigokensaku.mhlw.go.jp/39/index.php?action_kouhyou_detail_004_kani=true&JigyosyoCd=3972100212-00&ServiceCd=430&Type=search", "url2": "http://www.chisio-group.or.jp" }, "geometry": { "type": "Point", "coordinates": [ 133.731544500000041, 33.5393098 ] } },
{ "type": "Feature", "properties": { "内容": "ケアプランセンター香南【居宅介護支援】野市町本村1450番地", "url": "https://www.kaigokensaku.mhlw.go.jp/39/index.php?action_kouhyou_detail_004_kani=true&JigyosyoCd=3971100247-00&ServiceCd=430&Type=search", "url2": null }, "geometry": { "type": "Point", "coordinates": [ 133.731371299999978, 33.5808491 ] } },
{ "type": "Feature", "properties": { "内容": "白寿荘居宅介護支援事業所【居宅介護支援】高知県香美市香北町永野２１５２番地", "url": "https://www.kaigokensaku.mhlw.go.jp/39/index.php?action_kouhyou_detail_004_kani=true&JigyosyoCd=3972100113-00&ServiceCd=430&Type=search", "url2": "https://konan-kami.net" }, "geometry": { "type": "Point", "coordinates": [ 133.817208, 33.6656907 ] } },
{ "type": "Feature", "properties": { "内容": "居宅介護支援事業所おおみたから【居宅介護支援】高知県香美市香北町韮生野字堂ノ前335番地3", "url": "https://www.kaigokensaku.mhlw.go.jp/39/index.php?action_kouhyou_detail_004_kani=true&JigyosyoCd=3971200237-00&ServiceCd=430&Type=search", "url2": "http://m.facebook.com/oomitakara/" }, "geometry": { "type": "Point", "coordinates": [ 133.784602522753886, 33.649071879691185 ] } },
{ "type": "Feature", "properties": { "内容": "香美市社協ケアプランセンター八王子【居宅介護支援】高知県香美市土佐山田町２６２番地１", "url": "https://www.kaigokensaku.mhlw.go.jp/39/index.php?action_kouhyou_detail_004_kani=true&JigyosyoCd=3971200021-00&ServiceCd=430&Type=search", "url2": "http://kami-shakyo.or.jp" }, "geometry": { "type": "Point", "coordinates": [ 133.687628099999984, 33.6106788 ] } },
{ "type": "Feature", "properties": { "内容": "医療法人岩河会　指定居宅介護支援事業所　ケアプランセンターあじさい【居宅介護支援】高知県香美市香北町美良布1298グループホーム　びらふ", "url": "https://www.kaigokensaku.mhlw.go.jp/39/index.php?action_kouhyou_detail_004_kani=true&JigyosyoCd=3971200062-00&ServiceCd=430&Type=search", "url2": null }, "geometry": { "type": "Point", "coordinates": [ 133.779664528138909, 33.64859157215934 ] } },
{ "type": "Feature", "properties": { "内容": "指定居宅介護支援事業所　相談センターウエルプラザ【居宅介護支援】高知県香美市土佐山田町548", "url": "https://www.kaigokensaku.mhlw.go.jp/39/index.php?action_kouhyou_detail_004_kani=true&JigyosyoCd=3972100030-00&ServiceCd=430&Type=search", "url2": null }, "geometry": { "type": "Point", "coordinates": [ 133.675557, 33.6085984 ] } },
{ "type": "Feature", "properties": { "内容": "医療法人岩河会指定居宅介護支援事業所さくらケアプランセンター【居宅介護支援】高知県香美市土佐山田町百石町２丁目１番５０号", "url": "https://www.kaigokensaku.mhlw.go.jp/39/index.php?action_kouhyou_detail_004_kani=true&JigyosyoCd=3962190033-00&ServiceCd=430&Type=search", "url2": null }, "geometry": { "type": "Point", "coordinates": [ 133.697841, 33.6093648 ] } },
{ "type": "Feature", "properties": { "内容": "居宅介護支援事業所　あさひ【居宅介護支援】高知県香美市土佐山田町旭町４丁目２番６号", "url": "https://www.kaigokensaku.mhlw.go.jp/39/index.php?action_kouhyou_detail_004_kani=true&JigyosyoCd=3971200138-00&ServiceCd=430&Type=search", "url2": null }, "geometry": { "type": "Point", "coordinates": [ 133.690597300000036, 33.6059987 ] } },
{ "type": "Feature", "properties": { "内容": "居宅介護支援事業所いろは【居宅介護支援】高知県香美市土佐山田町百石町1丁目６－２４", "url": "https://www.kaigokensaku.mhlw.go.jp/39/index.php?action_kouhyou_detail_004_kani=true&JigyosyoCd=3971200260-00&ServiceCd=430&Type=search", "url2": null }, "geometry": { "type": "Point", "coordinates": [ 133.694402500000024, 33.607754 ] } },
{ "type": "Feature", "properties": { "内容": "龍馬ケアプランセンター【居宅介護支援】高知県安芸郡東洋町大字河内字王子田353番地1", "url": "https://www.kaigokensaku.mhlw.go.jp/39/index.php?action_kouhyou_detail_004_kani=true&JigyosyoCd=3972000461-00&ServiceCd=430&Type=search", "url2": "https://www.kenshokai.group" }, "geometry": { "type": "Point", "coordinates": [ 134.290489, 33.545121 ] } },
{ "type": "Feature", "properties": { "内容": "ケアプランセンター　てのひら【居宅介護支援】高知県安芸郡奈半利町乙４４０番地１", "url": "https://www.kaigokensaku.mhlw.go.jp/39/index.php?action_kouhyou_detail_004_kani=true&JigyosyoCd=3972000057-00&ServiceCd=430&Type=search", "url2": null }, "geometry": { "type": "Point", "coordinates": [ 134.028166423313564, 33.420440287099275 ] } },
{ "type": "Feature", "properties": { "内容": "ケアプランナー　ハーネス【居宅介護支援】高知県安芸郡奈半利町乙3704-1", "url": "https://www.kaigokensaku.mhlw.go.jp/39/index.php?action_kouhyou_detail_004_kani=true&JigyosyoCd=3952080012-00&ServiceCd=430&Type=search", "url2": "http://www.ccc-21.co.jp/harness/" }, "geometry": { "type": "Point", "coordinates": [ 134.02772959999993, 33.4373629 ] } },
{ "type": "Feature", "properties": { "内容": "居宅介護支援事業所みみ【居宅介護支援】高知県安芸郡芸西村和食甲1518-1", "url": "https://www.kaigokensaku.mhlw.go.jp/39/index.php?action_kouhyou_detail_004_kani=true&JigyosyoCd=3972000479-00&ServiceCd=430&Type=search", "url2": null }, "geometry": { "type": "Point", "coordinates": [ 133.809304796360976, 33.521031868937342 ] } },
{ "type": "Feature", "properties": { "内容": "支援事業所みずき【居宅介護支援】高知県安芸郡芸西村和食甲4268", "url": "https://www.kaigokensaku.mhlw.go.jp/39/index.php?action_kouhyou_detail_004_kani=true&JigyosyoCd=3972000446-00&ServiceCd=430&Type=search", "url2": "ｈｔｔｐ//ｗｗｗ.mizukikai.or.jp" }, "geometry": { "type": "Point", "coordinates": [ 133.820151799999962, 33.5214349 ] } },
{ "type": "Feature", "properties": { "内容": "居宅介護支援事業所　　洋寿【居宅介護支援】高知県安芸郡芸西村西分乙２９７番ウエルプラザ洋寿荘", "url": "https://www.kaigokensaku.mhlw.go.jp/39/index.php?action_kouhyou_detail_004_kani=true&JigyosyoCd=3972000297-00&ServiceCd=430&Type=search", "url2": "http://www.welplaza.or.jp" }, "geometry": { "type": "Point", "coordinates": [ 133.77226179021298, 33.516271255733834 ] } },
{ "type": "Feature", "properties": { "内容": "さわもと居宅介護支援事業所【居宅介護支援】高知県長岡郡本山町吉野347-1", "url": "https://www.kaigokensaku.mhlw.go.jp/39/index.php?action_kouhyou_detail_004_kani=true&JigyosyoCd=3972200103-00&ServiceCd=430&Type=search", "url2": null }, "geometry": { "type": "Point", "coordinates": [ 133.562257698255934, 33.752806115224594 ] } },
{ "type": "Feature", "properties": { "内容": "本山町居宅介護支援事業所【居宅介護支援】高知県長岡郡本山町本山636番地本山町役場　健康福祉課", "url": "https://www.kaigokensaku.mhlw.go.jp/39/index.php?action_kouhyou_detail_004_kani=true&JigyosyoCd=3972200145-00&ServiceCd=430&Type=search", "url2": "https://www.town.motoyama.kochi.jp" }, "geometry": { "type": "Point", "coordinates": [ 133.586910112515596, 33.759714203197341 ] } },
{ "type": "Feature", "properties": { "内容": "大豊町指定居宅介護支援事業所【居宅介護支援】高知県長岡郡大豊町黒石３４５番地７", "url": "https://www.kaigokensaku.mhlw.go.jp/39/index.php?action_kouhyou_detail_004_kani=true&JigyosyoCd=3972200012-00&ServiceCd=430&Type=search", "url2": null }, "geometry": { "type": "Point", "coordinates": [ 133.7263355, 33.7861391 ] } },
{ "type": "Feature", "properties": { "内容": "居宅介護支援事業所　常磐【居宅介護支援】高知県土佐郡土佐町田井1377-29", "url": "https://www.kaigokensaku.mhlw.go.jp/39/index.php?action_kouhyou_detail_004_kani=true&JigyosyoCd=3972300127-00&ServiceCd=430&Type=search", "url2": "tokiwaen-k.or.jp" }, "geometry": { "type": "Point", "coordinates": [ 133.5570702, 33.7465797 ] } },
{ "type": "Feature", "properties": { "内容": "嶺北総合介護サービス【居宅介護支援】高知県土佐郡土佐町田井１３７２土佐町田井1372", "url": "https://www.kaigokensaku.mhlw.go.jp/39/index.php?action_kouhyou_detail_004_kani=true&JigyosyoCd=3972300093-00&ServiceCd=430&Type=search", "url2": "http://juzen-kai.or.jp/care.html#care01" }, "geometry": { "type": "Point", "coordinates": [ 133.557353499999977, 33.7468936 ] } },
{ "type": "Feature", "properties": { "内容": "町田整形居宅介護支援事業所【居宅介護支援】高知県吾川郡いの町天王南１-6-3", "url": "https://www.kaigokensaku.mhlw.go.jp/39/index.php?action_kouhyou_detail_004_kani=true&JigyosyoCd=3912410762-00&ServiceCd=430&Type=search", "url2": "http://www.machidaseikei.com/kyotaku.html" }, "geometry": { "type": "Point", "coordinates": [ 133.440729899999951, 33.5279184 ] } },
{ "type": "Feature", "properties": { "内容": "居宅介護支援センター「あいの」【居宅介護支援】高知県吾川郡いの町１４００「すこやかセンター伊野」内", "url": "https://www.kaigokensaku.mhlw.go.jp/39/index.php?action_kouhyou_detail_004_kani=true&JigyosyoCd=3972400141-00&ServiceCd=430&Type=search", "url2": null }, "geometry": { "type": "Point", "coordinates": [ 133.4317397, 33.5466708 ] } },
{ "type": "Feature", "properties": { "内容": "いの町立居宅介護支援事業所によど【居宅介護支援】高知県吾川郡いの町１４８２－２仁淀清流苑１階", "url": "https://www.kaigokensaku.mhlw.go.jp/39/index.php?action_kouhyou_detail_004_kani=true&JigyosyoCd=3952480022-00&ServiceCd=430&Type=search", "url2": "http://www.town.ino.kochi.jp/niyodo-hospital/kyotaku.html" }, "geometry": { "type": "Point", "coordinates": [ 133.432886300000064, 33.5477047 ] } },
{ "type": "Feature", "properties": { "内容": "居宅介護支援事業所　和(なごみ）【居宅介護支援】高知県吾川郡いの町小川東津賀才53番地１", "url": "https://www.kaigokensaku.mhlw.go.jp/39/index.php?action_kouhyou_detail_004_kani=true&JigyosyoCd=3972400885-00&ServiceCd=430&Type=search", "url2": null }, "geometry": { "type": "Point", "coordinates": [ 133.300251300000014, 33.626821499999984 ] } },
{ "type": "Feature", "properties": { "内容": "ケアプラン　寿限無【居宅介護支援】高知県吾川郡いの町波川1913-2", "url": "https://www.kaigokensaku.mhlw.go.jp/39/index.php?action_kouhyou_detail_004_kani=true&JigyosyoCd=3972400745-00&ServiceCd=430&Type=search", "url2": null }, "geometry": { "type": "Point", "coordinates": [ 133.413544582942251, 33.54781211816735 ] } },
{ "type": "Feature", "properties": { "内容": "居宅介護支援事業所　ぼっちり【居宅介護支援】高知県吾川郡いの町駅前町14", "url": "https://www.kaigokensaku.mhlw.go.jp/39/index.php?action_kouhyou_detail_004_kani=true&JigyosyoCd=3972400810-00&ServiceCd=430&Type=search", "url2": "http://www.inofukushikai.com" }, "geometry": { "type": "Point", "coordinates": [ 133.432315725678393, 33.54871758165848 ] } },
{ "type": "Feature", "properties": { "内容": "サポートセンター　ほのか【居宅介護支援】高知県吾川郡仁淀川町大崎264-8番地", "url": "https://www.kaigokensaku.mhlw.go.jp/39/index.php?action_kouhyou_detail_004_kani=true&JigyosyoCd=3972400653-00&ServiceCd=430&Type=search", "url2": "http://www.niyodogawa-shakyo.or.jp/" }, "geometry": { "type": "Point", "coordinates": [ 133.172685099999939, 33.575465 ] } },
{ "type": "Feature", "properties": { "内容": "ぬくもり介護センター　おおの【居宅介護支援】高知県吾川郡仁淀川町森３６７５番地", "url": "https://www.kaigokensaku.mhlw.go.jp/39/index.php?action_kouhyou_detail_004_kani=true&JigyosyoCd=3972400513-00&ServiceCd=430&Type=search", "url2": null }, "geometry": { "type": "Point", "coordinates": [ 133.13257109999995, 33.5305449 ] } },
{ "type": "Feature", "properties": { "内容": "居宅介護支援事業所上ノ加江【居宅介護支援】高知県高岡郡中土佐町上ノ加江２７７番地１０", "url": "https://www.kaigokensaku.mhlw.go.jp/39/index.php?action_kouhyou_detail_004_kani=true&JigyosyoCd=3972500494-00&ServiceCd=430&Type=search", "url2": "http://kadofukushikai.com/" }, "geometry": { "type": "Point", "coordinates": [ 133.246309600000018, 33.2742034 ] } },
{ "type": "Feature", "properties": { "内容": "ケアプランセンター三日月【居宅介護支援】高知県高岡郡中土佐町久礼6252番地3", "url": "https://www.kaigokensaku.mhlw.go.jp/39/index.php?action_kouhyou_detail_004_kani=true&JigyosyoCd=3972501419-00&ServiceCd=430&Type=search", "url2": "https://isana.life/" }, "geometry": { "type": "Point", "coordinates": [ 133.230152367459112, 33.33035758708597 ] } },
{ "type": "Feature", "properties": { "内容": "株式会社ケアセンターさかわ【居宅介護支援】乙２１５８番地３６おの家具倉庫跡地", "url": "https://www.kaigokensaku.mhlw.go.jp/39/index.php?action_kouhyou_detail_004_kani=true&JigyosyoCd=3972501401-00&ServiceCd=430&Type=search", "url2": "https://www.big-advance.site/s/168/1335" }, "geometry": { "type": "Point", "coordinates": [ 133.283838699999933, 33.506944 ] } },
{ "type": "Feature", "properties": { "内容": "社会福祉法人佐川町社会福祉協議会【居宅介護支援】高知県高岡郡佐川町乙２３１０番地健康福祉センターかわせみ内", "url": "https://www.kaigokensaku.mhlw.go.jp/39/index.php?action_kouhyou_detail_004_kani=true&JigyosyoCd=3972500262-00&ServiceCd=430&Type=search", "url2": "https://sakawa-shakyo.jp" }, "geometry": { "type": "Point", "coordinates": [ 133.287371600000029, 33.5055018 ] } },
{ "type": "Feature", "properties": { "内容": "居宅介護支援事業所　支援センターかがやき【居宅介護支援】高岡郡越知町越知甲１６６７番地３", "url": "https://www.kaigokensaku.mhlw.go.jp/39/index.php?action_kouhyou_detail_004_kani=true&JigyosyoCd=3952580011-00&ServiceCd=430&Type=search", "url2": "http://www.kitajima-hp.com" }, "geometry": { "type": "Point", "coordinates": [ 133.253018500000081, 33.530747700000042 ] } },
{ "type": "Feature", "properties": { "内容": "医療法人前田会　居宅介護支援事業所【居宅介護支援】高知県高岡郡越知町越知甲２１４４番地１", "url": "https://www.kaigokensaku.mhlw.go.jp/39/index.php?action_kouhyou_detail_004_kani=true&JigyosyoCd=3912511411-00&ServiceCd=430&Type=search", "url2": "https://maeda-kai-ochi.jp/" }, "geometry": { "type": "Point", "coordinates": [ 133.248995179098529, 33.531459403014004 ] } },
{ "type": "Feature", "properties": { "内容": "ケアプランセンター孝志【居宅介護支援】高知県高岡郡越知町越知甲902番地1", "url": "https://www.kaigokensaku.mhlw.go.jp/39/index.php?action_kouhyou_detail_004_kani=true&JigyosyoCd=3972501252-00&ServiceCd=430&Type=search", "url2": null }, "geometry": { "type": "Point", "coordinates": [ 133.257508728765202, 33.533610797534926 ] } },
{ "type": "Feature", "properties": { "内容": "カルスト会　居宅介護支援事業所【居宅介護支援】高知県高岡郡梼原町広野644番地2", "url": "https://www.kaigokensaku.mhlw.go.jp/39/index.php?action_kouhyou_detail_004_kani=true&JigyosyoCd=3972500544-00&ServiceCd=430&Type=search", "url2": "http://www.karusutokai.or.jp" }, "geometry": { "type": "Point", "coordinates": [ 132.898654310395273, 33.399250926274739 ] } },
{ "type": "Feature", "properties": { "内容": "居宅介護支援センター能津【居宅介護支援】高知県高岡郡日高村本村字土橋５－５", "url": "https://www.kaigokensaku.mhlw.go.jp/39/index.php?action_kouhyou_detail_004_kani=true&JigyosyoCd=3972500254-00&ServiceCd=430&Type=search", "url2": "http://tosa7411.com" }, "geometry": { "type": "Point", "coordinates": [ 133.335927396958937, 33.558980816356474 ] } },
{ "type": "Feature", "properties": { "内容": "居宅介護支援事業所　ひだか【居宅介護支援】高知県高岡郡日高村沖名１番地", "url": "https://www.kaigokensaku.mhlw.go.jp/39/index.php?action_kouhyou_detail_004_kani=true&JigyosyoCd=3972500189-00&ServiceCd=430&Type=search", "url2": null }, "geometry": { "type": "Point", "coordinates": [ 133.373672299999953, 33.5316137 ] } },
{ "type": "Feature", "properties": { "内容": "葉山荘居宅介護支援事業所【居宅介護支援】高知県高岡郡津野町姫野々４１７", "url": "https://www.kaigokensaku.mhlw.go.jp/39/index.php?action_kouhyou_detail_004_kani=true&JigyosyoCd=3972500098-00&ServiceCd=430&Type=search", "url2": "care-net.biz/39/hayamasou/" }, "geometry": { "type": "Point", "coordinates": [ 133.214047400000027, 33.4395141 ] } },
{ "type": "Feature", "properties": { "内容": "居宅介護支援事業所　仁井田【居宅介護支援】高知県高岡郡四万十町仁井田954－1", "url": "https://www.kaigokensaku.mhlw.go.jp/39/index.php?action_kouhyou_detail_004_kani=true&JigyosyoCd=3972501245-00&ServiceCd=430&Type=search", "url2": null }, "geometry": { "type": "Point", "coordinates": [ 133.158778899999987, 33.2411667 ] } },
{ "type": "Feature", "properties": { "内容": "社会福祉法人しまんと町社会福祉協議会　指定居宅介護支援事業所　西部【居宅介護支援】高知県高岡郡四万十町大正３２番地１", "url": "https://www.kaigokensaku.mhlw.go.jp/39/index.php?action_kouhyou_detail_004_kani=true&JigyosyoCd=3972500791-00&ServiceCd=430&Type=search", "url2": null }, "geometry": { "type": "Point", "coordinates": [ 132.972393499999953, 33.1836554 ] } },
{ "type": "Feature", "properties": { "内容": "居宅介護支援事業所　りょくりん【居宅介護支援】高知県高岡郡四万十町仕出原496-1", "url": "https://www.kaigokensaku.mhlw.go.jp/39/index.php?action_kouhyou_detail_004_kani=true&JigyosyoCd=3972501179-00&ServiceCd=430&Type=search", "url2": null }, "geometry": { "type": "Point", "coordinates": [ 133.1252111, 33.2224263 ] } },
{ "type": "Feature", "properties": { "内容": "あけぼの居宅介護支援事業所【居宅介護支援】高知県高岡郡四万十町古市町６番１２号", "url": "https://www.kaigokensaku.mhlw.go.jp/39/index.php?action_kouhyou_detail_004_kani=true&JigyosyoCd=3912511114-00&ServiceCd=430&Type=search", "url2": "http://www.oonishi-hp.or.jp" }, "geometry": { "type": "Point", "coordinates": [ 133.14114840000002, 33.2095728 ] } },
{ "type": "Feature", "properties": { "内容": "居宅介護支援事業所といろ【居宅介護支援】高知県高岡郡四万十町琴平町３番８", "url": "https://www.kaigokensaku.mhlw.go.jp/39/index.php?action_kouhyou_detail_004_kani=true&JigyosyoCd=3972501211-00&ServiceCd=430&Type=search", "url2": "Ｅ-ｍａｉl：Ｙｏｒｉｙａ＠ｓｈｉｍａｎｔｏ．ｔｖ" }, "geometry": { "type": "Point", "coordinates": [ 133.136090700000068, 33.211078 ] } },
{ "type": "Feature", "properties": { "内容": "しまんと町社協　居宅介護支援事業所【居宅介護支援】高知県高岡郡四万十町茂串町１１－３０", "url": "https://www.kaigokensaku.mhlw.go.jp/39/index.php?action_kouhyou_detail_004_kani=true&JigyosyoCd=3972500718-00&ServiceCd=430&Type=search", "url2": "http://shimanto-shakyo.jp/" }, "geometry": { "type": "Point", "coordinates": [ 133.132793900000024, 33.2094004 ] } },
{ "type": "Feature", "properties": { "内容": "大月町指定居宅介護支援事業所【居宅介護支援】高知県幡多郡大月町鉾土603", "url": "https://www.kaigokensaku.mhlw.go.jp/39/index.php?action_kouhyou_detail_004_kani=true&JigyosyoCd=3972600153-00&ServiceCd=430&Type=search", "url2": "http://www.otsukicho-shakyo.jp/" }, "geometry": { "type": "Point", "coordinates": [ 132.709374, 32.8205119 ] } },
{ "type": "Feature", "properties": { "内容": "居宅介護支援事業所星ヶ丘【居宅介護支援】高知県幡多郡三原村宮ノ川1271-10", "url": "https://www.kaigokensaku.mhlw.go.jp/39/index.php?action_kouhyou_detail_004_kani=true&JigyosyoCd=3972600203-00&ServiceCd=430&Type=search", "url2": "http://yusunoki.or.jp/" }, "geometry": { "type": "Point", "coordinates": [ 132.841569899999968, 32.9229387 ] } },
{ "type": "Feature", "properties": { "内容": "黒潮町社会福祉協議会指定居宅介護支援事業所【居宅介護支援】高知県幡多郡黒潮町入野2017番地１", "url": "https://www.kaigokensaku.mhlw.go.jp/39/index.php?action_kouhyou_detail_004_kani=true&JigyosyoCd=3972600294-00&ServiceCd=430&Type=search", "url2": "http://kuroshiochosyakyo.or.jp/" }, "geometry": { "type": "Point", "coordinates": [ 133.011277899999982, 33.0246024 ] } },
{ "type": "Feature", "properties": { "内容": "居宅介護支援事業所シーサイド【居宅介護支援】高知県幡多郡黒潮町有井川１２番地１", "url": "https://www.kaigokensaku.mhlw.go.jp/39/index.php?action_kouhyou_detail_004_kani=true&JigyosyoCd=3972600021-00&ServiceCd=430&Type=search", "url2": "nashi.aaa@aaa.aa" }, "geometry": { "type": "Point", "coordinates": [ 133.060861599999953, 33.0375107 ] } }
]
}
