{
"type": "FeatureCollection",
"name": "geo_39_介護老人福祉施設",
"crs": { "type": "name", "properties": { "name": "urn:ogc:def:crs:OGC:1.3:CRS84" } },
"features": [
{ "type": "Feature", "properties": { "内容": "特別養護老人ホームはるの若菜荘【介護老人福祉施設】高知県高知市春野町東諸木3058番地1", "url": "https://www.kaigokensaku.mhlw.go.jp/39/index.php?action_kouhyou_detail_004_kani=true&JigyosyoCd=3970103101-00&ServiceCd=510&Type=search", "url2": "https://takaharufukushikai.com" }, "geometry": { "type": "Point", "coordinates": [ 133.51552892817233, 33.487821236899734 ] } },
{ "type": "Feature", "properties": { "内容": "介護老人福祉施設グランボヌール【介護老人福祉施設】高知県高知市布師田字宮ノ辺１３６２", "url": "https://www.kaigokensaku.mhlw.go.jp/39/index.php?action_kouhyou_detail_004_kani=true&JigyosyoCd=3970100131-00&ServiceCd=510&Type=search", "url2": "http://nankai-f.jp/" }, "geometry": { "type": "Point", "coordinates": [ 133.592653299999938, 33.5839213 ] } },
{ "type": "Feature", "properties": { "内容": "介護老人福祉施設早蕨【介護老人福祉施設】高知県高知市五台山3780-1", "url": "https://www.kaigokensaku.mhlw.go.jp/39/index.php?action_kouhyou_detail_004_kani=true&JigyosyoCd=3970100057-00&ServiceCd=510&Type=search", "url2": "http://www.sawarabikai.net/sawarabi.html" }, "geometry": { "type": "Point", "coordinates": [ 133.588254399999983, 33.548514799999985 ] } },
{ "type": "Feature", "properties": { "内容": "特別養護老人ホーム　ふるさとの丘【介護老人福祉施設】高知県高知市朝倉己1149番地106", "url": "https://www.kaigokensaku.mhlw.go.jp/39/index.php?action_kouhyou_detail_004_kani=true&JigyosyoCd=3970105072-00&ServiceCd=510&Type=search", "url2": "http://f-shizenmura.or.jp" }, "geometry": { "type": "Point", "coordinates": [ 133.476423580673213, 33.532833881549564 ] } },
{ "type": "Feature", "properties": { "内容": "特別養護老人ホーム　うららか春陽荘【介護老人福祉施設】高知市春野町西分４６６０番地", "url": "https://www.kaigokensaku.mhlw.go.jp/39/index.php?action_kouhyou_detail_004_kani=true&JigyosyoCd=3970103176-00&ServiceCd=510&Type=search", "url2": "http://www.nagaisakanokai.com/urarakashunyoso/" }, "geometry": { "type": "Point", "coordinates": [ 133.500452, 33.5004506 ] } },
{ "type": "Feature", "properties": { "内容": "特別養護老人ホーム　スウィート・ハート・ホーム【介護老人福祉施設】高知市朝倉甲64番地1", "url": "https://www.kaigokensaku.mhlw.go.jp/39/index.php?action_kouhyou_detail_004_kani=true&JigyosyoCd=3970100107-00&ServiceCd=510&Type=search", "url2": "http://ｗｗｗ.ｔｈｃ.ｏｒ.ｊｐ/" }, "geometry": { "type": "Point", "coordinates": [ 133.502482399999963, 33.5430629 ] } },
{ "type": "Feature", "properties": { "内容": "特別養護老人ホーム　ウエルプラザ高知【介護老人福祉施設】高知県高知市一宮しなね2丁目15番19号", "url": "https://www.kaigokensaku.mhlw.go.jp/39/index.php?action_kouhyou_detail_004_kani=true&JigyosyoCd=3970104448-00&ServiceCd=510&Type=search", "url2": "http://www.welplaza.or.jp/" }, "geometry": { "type": "Point", "coordinates": [ 133.577532499999961, 33.5938527 ] } },
{ "type": "Feature", "properties": { "内容": "特別養護老人ホームシーサイドホーム桂浜【介護老人福祉施設】高知市長浜6598-4", "url": "https://www.kaigokensaku.mhlw.go.jp/39/index.php?action_kouhyou_detail_004_kani=true&JigyosyoCd=3970102673-00&ServiceCd=510&Type=search", "url2": "http://www.fuku-cij.jp/seasidehome_katurahama/" }, "geometry": { "type": "Point", "coordinates": [ 133.547521599999982, 33.490792 ] } },
{ "type": "Feature", "properties": { "内容": "特別養護老人ホームあざみの里【介護老人福祉施設】高知県高知市薊野北町2丁目25番8号", "url": "https://www.kaigokensaku.mhlw.go.jp/39/index.php?action_kouhyou_detail_004_kani=true&JigyosyoCd=3970100933-00&ServiceCd=510&Type=search", "url2": "https://hata-dialife.jp/" }, "geometry": { "type": "Point", "coordinates": [ 133.55632049999997, 33.5835314 ] } },
{ "type": "Feature", "properties": { "内容": "特別養護老人ホーム　やすらぎの家【介護老人福祉施設】高知県高知市針木北一丁目１４番３０号", "url": "https://www.kaigokensaku.mhlw.go.jp/39/index.php?action_kouhyou_detail_004_kani=true&JigyosyoCd=3970100032-00&ServiceCd=510&Type=search", "url2": "www.nagaisakanokai.com" }, "geometry": { "type": "Point", "coordinates": [ 133.474485400000049, 33.5400096 ] } },
{ "type": "Feature", "properties": { "内容": "ユニット型特別養護老人ホーム　もとちか【介護老人福祉施設】高知県高知市長浜4975番地", "url": "https://www.kaigokensaku.mhlw.go.jp/39/index.php?action_kouhyou_detail_004_kani=true&JigyosyoCd=3970106831-00&ServiceCd=510&Type=search", "url2": "https://www.kounankai.jp" }, "geometry": { "type": "Point", "coordinates": [ 133.545652, 33.5012996 ] } },
{ "type": "Feature", "properties": { "内容": "特別養護老人ホーム　湯の里【介護老人福祉施設】高知市円行寺５２番地１０", "url": "https://www.kaigokensaku.mhlw.go.jp/39/index.php?action_kouhyou_detail_004_kani=true&JigyosyoCd=3970100149-00&ServiceCd=510&Type=search", "url2": "http://www.sanjyukai.com/" }, "geometry": { "type": "Point", "coordinates": [ 133.5137, 33.5838861 ] } },
{ "type": "Feature", "properties": { "内容": "特別養護老人ホームあおばの森【介護老人福祉施設】高知県高知市横浜20番1", "url": "https://www.kaigokensaku.mhlw.go.jp/39/index.php?action_kouhyou_detail_004_kani=true&JigyosyoCd=3970107870-00&ServiceCd=510&Type=search", "url2": "http://furusatokai.or.jp/" }, "geometry": { "type": "Point", "coordinates": [ 133.5535229, 33.5288723 ] } },
{ "type": "Feature", "properties": { "内容": "特別養護老人ホーム森の里高知【介護老人福祉施設】高知県高知市横浜２０番１", "url": "https://www.kaigokensaku.mhlw.go.jp/39/index.php?action_kouhyou_detail_004_kani=true&JigyosyoCd=3970100123-00&ServiceCd=510&Type=search", "url2": "http://tokuyoumorinosato.jimdo.com/" }, "geometry": { "type": "Point", "coordinates": [ 133.553691599999979, 33.5286189 ] } },
{ "type": "Feature", "properties": { "内容": "特別養護老人ホーム絆の広場【介護老人福祉施設】一宮南町1丁目4番75号", "url": "https://www.kaigokensaku.mhlw.go.jp/39/index.php?action_kouhyou_detail_004_kani=true&JigyosyoCd=3970105312-00&ServiceCd=510&Type=search", "url2": "http://hata-dialife.jp/kizunanohiroba" }, "geometry": { "type": "Point", "coordinates": [ 133.5650253, 33.5779325 ] } },
{ "type": "Feature", "properties": { "内容": "特別養護老人ホーム　海の里【介護老人福祉施設】高知市仁井田１６１８番地１８", "url": "https://www.kaigokensaku.mhlw.go.jp/39/index.php?action_kouhyou_detail_004_kani=true&JigyosyoCd=3970100115-00&ServiceCd=510&Type=search", "url2": "http://uminosato.or.jp/nursinghome/" }, "geometry": { "type": "Point", "coordinates": [ 133.5719937, 33.5131848 ] } },
{ "type": "Feature", "properties": { "内容": "特別養護老人ホームセーラスむろと【介護老人福祉施設】高知県室戸市室津1582番地", "url": "https://www.kaigokensaku.mhlw.go.jp/39/index.php?action_kouhyou_detail_004_kani=true&JigyosyoCd=3970200345-00&ServiceCd=510&Type=search", "url2": "m-chojuen.or.jp" }, "geometry": { "type": "Point", "coordinates": [ 134.164599004741149, 33.29557975396218 ] } },
{ "type": "Feature", "properties": { "内容": "特別養護老人ホーム「つつじの丘」【介護老人福祉施設】高知県安芸市川北乙1735番地", "url": "https://www.kaigokensaku.mhlw.go.jp/39/index.php?action_kouhyou_detail_004_kani=true&JigyosyoCd=3970300087-00&ServiceCd=510&Type=search", "url2": "http://tsutsujinooka.jp/" }, "geometry": { "type": "Point", "coordinates": [ 133.913597799999934, 33.5276018 ] } },
{ "type": "Feature", "properties": { "内容": "特別養護老人ホーム八流荘【介護老人福祉施設】高知県安芸市赤野甲561番地2", "url": "https://www.kaigokensaku.mhlw.go.jp/39/index.php?action_kouhyou_detail_004_kani=true&JigyosyoCd=3970300012-00&ServiceCd=510&Type=search", "url2": "http://www.tosakouseikai.or.jp/yanagaresou/" }, "geometry": { "type": "Point", "coordinates": [ 133.837977516560386, 33.512790807886226 ] } },
{ "type": "Feature", "properties": { "内容": "特別養護老人ホーム　陽だまりの里【介護老人福祉施設】高知県南国市岡豊町中島1535番地", "url": "https://www.kaigokensaku.mhlw.go.jp/39/index.php?action_kouhyou_detail_004_kani=true&JigyosyoCd=3970400036-00&ServiceCd=510&Type=search", "url2": "http://f-shizenmura.or.jp" }, "geometry": { "type": "Point", "coordinates": [ 133.615562100000034, 33.5904046 ] } },
{ "type": "Feature", "properties": { "内容": "特別養護老人ホームたちばなの里【介護老人福祉施設】高知県南国市下野田45番1", "url": "https://www.kaigokensaku.mhlw.go.jp/39/index.php?action_kouhyou_detail_004_kani=true&JigyosyoCd=3970400671-00&ServiceCd=510&Type=search", "url2": null }, "geometry": { "type": "Point", "coordinates": [ 133.650517400000012, 33.575668100000016 ] } },
{ "type": "Feature", "properties": { "内容": "特別養護老人ホーム土佐清風園【介護老人福祉施設】高知県南国市岡豊町小篭３５９－１", "url": "https://www.kaigokensaku.mhlw.go.jp/39/index.php?action_kouhyou_detail_004_kani=true&JigyosyoCd=3970400044-00&ServiceCd=510&Type=search", "url2": "http://www.tosaseifukai.com/" }, "geometry": { "type": "Point", "coordinates": [ 133.6256525, 33.5782671 ] } },
{ "type": "Feature", "properties": { "内容": "特別養護老人ホーム　白銀荘【介護老人福祉施設】高知県南国市大埇乙1072-1", "url": "https://www.kaigokensaku.mhlw.go.jp/39/index.php?action_kouhyou_detail_004_kani=true&JigyosyoCd=3970400051-00&ServiceCd=510&Type=search", "url2": "http://www.toujukai.jp/" }, "geometry": { "type": "Point", "coordinates": [ 133.6501091, 33.5659441 ] } },
{ "type": "Feature", "properties": { "内容": "特別養護老人ホームさくら【介護老人福祉施設】高知県土佐市高岡町甲９６９番地１", "url": "https://www.kaigokensaku.mhlw.go.jp/39/index.php?action_kouhyou_detail_004_kani=true&JigyosyoCd=3970500660-00&ServiceCd=510&Type=search", "url2": "https://wwww.sakura-anzu.com/" }, "geometry": { "type": "Point", "coordinates": [ 133.429136, 33.4952027 ] } },
{ "type": "Feature", "properties": { "内容": "土佐市特別養護老人ホームとさの里【介護老人福祉施設】高知県土佐市高岡町甲1792番地2", "url": "https://www.kaigokensaku.mhlw.go.jp/39/index.php?action_kouhyou_detail_004_kani=true&JigyosyoCd=3970500025-00&ServiceCd=510&Type=search", "url2": "https://tsjig.com" }, "geometry": { "type": "Point", "coordinates": [ 133.423156, 33.491981 ] } },
{ "type": "Feature", "properties": { "内容": "特別養護老人ホーム清流荘【介護老人福祉施設】高知県須崎市上分丙１７５８番地２", "url": "https://www.kaigokensaku.mhlw.go.jp/39/index.php?action_kouhyou_detail_004_kani=true&JigyosyoCd=3970600056-00&ServiceCd=510&Type=search", "url2": "http://www.ca.pikara.ne.jp/seiryuso" }, "geometry": { "type": "Point", "coordinates": [ 133.236053, 33.4001749 ] } },
{ "type": "Feature", "properties": { "内容": "特別養護老人ホーム　豊寿園【介護老人福祉施設】高知県宿毛市平田町戸内１８１３番地１", "url": "https://www.kaigokensaku.mhlw.go.jp/39/index.php?action_kouhyou_detail_004_kani=true&JigyosyoCd=3970900035-00&ServiceCd=510&Type=search", "url2": "http://www.gallery.ne.jp/~hojuen/" }, "geometry": { "type": "Point", "coordinates": [ 132.798387100000014, 32.9593056 ] } },
{ "type": "Feature", "properties": { "内容": "宿毛市立特別養護老人ホーム千寿園【介護老人福祉施設】高知県宿毛市小筑紫町福良80番地6", "url": "https://www.kaigokensaku.mhlw.go.jp/39/index.php?action_kouhyou_detail_004_kani=true&JigyosyoCd=3970900043-00&ServiceCd=510&Type=search", "url2": "http://sukumofukushikai.net/" }, "geometry": { "type": "Point", "coordinates": [ 132.7298389, 32.8751616 ] } },
{ "type": "Feature", "properties": { "内容": "ユニット型特別養護老人ホーム　豊寿園【介護老人福祉施設】高知県宿毛市平田町戸内1813番地1", "url": "https://www.kaigokensaku.mhlw.go.jp/39/index.php?action_kouhyou_detail_004_kani=true&JigyosyoCd=3970900340-00&ServiceCd=510&Type=search", "url2": "http://www.gallery.ne.jp/~houjuen" }, "geometry": { "type": "Point", "coordinates": [ 132.798387100000014, 32.9593056 ] } },
{ "type": "Feature", "properties": { "内容": "特別養護老人ホームしおさい【介護老人福祉施設】高知県土佐清水市以布利８３番地５", "url": "https://www.kaigokensaku.mhlw.go.jp/39/index.php?action_kouhyou_detail_004_kani=true&JigyosyoCd=3970800029-00&ServiceCd=510&Type=search", "url2": "http://www.city.tosashimizu.kochi.jp" }, "geometry": { "type": "Point", "coordinates": [ 132.961407, 32.8036772 ] } },
{ "type": "Feature", "properties": { "内容": "介護老人福祉施設　四万十の郷【介護老人福祉施設】高知県四万十市安並字東丸5803", "url": "https://www.kaigokensaku.mhlw.go.jp/39/index.php?action_kouhyou_detail_004_kani=true&JigyosyoCd=3970700039-00&ServiceCd=510&Type=search", "url2": "http://nankai-f.jp/shimanto/index.htm" }, "geometry": { "type": "Point", "coordinates": [ 132.9354045, 33.002197 ] } },
{ "type": "Feature", "properties": { "内容": "特別養護老人ホームかわせみ【介護老人福祉施設】四万十市西土佐用井１１１０番地１", "url": "https://www.kaigokensaku.mhlw.go.jp/39/index.php?action_kouhyou_detail_004_kani=true&JigyosyoCd=3972600047-00&ServiceCd=510&Type=search", "url2": "htttps://nisitosa-kawasemi.jp/" }, "geometry": { "type": "Point", "coordinates": [ 132.793101299999989, 33.173722800000014 ] } },
{ "type": "Feature", "properties": { "内容": "特別養護老人ホーム夢の丘【介護老人福祉施設】高知県四万十市右山2041番地18", "url": "https://www.kaigokensaku.mhlw.go.jp/39/index.php?action_kouhyou_detail_004_kani=true&JigyosyoCd=3971000371-00&ServiceCd=510&Type=search", "url2": "http://yusunoki.or.jp" }, "geometry": { "type": "Point", "coordinates": [ 132.946118100000035, 32.9793244 ] } },
{ "type": "Feature", "properties": { "内容": "特別養護老人ホーム　香南赤岡苑【介護老人福祉施設】高知県香南市赤岡町１１６０－１", "url": "https://www.kaigokensaku.mhlw.go.jp/39/index.php?action_kouhyou_detail_004_kani=true&JigyosyoCd=3972100071-00&ServiceCd=510&Type=search", "url2": "https://www.kounankai.jp" }, "geometry": { "type": "Point", "coordinates": [ 133.730083299999933, 33.5463756 ] } },
{ "type": "Feature", "properties": { "内容": "特別養護老人ホーム　オーベルジュ【介護老人福祉施設】高知県香南市野市町東野354-18", "url": "https://www.kaigokensaku.mhlw.go.jp/39/index.php?action_kouhyou_detail_004_kani=true&JigyosyoCd=3971100064-00&ServiceCd=510&Type=search", "url2": null }, "geometry": { "type": "Point", "coordinates": [ 133.717664600000035, 33.5616124 ] } },
{ "type": "Feature", "properties": { "内容": "特別養護老人ホーム三宝荘【介護老人福祉施設】香南市野市町母代寺188番地", "url": "https://www.kaigokensaku.mhlw.go.jp/39/index.php?action_kouhyou_detail_004_kani=true&JigyosyoCd=3972100105-00&ServiceCd=510&Type=search", "url2": "https://konan-kami.net" }, "geometry": { "type": "Point", "coordinates": [ 133.702737899999988, 33.5817488 ] } },
{ "type": "Feature", "properties": { "内容": "特別養護老人ホーム白寿荘【介護老人福祉施設】高知県香美市香北町永野2152番地", "url": "https://www.kaigokensaku.mhlw.go.jp/39/index.php?action_kouhyou_detail_004_kani=true&JigyosyoCd=3972100113-00&ServiceCd=510&Type=search", "url2": "http://konan-kami.jp/" }, "geometry": { "type": "Point", "coordinates": [ 133.817208, 33.665757670941986 ] } },
{ "type": "Feature", "properties": { "内容": "特別養護老人ホームウエルプラザやまだ荘【介護老人福祉施設】高知県香美市土佐山田町秦山町3丁目4番20号", "url": "https://www.kaigokensaku.mhlw.go.jp/39/index.php?action_kouhyou_detail_004_kani=true&JigyosyoCd=3971200286-00&ServiceCd=510&Type=search", "url2": "http://www.welplaza.or.jp" }, "geometry": { "type": "Point", "coordinates": [ 133.676091037959281, 33.607503316743269 ] } },
{ "type": "Feature", "properties": { "内容": "特別養護老人ホーム　愛光園【介護老人福祉施設】高知県安芸郡奈半利町乙４７８番地１", "url": "https://www.kaigokensaku.mhlw.go.jp/39/index.php?action_kouhyou_detail_004_kani=true&JigyosyoCd=3972000032-00&ServiceCd=510&Type=search", "url2": "https://care-net.biz/39/aikouen/" }, "geometry": { "type": "Point", "coordinates": [ 134.028662, 33.420979 ] } },
{ "type": "Feature", "properties": { "内容": "特別養護老人ホーム　ウエルプラザ洋寿荘【介護老人福祉施設】高知県安芸郡芸西村西分乙297番地", "url": "https://www.kaigokensaku.mhlw.go.jp/39/index.php?action_kouhyou_detail_004_kani=true&JigyosyoCd=3972000289-00&ServiceCd=510&Type=search", "url2": "http://www.welplaza.or.jp" }, "geometry": { "type": "Point", "coordinates": [ 133.772079399999939, 33.5157927 ] } },
{ "type": "Feature", "properties": { "内容": "特別養護老人ホーム　そよ風【介護老人福祉施設】高知県長岡郡本山町978番地2", "url": "https://www.kaigokensaku.mhlw.go.jp/39/index.php?action_kouhyou_detail_004_kani=true&JigyosyoCd=3972200178-00&ServiceCd=510&Type=search", "url2": "https://www.kounankai.jp" }, "geometry": { "type": "Point", "coordinates": [ 133.591412200000036, 33.7571067 ] } },
{ "type": "Feature", "properties": { "内容": "特別養護老人ホーム　トキワ苑【介護老人福祉施設】高知県土佐郡土佐町田井１３７７－２９", "url": "https://www.kaigokensaku.mhlw.go.jp/39/index.php?action_kouhyou_detail_004_kani=true&JigyosyoCd=3972300028-00&ServiceCd=510&Type=search", "url2": "https://www.tokiwaen-k.or.jp/" }, "geometry": { "type": "Point", "coordinates": [ 133.5570368, 33.7463659 ] } },
{ "type": "Feature", "properties": { "内容": "特別養護老人ホーム　吾北荘【介護老人福祉施設】高知県吾川郡いの町下八川丁１６７６番地", "url": "https://www.kaigokensaku.mhlw.go.jp/39/index.php?action_kouhyou_detail_004_kani=true&JigyosyoCd=3972400760-00&ServiceCd=510&Type=search", "url2": "http://www.gohokuseiwakai.or.jp/" }, "geometry": { "type": "Point", "coordinates": [ 133.30128609999997, 33.5978908 ] } },
{ "type": "Feature", "properties": { "内容": "いの町立特別養護老人ホーム偕楽荘【介護老人福祉施設】高知県吾川郡いの町1400番地すこやかセンター伊野2階", "url": "https://www.kaigokensaku.mhlw.go.jp/39/index.php?action_kouhyou_detail_004_kani=true&JigyosyoCd=3972400364-00&ServiceCd=510&Type=search", "url2": "http://www.town.ino.kochi.jp/" }, "geometry": { "type": "Point", "coordinates": [ 133.431904234809849, 33.546745010872129 ] } },
{ "type": "Feature", "properties": { "内容": "高吾北広域町村事務組合立　特別養護老人ホームあがわ荘【介護老人福祉施設】高知県吾川郡仁淀川町本村８９－１", "url": "https://www.kaigokensaku.mhlw.go.jp/39/index.php?action_kouhyou_detail_004_kani=true&JigyosyoCd=3972400067-00&ServiceCd=510&Type=search", "url2": "http://www.kogohoku.ochi.kochi.jp" }, "geometry": { "type": "Point", "coordinates": [ 133.160061300000052, 33.5866132 ] } },
{ "type": "Feature", "properties": { "内容": "特別養護老人ホーム望海の郷【介護老人福祉施設】高知県高岡郡中土佐町上ノ加江277番地10", "url": "https://www.kaigokensaku.mhlw.go.jp/39/index.php?action_kouhyou_detail_004_kani=true&JigyosyoCd=3972501153-00&ServiceCd=510&Type=search", "url2": "http://kadofukushikai.com/" }, "geometry": { "type": "Point", "coordinates": [ 133.246309600000018, 33.2742034 ] } },
{ "type": "Feature", "properties": { "内容": "特別養護老人ホーム　大野見荘【介護老人福祉施設】高岡郡中土佐町大野見吉野１１８", "url": "https://www.kaigokensaku.mhlw.go.jp/39/index.php?action_kouhyou_detail_004_kani=true&JigyosyoCd=3972500056-00&ServiceCd=510&Type=search", "url2": null }, "geometry": { "type": "Point", "coordinates": [ 133.140566700000022, 33.334555 ] } },
{ "type": "Feature", "properties": { "内容": "特別養護老人ホーム春日荘【介護老人福祉施設】高知県高岡郡佐川町乙２３４０番地", "url": "https://www.kaigokensaku.mhlw.go.jp/39/index.php?action_kouhyou_detail_004_kani=true&JigyosyoCd=3972500064-00&ServiceCd=510&Type=search", "url2": null }, "geometry": { "type": "Point", "coordinates": [ 133.286677300000065, 33.5046463 ] } },
{ "type": "Feature", "properties": { "内容": "高吾北広域町村事務組合立特別養護老人ホーム五葉荘【介護老人福祉施設】高岡郡越知町越知甲946番地", "url": "https://www.kaigokensaku.mhlw.go.jp/39/index.php?action_kouhyou_detail_004_kani=true&JigyosyoCd=3972500072-00&ServiceCd=510&Type=search", "url2": null }, "geometry": { "type": "Point", "coordinates": [ 133.258517899999987, 33.5328504 ] } },
{ "type": "Feature", "properties": { "内容": "特別養護老人ホーム　梼原ふじの家【介護老人福祉施設】高岡郡梼原町広野６３６番地４", "url": "https://www.kaigokensaku.mhlw.go.jp/39/index.php?action_kouhyou_detail_004_kani=true&JigyosyoCd=3972500049-00&ServiceCd=510&Type=search", "url2": "http://www.karusutokai.or.jp/newpage4.html" }, "geometry": { "type": "Point", "coordinates": [ 132.897820863754305, 33.398720097659606 ] } },
{ "type": "Feature", "properties": { "内容": "特別養護老人ホーム　コスモスの里【介護老人福祉施設】高知県高岡郡日高村沖名１番地", "url": "https://www.kaigokensaku.mhlw.go.jp/39/index.php?action_kouhyou_detail_004_kani=true&JigyosyoCd=3972500189-00&ServiceCd=510&Type=search", "url2": "syuoukai.jp" }, "geometry": { "type": "Point", "coordinates": [ 133.373784952778578, 33.531560039849921 ] } },
{ "type": "Feature", "properties": { "内容": "特別養護老人ホーム　葉山荘【介護老人福祉施設】高知県高岡郡津野町姫野々４１７", "url": "https://www.kaigokensaku.mhlw.go.jp/39/index.php?action_kouhyou_detail_004_kani=true&JigyosyoCd=3972500098-00&ServiceCd=510&Type=search", "url2": "care-net.biz/39/hayamasou/" }, "geometry": { "type": "Point", "coordinates": [ 133.214047400000027, 33.4395141 ] } },
{ "type": "Feature", "properties": { "内容": "特別養護老人ホーム高原荘【介護老人福祉施設】高岡郡津野町力石５０８２番地", "url": "https://www.kaigokensaku.mhlw.go.jp/39/index.php?action_kouhyou_detail_004_kani=true&JigyosyoCd=3972500080-00&ServiceCd=510&Type=search", "url2": null }, "geometry": { "type": "Point", "coordinates": [ 133.0301687, 33.3942784 ] } },
{ "type": "Feature", "properties": { "内容": "四万十町立特別養護老人ホーム窪川荘【介護老人福祉施設】高知県高岡郡四万十町影野640-2", "url": "https://www.kaigokensaku.mhlw.go.jp/39/index.php?action_kouhyou_detail_004_kani=true&JigyosyoCd=3972501443-00&ServiceCd=510&Type=search", "url2": null }, "geometry": { "type": "Point", "coordinates": [ 133.1727165, 33.2760025 ] } },
{ "type": "Feature", "properties": { "内容": "四万十町立特別養護老人ホーム四万十荘【介護老人福祉施設】高知県高岡郡四万十町大正576", "url": "https://www.kaigokensaku.mhlw.go.jp/39/index.php?action_kouhyou_detail_004_kani=true&JigyosyoCd=3972501450-00&ServiceCd=510&Type=search", "url2": null }, "geometry": { "type": "Point", "coordinates": [ 132.972492100000011, 33.1945679 ] } },
{ "type": "Feature", "properties": { "内容": "特別養護老人ホーム　大月荘【介護老人福祉施設】幡多郡大月町鉾土604-7", "url": "https://www.kaigokensaku.mhlw.go.jp/39/index.php?action_kouhyou_detail_004_kani=true&JigyosyoCd=3972600088-00&ServiceCd=510&Type=search", "url2": null }, "geometry": { "type": "Point", "coordinates": [ 132.707699248606247, 32.819957727278535 ] } },
{ "type": "Feature", "properties": { "内容": "特別養護老人ホーム　星ヶ丘【介護老人福祉施設】高知県幡多郡三原村宮ノ川1271-10", "url": "https://www.kaigokensaku.mhlw.go.jp/39/index.php?action_kouhyou_detail_004_kani=true&JigyosyoCd=3972600203-00&ServiceCd=510&Type=search", "url2": "http://yusunoki.or.jp/" }, "geometry": { "type": "Point", "coordinates": [ 132.841569899999968, 32.9229387 ] } },
{ "type": "Feature", "properties": { "内容": "黒潮町特別養護老人ホームかしま荘【介護老人福祉施設】高知県幡多郡黒潮町佐賀3177", "url": "https://www.kaigokensaku.mhlw.go.jp/39/index.php?action_kouhyou_detail_004_kani=true&JigyosyoCd=3972600369-00&ServiceCd=510&Type=search", "url2": "https://kuroshiofukushikai.com/page-57/page-243/" }, "geometry": { "type": "Point", "coordinates": [ 133.1058252, 33.0622972 ] } },
{ "type": "Feature", "properties": { "内容": "特別養護老人ホームシーサイドホーム【介護老人福祉施設】高知県幡多郡黒潮町有井川１２番地１", "url": "https://www.kaigokensaku.mhlw.go.jp/39/index.php?action_kouhyou_detail_004_kani=true&JigyosyoCd=3972600021-00&ServiceCd=510&Type=search", "url2": "http://kuroshiofukushikai.com/page-57/page-221/" }, "geometry": { "type": "Point", "coordinates": [ 133.060861599999953, 33.0375107 ] } }
]
}
