{
"type": "FeatureCollection",
"name": "geo_39_地域密着型通所介護",
"crs": { "type": "name", "properties": { "name": "urn:ogc:def:crs:OGC:1.3:CRS84" } },
"features": [
{ "type": "Feature", "properties": { "内容": "デイサービスこでまり【地域密着型通所介護】高知県高知市西塚ノ原115-40", "url": "https://www.kaigokensaku.mhlw.go.jp/39/index.php?action_kouhyou_detail_004_kani=true&JigyosyoCd=3990100822-00&ServiceCd=780&Type=search", "url2": null }, "geometry": { "type": "Point", "coordinates": [ 133.4884786, 33.5643877 ] } },
{ "type": "Feature", "properties": { "内容": "ファンベース石立【地域密着型通所介護】高知県高知市東石立町77", "url": "https://www.kaigokensaku.mhlw.go.jp/39/index.php?action_kouhyou_detail_004_kani=true&JigyosyoCd=3990101374-00&ServiceCd=780&Type=search", "url2": null }, "geometry": { "type": "Point", "coordinates": [ 133.5219683, 33.5529005 ] } },
{ "type": "Feature", "properties": { "内容": "デイサービスなでしこ鏡川【地域密着型通所介護】高知県高知市本宮町２２４", "url": "https://www.kaigokensaku.mhlw.go.jp/39/index.php?action_kouhyou_detail_004_kani=true&JigyosyoCd=3970105288-00&ServiceCd=780&Type=search", "url2": "http:/nadeshiko102.jp" }, "geometry": { "type": "Point", "coordinates": [ 133.499957600000016, 33.5556113 ] } },
{ "type": "Feature", "properties": { "内容": "デイサービスいろり【地域密着型通所介護】高知県高知市大原町89", "url": "https://www.kaigokensaku.mhlw.go.jp/39/index.php?action_kouhyou_detail_004_kani=true&JigyosyoCd=3990101382-00&ServiceCd=780&Type=search", "url2": "https://www.attract819.co.jp/" }, "geometry": { "type": "Point", "coordinates": [ 133.526777596958908, 33.552119458766555 ] } },
{ "type": "Feature", "properties": { "内容": "デイサービスあん【地域密着型通所介護】高知県高知市浦戸33番地3", "url": "https://www.kaigokensaku.mhlw.go.jp/39/index.php?action_kouhyou_detail_004_kani=true&JigyosyoCd=3990101184-00&ServiceCd=780&Type=search", "url2": null }, "geometry": { "type": "Point", "coordinates": [ 133.572448155819728, 33.499169335420817 ] } },
{ "type": "Feature", "properties": { "内容": "デイサービスプレイスsmile【地域密着型通所介護】高知県高知市大谷公園町16-25", "url": "https://www.kaigokensaku.mhlw.go.jp/39/index.php?action_kouhyou_detail_004_kani=true&JigyosyoCd=3990101259-00&ServiceCd=780&Type=search", "url2": "https://www.day-yotsuba.com/sumile.html" }, "geometry": { "type": "Point", "coordinates": [ 133.4820645, 33.5349594 ] } },
{ "type": "Feature", "properties": { "内容": "有限会社Livelyデイサービス　かもべ【地域密着型通所介護】高知県高知市鴨部1040-3", "url": "https://www.kaigokensaku.mhlw.go.jp/39/index.php?action_kouhyou_detail_004_kani=true&JigyosyoCd=3970105569-00&ServiceCd=780&Type=search", "url2": "https://livelyhp.jimdo.com/" }, "geometry": { "type": "Point", "coordinates": [ 133.5058292, 33.5443795 ] } },
{ "type": "Feature", "properties": { "内容": "デイサービス　よつば【地域密着型通所介護】大谷公園町11-31", "url": "https://www.kaigokensaku.mhlw.go.jp/39/index.php?action_kouhyou_detail_004_kani=true&JigyosyoCd=3990101093-00&ServiceCd=780&Type=search", "url2": "https://www.day-yotsuba.com/" }, "geometry": { "type": "Point", "coordinates": [ 133.4824406, 33.5362156 ] } },
{ "type": "Feature", "properties": { "内容": "地域密着型通所介護セカンドライフ【地域密着型通所介護】高知県高知市一宮中町１ー１８ー２７", "url": "https://www.kaigokensaku.mhlw.go.jp/39/index.php?action_kouhyou_detail_004_kani=true&JigyosyoCd=3970106096-00&ServiceCd=780&Type=search", "url2": null }, "geometry": { "type": "Point", "coordinates": [ 133.57158579999998, 33.5835458 ] } },
{ "type": "Feature", "properties": { "内容": "ふれあいのさと結【地域密着型通所介護】高知県高知市九反田15-13", "url": "https://www.kaigokensaku.mhlw.go.jp/39/index.php?action_kouhyou_detail_004_kani=true&JigyosyoCd=3970105031-00&ServiceCd=780&Type=search", "url2": "https://instagram.com/yui.kochi?igshid=YmMyMTA2M2Y=" }, "geometry": { "type": "Point", "coordinates": [ 133.550943599999982, 33.5562016 ] } },
{ "type": "Feature", "properties": { "内容": "でいさーびす　ロミ【地域密着型通所介護】高知市秦南町２丁目8-2", "url": "https://www.kaigokensaku.mhlw.go.jp/39/index.php?action_kouhyou_detail_004_kani=true&JigyosyoCd=3990100731-00&ServiceCd=780&Type=search", "url2": null }, "geometry": { "type": "Point", "coordinates": [ 133.548114, 33.574986 ] } },
{ "type": "Feature", "properties": { "内容": "忠さんのデイサービス【地域密着型通所介護】高知県高知市大川筋2丁目８番地4", "url": "https://www.kaigokensaku.mhlw.go.jp/39/index.php?action_kouhyou_detail_004_kani=true&JigyosyoCd=3970105973-00&ServiceCd=780&Type=search", "url2": null }, "geometry": { "type": "Point", "coordinates": [ 133.531095199999982, 33.5642889 ] } },
{ "type": "Feature", "properties": { "内容": "デイサービスふくわらい【地域密着型通所介護】高知県高知市越前町2丁目10-23", "url": "https://www.kaigokensaku.mhlw.go.jp/39/index.php?action_kouhyou_detail_004_kani=true&JigyosyoCd=3990100830-00&ServiceCd=780&Type=search", "url2": null }, "geometry": { "type": "Point", "coordinates": [ 133.524172138175743, 33.562741586728038 ] } },
{ "type": "Feature", "properties": { "内容": "デイホームぼたん【地域密着型通所介護】高知県高知市神田17-2", "url": "https://www.kaigokensaku.mhlw.go.jp/39/index.php?action_kouhyou_detail_004_kani=true&JigyosyoCd=3970103762-00&ServiceCd=780&Type=search", "url2": "https://anz-life.com/" }, "geometry": { "type": "Point", "coordinates": [ 133.500816, 33.5411103 ] } },
{ "type": "Feature", "properties": { "内容": "デイサービス　はち【地域密着型通所介護】高知県高知市長浜539-10", "url": "https://www.kaigokensaku.mhlw.go.jp/39/index.php?action_kouhyou_detail_004_kani=true&JigyosyoCd=3970105346-00&ServiceCd=780&Type=search", "url2": null }, "geometry": { "type": "Point", "coordinates": [ 133.547321300000021, 33.5022718 ] } },
{ "type": "Feature", "properties": { "内容": "でいさーびすうちんく和【地域密着型通所介護】高知県高知市宇津野128-1", "url": "https://www.kaigokensaku.mhlw.go.jp/39/index.php?action_kouhyou_detail_004_kani=true&JigyosyoCd=3970106252-00&ServiceCd=780&Type=search", "url2": "https://nodoka-kochi.jp" }, "geometry": { "type": "Point", "coordinates": [ 133.530556400000023, 33.5820256 ] } },
{ "type": "Feature", "properties": { "内容": "デイステーションりんくす【地域密着型通所介護】高知県高知市杉井流２６－１１", "url": "https://www.kaigokensaku.mhlw.go.jp/39/index.php?action_kouhyou_detail_004_kani=true&JigyosyoCd=3990101028-00&ServiceCd=780&Type=search", "url2": "ambition-links.co.jp" }, "geometry": { "type": "Point", "coordinates": [ 133.556814900000063, 33.5677835 ] } },
{ "type": "Feature", "properties": { "内容": "デイサービスセンター幸のつどい【地域密着型通所介護】高知県高知市大津乙１２１２番地７号", "url": "https://www.kaigokensaku.mhlw.go.jp/39/index.php?action_kouhyou_detail_004_kani=true&JigyosyoCd=3970103739-00&ServiceCd=780&Type=search", "url2": "http://sachi-kochi.jp/" }, "geometry": { "type": "Point", "coordinates": [ 133.603578822090213, 33.574748633364045 ] } },
{ "type": "Feature", "properties": { "内容": "デイサービス　琴【地域密着型通所介護】高知県高知市万々611番地2", "url": "https://www.kaigokensaku.mhlw.go.jp/39/index.php?action_kouhyou_detail_004_kani=true&JigyosyoCd=3970103291-00&ServiceCd=780&Type=search", "url2": null }, "geometry": { "type": "Point", "coordinates": [ 133.509794899999946, 33.5744926 ] } },
{ "type": "Feature", "properties": { "内容": "デイサービスまろ【地域密着型通所介護】高知市大谷公園町11番39号", "url": "https://www.kaigokensaku.mhlw.go.jp/39/index.php?action_kouhyou_detail_004_kani=true&JigyosyoCd=3990101051-00&ServiceCd=780&Type=search", "url2": "simomoto.kochiｰasakura＠outlook.jp" }, "geometry": { "type": "Point", "coordinates": [ 133.481650899999977, 33.5359924 ] } },
{ "type": "Feature", "properties": { "内容": "デイサービスセンターはまもと【地域密着型通所介護】高知県高知市長浜6557番57", "url": "https://www.kaigokensaku.mhlw.go.jp/39/index.php?action_kouhyou_detail_004_kani=true&JigyosyoCd=3970106369-00&ServiceCd=780&Type=search", "url2": null }, "geometry": { "type": "Point", "coordinates": [ 133.541850533729558, 33.499294786796064 ] } },
{ "type": "Feature", "properties": { "内容": "デイトレあっぱれ【地域密着型通所介護】高知県高知市横浜西町29-32", "url": "https://www.kaigokensaku.mhlw.go.jp/39/index.php?action_kouhyou_detail_004_kani=true&JigyosyoCd=3970106013-00&ServiceCd=780&Type=search", "url2": "http://arigato.or.jp" }, "geometry": { "type": "Point", "coordinates": [ 133.538914927647397, 33.519647849103023 ] } },
{ "type": "Feature", "properties": { "内容": "デイサービスわたぼうし－種崎－【地域密着型通所介護】高知県高知市種崎699-18", "url": "https://www.kaigokensaku.mhlw.go.jp/39/index.php?action_kouhyou_detail_004_kani=true&JigyosyoCd=3970102897-00&ServiceCd=780&Type=search", "url2": null }, "geometry": { "type": "Point", "coordinates": [ 133.565944899999977, 33.5022637 ] } },
{ "type": "Feature", "properties": { "内容": "デイサービスわたぼうし　-仁井田-【地域密着型通所介護】高知市仁井田674-4", "url": "https://www.kaigokensaku.mhlw.go.jp/39/index.php?action_kouhyou_detail_004_kani=true&JigyosyoCd=3970101568-00&ServiceCd=780&Type=search", "url2": null }, "geometry": { "type": "Point", "coordinates": [ 133.571891100000016, 33.5112212 ] } },
{ "type": "Feature", "properties": { "内容": "デイサービスむすび葉【地域密着型通所介護】高知市百石町4丁目11-2", "url": "https://www.kaigokensaku.mhlw.go.jp/39/index.php?action_kouhyou_detail_004_kani=true&JigyosyoCd=3970105577-00&ServiceCd=780&Type=search", "url2": null }, "geometry": { "type": "Point", "coordinates": [ 133.5467916, 33.5428753 ] } },
{ "type": "Feature", "properties": { "内容": "社会福祉法人　高知市社会福祉協議会　指定通所介護事業所　土佐山デイサービスセンター【地域密着型通所介護】高知県高知市土佐山桑尾1842-2", "url": "https://www.kaigokensaku.mhlw.go.jp/39/index.php?action_kouhyou_detail_004_kani=true&JigyosyoCd=3990101010-00&ServiceCd=780&Type=search", "url2": "http://www.kochi-csw.or.jp" }, "geometry": { "type": "Point", "coordinates": [ 133.526639520237751, 33.63182252470132 ] } },
{ "type": "Feature", "properties": { "内容": "デイサービス　フレンズ【地域密着型通所介護】高知県高知市大津甲７９－１", "url": "https://www.kaigokensaku.mhlw.go.jp/39/index.php?action_kouhyou_detail_004_kani=true&JigyosyoCd=3970104612-00&ServiceCd=780&Type=search", "url2": null }, "geometry": { "type": "Point", "coordinates": [ 133.614039700000035, 33.5759394 ] } },
{ "type": "Feature", "properties": { "内容": "デイサービスセンター　やいろ【地域密着型通所介護】高知市春野町西分695番1サービス付き高齢者向け住宅はるのガーデン１階", "url": "https://www.kaigokensaku.mhlw.go.jp/39/index.php?action_kouhyou_detail_004_kani=true&JigyosyoCd=3970101956-00&ServiceCd=780&Type=search", "url2": "http://furusatokai.or.jp/" }, "geometry": { "type": "Point", "coordinates": [ 133.494045292105056, 33.508737725785551 ] } },
{ "type": "Feature", "properties": { "内容": "デイサービス　いごっそう【地域密着型通所介護】高知市春野町仁ノ3291番地", "url": "https://www.kaigokensaku.mhlw.go.jp/39/index.php?action_kouhyou_detail_004_kani=true&JigyosyoCd=3970103168-00&ServiceCd=780&Type=search", "url2": null }, "geometry": { "type": "Point", "coordinates": [ 133.4856261, 33.4697656 ] } },
{ "type": "Feature", "properties": { "内容": "デイサービススタイル【地域密着型通所介護】高知県高知市玉水町79", "url": "https://www.kaigokensaku.mhlw.go.jp/39/index.php?action_kouhyou_detail_004_kani=true&JigyosyoCd=3970105858-00&ServiceCd=780&Type=search", "url2": null }, "geometry": { "type": "Point", "coordinates": [ 133.514377800000034, 33.5555784 ] } },
{ "type": "Feature", "properties": { "内容": "デイサービス　スタイル潮江【地域密着型通所介護】北新田町8-20", "url": "https://www.kaigokensaku.mhlw.go.jp/39/index.php?action_kouhyou_detail_004_kani=true&JigyosyoCd=3990100855-00&ServiceCd=780&Type=search", "url2": "http://www.style-carewave.jp" }, "geometry": { "type": "Point", "coordinates": [ 133.552251899999987, 33.5528243 ] } },
{ "type": "Feature", "properties": { "内容": "デイフィオーレ高知【地域密着型通所介護】高知県高知市上町5丁目8-24", "url": "https://www.kaigokensaku.mhlw.go.jp/39/index.php?action_kouhyou_detail_004_kani=true&JigyosyoCd=3990101069-00&ServiceCd=780&Type=search", "url2": "http://liebe-fiore.com/" }, "geometry": { "type": "Point", "coordinates": [ 133.517815899999988, 33.555409 ] } },
{ "type": "Feature", "properties": { "内容": "山村病院　鏡居宅サービス事業所【地域密着型通所介護】高知市鏡今井１２６番地", "url": "https://www.kaigokensaku.mhlw.go.jp/39/index.php?action_kouhyou_detail_004_kani=true&JigyosyoCd=3910118102-00&ServiceCd=780&Type=search", "url2": null }, "geometry": { "type": "Point", "coordinates": [ 133.4716458, 33.607912400000025 ] } },
{ "type": "Feature", "properties": { "内容": "デイサービス　スマイル【地域密着型通所介護】高知市長浜4618番地１", "url": "https://www.kaigokensaku.mhlw.go.jp/39/index.php?action_kouhyou_detail_004_kani=true&JigyosyoCd=3970103838-00&ServiceCd=780&Type=search", "url2": null }, "geometry": { "type": "Point", "coordinates": [ 133.544821599999977, 33.4980943 ] } },
{ "type": "Feature", "properties": { "内容": "デイサービスセンター　夕顔【地域密着型通所介護】高知県高知市西塚ノ原７６番１", "url": "https://www.kaigokensaku.mhlw.go.jp/39/index.php?action_kouhyou_detail_004_kani=true&JigyosyoCd=3970103457-00&ServiceCd=780&Type=search", "url2": "deiyuugao@gmail.com" }, "geometry": { "type": "Point", "coordinates": [ 133.491836499999977, 33.5664042 ] } },
{ "type": "Feature", "properties": { "内容": "デイサービス　えにし【地域密着型通所介護】高知市昭和町23－24", "url": "https://www.kaigokensaku.mhlw.go.jp/39/index.php?action_kouhyou_detail_004_kani=true&JigyosyoCd=3990100848-00&ServiceCd=780&Type=search", "url2": null }, "geometry": { "type": "Point", "coordinates": [ 133.543275099999931, 33.5704926 ] } },
{ "type": "Feature", "properties": { "内容": "デイサービスセンターこだま【地域密着型通所介護】高知市本宮町１０１－１", "url": "https://www.kaigokensaku.mhlw.go.jp/39/index.php?action_kouhyou_detail_004_kani=true&JigyosyoCd=3970101741-00&ServiceCd=780&Type=search", "url2": "http://furusatokai.or.jp" }, "geometry": { "type": "Point", "coordinates": [ 133.497719, 33.5567361 ] } },
{ "type": "Feature", "properties": { "内容": "ケアビレッジあさくらデイサービスセンター【地域密着型通所介護】高知県高知市朝倉丙416-1", "url": "https://www.kaigokensaku.mhlw.go.jp/39/index.php?action_kouhyou_detail_004_kani=true&JigyosyoCd=3990100780-00&ServiceCd=780&Type=search", "url2": "http://mizuho-medicare.com/" }, "geometry": { "type": "Point", "coordinates": [ 133.490106, 33.553158 ] } },
{ "type": "Feature", "properties": { "内容": "デイサービス桃太郎【地域密着型通所介護】高知県高知市大津乙1952-15", "url": "https://www.kaigokensaku.mhlw.go.jp/39/index.php?action_kouhyou_detail_004_kani=true&JigyosyoCd=3970106286-00&ServiceCd=780&Type=search", "url2": null }, "geometry": { "type": "Point", "coordinates": [ 133.5919672, 33.5703149 ] } },
{ "type": "Feature", "properties": { "内容": "ﾃﾞｲｻｰﾋﾞｽ奏【地域密着型通所介護】一宮東町３丁目４－３", "url": "https://www.kaigokensaku.mhlw.go.jp/39/index.php?action_kouhyou_detail_004_kani=true&JigyosyoCd=3970103614-00&ServiceCd=780&Type=search", "url2": null }, "geometry": { "type": "Point", "coordinates": [ 133.579727884130847, 33.588306975511458 ] } },
{ "type": "Feature", "properties": { "内容": "デイサービス想い人－いっく－【地域密着型通所介護】高知市一宮東町１丁目２６－３", "url": "https://www.kaigokensaku.mhlw.go.jp/39/index.php?action_kouhyou_detail_004_kani=true&JigyosyoCd=3970104687-00&ServiceCd=780&Type=search", "url2": "http://www.life-tellus.jp" }, "geometry": { "type": "Point", "coordinates": [ 133.576640900000029, 33.5831321 ] } },
{ "type": "Feature", "properties": { "内容": "デイサービス　びす　朝倉【地域密着型通所介護】高知県高知市朝倉丙2000-1", "url": "https://www.kaigokensaku.mhlw.go.jp/39/index.php?action_kouhyou_detail_004_kani=true&JigyosyoCd=3990101275-00&ServiceCd=780&Type=search", "url2": null }, "geometry": { "type": "Point", "coordinates": [ 133.480544929760214, 33.551839832676713 ] } },
{ "type": "Feature", "properties": { "内容": "デイサービスセンターこはる【地域密着型通所介護】高知県高知市大津甲１４１番地１", "url": "https://www.kaigokensaku.mhlw.go.jp/39/index.php?action_kouhyou_detail_004_kani=true&JigyosyoCd=3970104539-00&ServiceCd=780&Type=search", "url2": null }, "geometry": { "type": "Point", "coordinates": [ 133.61753090000002, 33.5744646 ] } },
{ "type": "Feature", "properties": { "内容": "デイサービス愛結こうち【地域密着型通所介護】高知県高知市布師田3591-5", "url": "https://www.kaigokensaku.mhlw.go.jp/39/index.php?action_kouhyou_detail_004_kani=true&JigyosyoCd=3970104174-00&ServiceCd=780&Type=search", "url2": "http://ameblo.jp/day-ai/" }, "geometry": { "type": "Point", "coordinates": [ 133.603513300000031, 33.5890515 ] } },
{ "type": "Feature", "properties": { "内容": "デイサービスセンター　ぐりーんぴーす【地域密着型通所介護】高知県高知市瀬戸2丁目13番47号", "url": "https://www.kaigokensaku.mhlw.go.jp/39/index.php?action_kouhyou_detail_004_kani=true&JigyosyoCd=3970101923-00&ServiceCd=780&Type=search", "url2": "http://www.kochi-web.com/hp1/care/" }, "geometry": { "type": "Point", "coordinates": [ 133.544985200000042, 33.5048187 ] } },
{ "type": "Feature", "properties": { "内容": "通所介護　さくら草【地域密着型通所介護】高知市長浜6557-111", "url": "https://www.kaigokensaku.mhlw.go.jp/39/index.php?action_kouhyou_detail_004_kani=true&JigyosyoCd=3970103432-00&ServiceCd=780&Type=search", "url2": null }, "geometry": { "type": "Point", "coordinates": [ 133.540616300000011, 33.4978803 ] } },
{ "type": "Feature", "properties": { "内容": "しばてんハウス朝倉【地域密着型通所介護】高知市大谷公園町20-1エスコートいさむⅡ1階", "url": "https://www.kaigokensaku.mhlw.go.jp/39/index.php?action_kouhyou_detail_004_kani=true&JigyosyoCd=3970104497-00&ServiceCd=780&Type=search", "url2": "kkhcoop@jeans.ocn.ne.jp" }, "geometry": { "type": "Point", "coordinates": [ 133.4796821, 33.5347853 ] } },
{ "type": "Feature", "properties": { "内容": "デイサービスささゆり【地域密着型通所介護】高知県高知市鴨部2丁目6-10-4", "url": "https://www.kaigokensaku.mhlw.go.jp/39/index.php?action_kouhyou_detail_004_kani=true&JigyosyoCd=3970105239-00&ServiceCd=780&Type=search", "url2": null }, "geometry": { "type": "Point", "coordinates": [ 133.500377570500177, 33.550655965548891 ] } },
{ "type": "Feature", "properties": { "内容": "介護館2【地域密着型通所介護】高知県高知県高知市東雲町4－10", "url": "https://www.kaigokensaku.mhlw.go.jp/39/index.php?action_kouhyou_detail_004_kani=true&JigyosyoCd=3970106021-00&ServiceCd=780&Type=search", "url2": "http://hp.kaipoke.biz/86h/" }, "geometry": { "type": "Point", "coordinates": [ 133.562375800000041, 33.5600209 ] } },
{ "type": "Feature", "properties": { "内容": "デイサービス　ミカリ【地域密着型通所介護】高知県高知市潮新町2丁目5-20", "url": "https://www.kaigokensaku.mhlw.go.jp/39/index.php?action_kouhyou_detail_004_kani=true&JigyosyoCd=3970106351-00&ServiceCd=780&Type=search", "url2": null }, "geometry": { "type": "Point", "coordinates": [ 133.550094404887034, 33.550211184642087 ] } },
{ "type": "Feature", "properties": { "内容": "デイサービスセンター　やまびこ【地域密着型通所介護】高知市塚ノ原３７－２", "url": "https://www.kaigokensaku.mhlw.go.jp/39/index.php?action_kouhyou_detail_004_kani=true&JigyosyoCd=3910115561-00&ServiceCd=780&Type=search", "url2": null }, "geometry": { "type": "Point", "coordinates": [ 133.494655500000022, 33.5609882 ] } },
{ "type": "Feature", "properties": { "内容": "デイサービスセンター　やさしい里【地域密着型通所介護】高知県高知市朝倉己７７１－１", "url": "https://www.kaigokensaku.mhlw.go.jp/39/index.php?action_kouhyou_detail_004_kani=true&JigyosyoCd=3970101626-00&ServiceCd=780&Type=search", "url2": "https://yasashii-group.jimdosite.com/" }, "geometry": { "type": "Point", "coordinates": [ 133.4897145, 33.5347412 ] } },
{ "type": "Feature", "properties": { "内容": "デイサービス　こころ【地域密着型通所介護】高知県高知市南元町3－4", "url": "https://www.kaigokensaku.mhlw.go.jp/39/index.php?action_kouhyou_detail_004_kani=true&JigyosyoCd=3990100939-00&ServiceCd=780&Type=search", "url2": null }, "geometry": { "type": "Point", "coordinates": [ 133.508248099999946, 33.5568503 ] } },
{ "type": "Feature", "properties": { "内容": "デイサービスやえもん【地域密着型通所介護】高知市北久保2番39号", "url": "https://www.kaigokensaku.mhlw.go.jp/39/index.php?action_kouhyou_detail_004_kani=true&JigyosyoCd=3970102491-00&ServiceCd=780&Type=search", "url2": "http://www.care-tomo.com/yaemon2.html" }, "geometry": { "type": "Point", "coordinates": [ 133.564253099999974, 33.5695338 ] } },
{ "type": "Feature", "properties": { "内容": "ＩＭＣデイサービスうぐるす【地域密着型通所介護】高知市鵜来巣１１番３８－８号", "url": "https://www.kaigokensaku.mhlw.go.jp/39/index.php?action_kouhyou_detail_004_kani=true&JigyosyoCd=3970102103-00&ServiceCd=780&Type=search", "url2": "https://imc-ls.com/facility/541/" }, "geometry": { "type": "Point", "coordinates": [ 133.483977802446816, 33.54074203280183 ] } },
{ "type": "Feature", "properties": { "内容": "宅老所・デイサービス朱夏【地域密着型通所介護】高知県高知市南河ノ瀬町４４番６", "url": "https://www.kaigokensaku.mhlw.go.jp/39/index.php?action_kouhyou_detail_004_kani=true&JigyosyoCd=3970104125-00&ServiceCd=780&Type=search", "url2": null }, "geometry": { "type": "Point", "coordinates": [ 133.524649, 33.5472602 ] } },
{ "type": "Feature", "properties": { "内容": "デイサービス　たけのこ【地域密着型通所介護】高知県高知市本町２丁目４番３号リンクノースケアセンター　３階", "url": "https://www.kaigokensaku.mhlw.go.jp/39/index.php?action_kouhyou_detail_004_kani=true&JigyosyoCd=3990100871-00&ServiceCd=780&Type=search", "url2": null }, "geometry": { "type": "Point", "coordinates": [ 133.5385169, 33.557962100000033 ] } },
{ "type": "Feature", "properties": { "内容": "歩きの専門デイサービス　いごりは【地域密着型通所介護】高知県高知市城山町２３－１宮地ビル１階", "url": "https://www.kaigokensaku.mhlw.go.jp/39/index.php?action_kouhyou_detail_004_kani=true&JigyosyoCd=3990101523-00&ServiceCd=780&Type=search", "url2": "http://igoriha.nikita.jp" }, "geometry": { "type": "Point", "coordinates": [ 133.5161247, 33.551108 ] } },
{ "type": "Feature", "properties": { "内容": "アルコデイトレセンター愛宕山【地域密着型通所介護】高知県高知市前里３３５－１５", "url": "https://www.kaigokensaku.mhlw.go.jp/39/index.php?action_kouhyou_detail_004_kani=true&JigyosyoCd=3970105866-00&ServiceCd=780&Type=search", "url2": "http://alco-smile.com" }, "geometry": { "type": "Point", "coordinates": [ 133.541394200000013, 33.577182 ] } },
{ "type": "Feature", "properties": { "内容": "デイサービス　一ツ橋【地域密着型通所介護】高知県高知市一ツ橋1丁目38番地", "url": "https://www.kaigokensaku.mhlw.go.jp/39/index.php?action_kouhyou_detail_004_kani=true&JigyosyoCd=3970103366-00&ServiceCd=780&Type=search", "url2": "http://www.sanjyukai.com/annai/hitotubashi.htm" }, "geometry": { "type": "Point", "coordinates": [ 133.532036599999969, 33.573399 ] } },
{ "type": "Feature", "properties": { "内容": "デイサービスきらら【地域密着型通所介護】高知県高知市薊野北町2丁目12-34", "url": "https://www.kaigokensaku.mhlw.go.jp/39/index.php?action_kouhyou_detail_004_kani=true&JigyosyoCd=3990101242-00&ServiceCd=780&Type=search", "url2": null }, "geometry": { "type": "Point", "coordinates": [ 133.556845900000013, 33.5799118 ] } },
{ "type": "Feature", "properties": { "内容": "デイサービスセンター　すみれ【地域密着型通所介護】高知市朝倉字三月田丙１５９９番地１", "url": "https://www.kaigokensaku.mhlw.go.jp/39/index.php?action_kouhyou_detail_004_kani=true&JigyosyoCd=3970104943-00&ServiceCd=780&Type=search", "url2": "http://www.kounankai.jp/asakura_sumire.html" }, "geometry": { "type": "Point", "coordinates": [ 133.4857538, 33.5350077 ] } },
{ "type": "Feature", "properties": { "内容": "らくらくデイサービス【地域密着型通所介護】高知県高知市六泉寺町87-10キャロットハウス1階", "url": "https://www.kaigokensaku.mhlw.go.jp/39/index.php?action_kouhyou_detail_004_kani=true&JigyosyoCd=3970105163-00&ServiceCd=780&Type=search", "url2": null }, "geometry": { "type": "Point", "coordinates": [ 133.544697499999984, 33.5378981 ] } },
{ "type": "Feature", "properties": { "内容": "デイサービス　ひらり【地域密着型通所介護】高知市潮新町1丁目11-29", "url": "https://www.kaigokensaku.mhlw.go.jp/39/index.php?action_kouhyou_detail_004_kani=true&JigyosyoCd=3990100988-00&ServiceCd=780&Type=search", "url2": null }, "geometry": { "type": "Point", "coordinates": [ 133.5480959, 33.5515279 ] } },
{ "type": "Feature", "properties": { "内容": "デイサービスわがや【地域密着型通所介護】高知県高知市若草南町16-21", "url": "https://www.kaigokensaku.mhlw.go.jp/39/index.php?action_kouhyou_detail_004_kani=true&JigyosyoCd=3990101465-00&ServiceCd=780&Type=search", "url2": null }, "geometry": { "type": "Point", "coordinates": [ 133.4902013, 33.5409493 ] } },
{ "type": "Feature", "properties": { "内容": "デイ・アズール【地域密着型通所介護】高知県高知市北秦泉寺87-1コーポ泉１F", "url": "https://www.kaigokensaku.mhlw.go.jp/39/index.php?action_kouhyou_detail_004_kani=true&JigyosyoCd=3990101218-00&ServiceCd=780&Type=search", "url2": null }, "geometry": { "type": "Point", "coordinates": [ 133.537315949073786, 33.5813895 ] } },
{ "type": "Feature", "properties": { "内容": "デイサービスセンター　スカイライン【地域密着型通所介護】帯屋町2丁目2-9帯屋町チェントロ２Ｆ－２－１－Ｄ", "url": "https://www.kaigokensaku.mhlw.go.jp/39/index.php?action_kouhyou_detail_004_kani=true&JigyosyoCd=3990101267-00&ServiceCd=780&Type=search", "url2": null }, "geometry": { "type": "Point", "coordinates": [ 133.537206, 33.560384 ] } },
{ "type": "Feature", "properties": { "内容": "デイサービスセンター　りん【地域密着型通所介護】高知市朝倉西町１丁目５番７号", "url": "https://www.kaigokensaku.mhlw.go.jp/39/index.php?action_kouhyou_detail_004_kani=true&JigyosyoCd=3970104638-00&ServiceCd=780&Type=search", "url2": null }, "geometry": { "type": "Point", "coordinates": [ 133.482669969512074, 33.542297615940953 ] } },
{ "type": "Feature", "properties": { "内容": "健康ハピネス【地域密着型通所介護】高知県高知市鳥越102番地2", "url": "https://www.kaigokensaku.mhlw.go.jp/39/index.php?action_kouhyou_detail_004_kani=true&JigyosyoCd=3970105932-00&ServiceCd=780&Type=search", "url2": null }, "geometry": { "type": "Point", "coordinates": [ 133.489299878751666, 33.56315212192564 ] } },
{ "type": "Feature", "properties": { "内容": "デイサービス逢生【地域密着型通所介護】高知県高知市中万々174", "url": "https://www.kaigokensaku.mhlw.go.jp/39/index.php?action_kouhyou_detail_004_kani=true&JigyosyoCd=3990101135-00&ServiceCd=780&Type=search", "url2": "https://www.lib-2020.com/company" }, "geometry": { "type": "Point", "coordinates": [ 133.515683200000012, 33.5690225 ] } },
{ "type": "Feature", "properties": { "内容": "デイサービスセンター希月【地域密着型通所介護】高知県朝倉本町１丁目12-28-6", "url": "https://www.kaigokensaku.mhlw.go.jp/39/index.php?action_kouhyou_detail_004_kani=true&JigyosyoCd=3970104745-00&ServiceCd=780&Type=search", "url2": null }, "geometry": { "type": "Point", "coordinates": [ 133.490292299999965, 33.549059 ] } },
{ "type": "Feature", "properties": { "内容": "デイサービスロング・フィールド【地域密着型通所介護】高知県高知市塚ノ原１７３－１", "url": "https://www.kaigokensaku.mhlw.go.jp/39/index.php?action_kouhyou_detail_004_kani=true&JigyosyoCd=3970105353-00&ServiceCd=780&Type=search", "url2": "https://www.long-fields.com/" }, "geometry": { "type": "Point", "coordinates": [ 133.498149499999954, 33.5614466 ] } },
{ "type": "Feature", "properties": { "内容": "デイサービス　らく・らく【地域密着型通所介護】高知市塚ノ原365-3", "url": "https://www.kaigokensaku.mhlw.go.jp/39/index.php?action_kouhyou_detail_004_kani=true&JigyosyoCd=3970103879-00&ServiceCd=780&Type=search", "url2": "http://care-net.biz/39/rakuraku/" }, "geometry": { "type": "Point", "coordinates": [ 133.495802599999934, 33.5642046 ] } },
{ "type": "Feature", "properties": { "内容": "通所介護ワンパレス【地域密着型通所介護】高知県高知市一宮中町1丁目18番29号", "url": "https://www.kaigokensaku.mhlw.go.jp/39/index.php?action_kouhyou_detail_004_kani=true&JigyosyoCd=3990101739-00&ServiceCd=780&Type=search", "url2": null }, "geometry": { "type": "Point", "coordinates": [ 133.5714084, 33.5835435 ] } },
{ "type": "Feature", "properties": { "内容": "リハビリデイサービスポラリス仲田店【地域密着型通所介護】高知県高知市仲田町12番33号", "url": "https://www.kaigokensaku.mhlw.go.jp/39/index.php?action_kouhyou_detail_004_kani=true&JigyosyoCd=3990101853-00&ServiceCd=780&Type=search", "url2": null }, "geometry": { "type": "Point", "coordinates": [ 133.5524335, 33.5485464 ] } },
{ "type": "Feature", "properties": { "内容": "デイサービス元気【地域密着型通所介護】高知市横浜新町５－２５１０", "url": "https://www.kaigokensaku.mhlw.go.jp/39/index.php?action_kouhyou_detail_004_kani=true&JigyosyoCd=3970102996-00&ServiceCd=780&Type=search", "url2": "http://www.aoi-ask.com/genki/" }, "geometry": { "type": "Point", "coordinates": [ 133.536129800000026, 33.5155533 ] } },
{ "type": "Feature", "properties": { "内容": "デイサービスといろ【地域密着型通所介護】東石立町17", "url": "https://www.kaigokensaku.mhlw.go.jp/39/index.php?action_kouhyou_detail_004_kani=true&JigyosyoCd=3990101747-00&ServiceCd=780&Type=search", "url2": null }, "geometry": { "type": "Point", "coordinates": [ 133.5249758, 33.5528351 ] } },
{ "type": "Feature", "properties": { "内容": "デイサービス　アクアフィットスタイル【地域密着型通所介護】高知市鴨部1丁目10-29", "url": "https://www.kaigokensaku.mhlw.go.jp/39/index.php?action_kouhyou_detail_004_kani=true&JigyosyoCd=3990101895-00&ServiceCd=780&Type=search", "url2": null }, "geometry": { "type": "Point", "coordinates": [ 133.5041216, 33.5520672 ] } },
{ "type": "Feature", "properties": { "内容": "デイサービス　途一途【地域密着型通所介護】高知県高知市昭和町17-22", "url": "https://www.kaigokensaku.mhlw.go.jp/39/index.php?action_kouhyou_detail_004_kani=true&JigyosyoCd=3990101929-00&ServiceCd=780&Type=search", "url2": null }, "geometry": { "type": "Point", "coordinates": [ 133.5391908, 33.5704134 ] } },
{ "type": "Feature", "properties": { "内容": "デイサービス心音【地域密着型通所介護】高知県高知市瀬戸西町3丁目117", "url": "https://www.kaigokensaku.mhlw.go.jp/39/index.php?action_kouhyou_detail_004_kani=true&JigyosyoCd=3990101333-00&ServiceCd=780&Type=search", "url2": null }, "geometry": { "type": "Point", "coordinates": [ 133.5420489, 33.5097705 ] } },
{ "type": "Feature", "properties": { "内容": "デイサービス　どんぐりの家【地域密着型通所介護】高知県高知市旭天神町64番地", "url": "https://www.kaigokensaku.mhlw.go.jp/39/index.php?action_kouhyou_detail_004_kani=true&JigyosyoCd=3970103937-00&ServiceCd=780&Type=search", "url2": "http://dongurikouchi5656.wixsite.com/donguri" }, "geometry": { "type": "Point", "coordinates": [ 133.508148099999971, 33.5601804 ] } },
{ "type": "Feature", "properties": { "内容": "デイサービスロング・プラス【地域密着型通所介護】高知県高知市塚ノ原１６２－１４", "url": "https://www.kaigokensaku.mhlw.go.jp/39/index.php?action_kouhyou_detail_004_kani=true&JigyosyoCd=3990101911-00&ServiceCd=780&Type=search", "url2": "https://www.long-fields.com" }, "geometry": { "type": "Point", "coordinates": [ 133.4980794, 33.5615934 ] } },
{ "type": "Feature", "properties": { "内容": "デイサービスセンター秦いきいき学校【地域密着型通所介護】高知県高知市中秦泉寺87番地1", "url": "https://www.kaigokensaku.mhlw.go.jp/39/index.php?action_kouhyou_detail_004_kani=true&JigyosyoCd=3990101648-00&ServiceCd=780&Type=search", "url2": "https://www.fukudacl.or.jp/hataiki.html" }, "geometry": { "type": "Point", "coordinates": [ 133.537222, 33.5794424 ] } },
{ "type": "Feature", "properties": { "内容": "にじいろじかん針木【地域密着型通所介護】高知県高知市針木東町７−３２", "url": "https://www.kaigokensaku.mhlw.go.jp/39/index.php?action_kouhyou_detail_004_kani=true&JigyosyoCd=3990101309-00&ServiceCd=780&Type=search", "url2": "https://nijinoyume-g.jp/" }, "geometry": { "type": "Point", "coordinates": [ 133.4761101, 33.5346679 ] } },
{ "type": "Feature", "properties": { "内容": "ＩＭＣデイサービス　高須【地域密着型通所介護】高知市高須２丁目14-7", "url": "https://www.kaigokensaku.mhlw.go.jp/39/index.php?action_kouhyou_detail_004_kani=true&JigyosyoCd=3970103408-00&ServiceCd=780&Type=search", "url2": null }, "geometry": { "type": "Point", "coordinates": [ 133.586262499999947, 33.561927 ] } },
{ "type": "Feature", "properties": { "内容": "山の上のデイサービス【地域密着型通所介護】高知県高知市上本宮町188番地2", "url": "https://www.kaigokensaku.mhlw.go.jp/39/index.php?action_kouhyou_detail_004_kani=true&JigyosyoCd=3970106344-00&ServiceCd=780&Type=search", "url2": null }, "geometry": { "type": "Point", "coordinates": [ 133.49022, 33.5554193 ] } },
{ "type": "Feature", "properties": { "内容": "デイサービス　瀬戸虹の夢【地域密着型通所介護】高知県高知市長浜1440-1", "url": "https://www.kaigokensaku.mhlw.go.jp/39/index.php?action_kouhyou_detail_004_kani=true&JigyosyoCd=3990101762-00&ServiceCd=780&Type=search", "url2": "https://nijinoyume-g.jp/" }, "geometry": { "type": "Point", "coordinates": [ 133.538071, 33.5063612 ] } },
{ "type": "Feature", "properties": { "内容": "こじゃリハこうち【地域密着型通所介護】高知県高知市一宮南町１丁目１５−１３マルナカ高知インター店２階", "url": "https://www.kaigokensaku.mhlw.go.jp/39/index.php?action_kouhyou_detail_004_kani=true&JigyosyoCd=3990101556-00&ServiceCd=780&Type=search", "url2": "https://rsb14267.wixsite.com/lisus/blank-21" }, "geometry": { "type": "Point", "coordinates": [ 133.56575380000001, 33.580664 ] } },
{ "type": "Feature", "properties": { "内容": "デイサービスポラリス朝倉店【地域密着型通所介護】高知県高知市朝倉横町26番26号", "url": "https://www.kaigokensaku.mhlw.go.jp/39/index.php?action_kouhyou_detail_004_kani=true&JigyosyoCd=3990101572-00&ServiceCd=780&Type=search", "url2": null }, "geometry": { "type": "Point", "coordinates": [ 133.4918606, 33.5445293 ] } },
{ "type": "Feature", "properties": { "内容": "でいさぁびすはっぴぃ大津【地域密着型通所介護】高知県高知市大津乙438-5コーポ舟入川1F", "url": "https://www.kaigokensaku.mhlw.go.jp/39/index.php?action_kouhyou_detail_004_kani=true&JigyosyoCd=3990101655-00&ServiceCd=780&Type=search", "url2": null }, "geometry": { "type": "Point", "coordinates": [ 133.5981979, 33.568209 ] } },
{ "type": "Feature", "properties": { "内容": "デイサービスいこいの森【地域密着型通所介護】高知県高知市旭町二丁目38番地5", "url": "https://www.kaigokensaku.mhlw.go.jp/39/index.php?action_kouhyou_detail_004_kani=true&JigyosyoCd=3990101630-00&ServiceCd=780&Type=search", "url2": "https://ikoi-sms.com" }, "geometry": { "type": "Point", "coordinates": [ 133.5089451, 33.555609 ] } },
{ "type": "Feature", "properties": { "内容": "デイサービスセンターいこう家【地域密着型通所介護】高知県高知市宝町15-9", "url": "https://www.kaigokensaku.mhlw.go.jp/39/index.php?action_kouhyou_detail_004_kani=true&JigyosyoCd=3990101598-00&ServiceCd=780&Type=search", "url2": null }, "geometry": { "type": "Point", "coordinates": [ 135.6361162, 34.6742872 ] } },
{ "type": "Feature", "properties": { "内容": "デイサービス　つむぎ【地域密着型通所介護】高知市種崎３３５", "url": "https://www.kaigokensaku.mhlw.go.jp/39/index.php?action_kouhyou_detail_004_kani=true&JigyosyoCd=3990101549-00&ServiceCd=780&Type=search", "url2": null }, "geometry": { "type": "Point", "coordinates": [ 133.565521500000017, 33.503738300000016 ] } },
{ "type": "Feature", "properties": { "内容": "デイサービスバラ【地域密着型通所介護】高知県高知市長浜3427-1", "url": "https://www.kaigokensaku.mhlw.go.jp/39/index.php?action_kouhyou_detail_004_kani=true&JigyosyoCd=3990101507-00&ServiceCd=780&Type=search", "url2": null }, "geometry": { "type": "Point", "coordinates": [ 133.538794200000012, 33.493197 ] } },
{ "type": "Feature", "properties": { "内容": "デイサービス　ケア・リハ【地域密着型通所介護】高知県高知市三園町207ｰ1エクセルハウス三園１F", "url": "https://www.kaigokensaku.mhlw.go.jp/39/index.php?action_kouhyou_detail_004_kani=true&JigyosyoCd=3990101614-00&ServiceCd=780&Type=search", "url2": null }, "geometry": { "type": "Point", "coordinates": [ 133.532613700000013, 33.5747044 ] } },
{ "type": "Feature", "properties": { "内容": "ハッピーライフゆたか【地域密着型通所介護】高知県高知市新屋敷1丁目18番15号", "url": "https://www.kaigokensaku.mhlw.go.jp/39/index.php?action_kouhyou_detail_004_kani=true&JigyosyoCd=3970105114-00&ServiceCd=780&Type=search", "url2": null }, "geometry": { "type": "Point", "coordinates": [ 133.522363654638269, 33.565772079730117 ] } },
{ "type": "Feature", "properties": { "内容": "STUDIOCOOK【地域密着型通所介護】高知県高知市大谷公園町16-25　2F", "url": "https://www.kaigokensaku.mhlw.go.jp/39/index.php?action_kouhyou_detail_004_kani=true&JigyosyoCd=3990101531-00&ServiceCd=780&Type=search", "url2": "https://team-with.com/day.html" }, "geometry": { "type": "Point", "coordinates": [ 133.482053799999989, 33.5349606 ] } },
{ "type": "Feature", "properties": { "内容": "デイサービスセンター　庵【地域密着型通所介護】高知県高知市介良乙3058-5", "url": "https://www.kaigokensaku.mhlw.go.jp/39/index.php?action_kouhyou_detail_004_kani=true&JigyosyoCd=3970104661-00&ServiceCd=780&Type=search", "url2": "http://www.sawarabikai.net/index.html" }, "geometry": { "type": "Point", "coordinates": [ 133.600747100000035, 33.5576916 ] } },
{ "type": "Feature", "properties": { "内容": "デイサービスセンターにこにこリハビリクラブ【地域密着型通所介護】高知県室戸市室津1774-7", "url": "https://www.kaigokensaku.mhlw.go.jp/39/index.php?action_kouhyou_detail_004_kani=true&JigyosyoCd=3990200036-00&ServiceCd=780&Type=search", "url2": null }, "geometry": { "type": "Point", "coordinates": [ 134.159474100000011, 33.293279700000014 ] } },
{ "type": "Feature", "properties": { "内容": "デイサービスはな【地域密着型通所介護】高知県室戸市羽根町乙2033", "url": "https://www.kaigokensaku.mhlw.go.jp/39/index.php?action_kouhyou_detail_004_kani=true&JigyosyoCd=3990200077-00&ServiceCd=780&Type=search", "url2": null }, "geometry": { "type": "Point", "coordinates": [ 134.0627452, 33.3784822 ] } },
{ "type": "Feature", "properties": { "内容": "デイサービスゆうなぎ【地域密着型通所介護】高知県室戸市元甲2307番2", "url": "https://www.kaigokensaku.mhlw.go.jp/39/index.php?action_kouhyou_detail_004_kani=true&JigyosyoCd=3970200337-00&ServiceCd=780&Type=search", "url2": null }, "geometry": { "type": "Point", "coordinates": [ 134.114078528835989, 33.295038073879873 ] } },
{ "type": "Feature", "properties": { "内容": "地域密着型通所介護事業所おくのさと【地域密着型通所介護】高知県室戸市元甲１０７６", "url": "https://www.kaigokensaku.mhlw.go.jp/39/index.php?action_kouhyou_detail_004_kani=true&JigyosyoCd=3990200093-00&ServiceCd=780&Type=search", "url2": null }, "geometry": { "type": "Point", "coordinates": [ 134.1298622, 33.3210459 ] } },
{ "type": "Feature", "properties": { "内容": "デイサービスあやめ【地域密着型通所介護】高知県室戸市領家270-1", "url": "https://www.kaigokensaku.mhlw.go.jp/39/index.php?action_kouhyou_detail_004_kani=true&JigyosyoCd=3990200101-00&ServiceCd=780&Type=search", "url2": null }, "geometry": { "type": "Point", "coordinates": [ 134.1661379, 33.2932048 ] } },
{ "type": "Feature", "properties": { "内容": "託老所「わすれな草」【地域密着型通所介護】高知県安芸市寿町１－７", "url": "https://www.kaigokensaku.mhlw.go.jp/39/index.php?action_kouhyou_detail_004_kani=true&JigyosyoCd=3970300335-00&ServiceCd=780&Type=search", "url2": "qqdr6ss9k@ninus.ocn.ne.jp" }, "geometry": { "type": "Point", "coordinates": [ 133.9045969, 33.4981218 ] } },
{ "type": "Feature", "properties": { "内容": "デイサービスセンターアザレア【地域密着型通所介護】高知県安芸市川北甲3637", "url": "https://www.kaigokensaku.mhlw.go.jp/39/index.php?action_kouhyou_detail_004_kani=true&JigyosyoCd=3990300042-00&ServiceCd=780&Type=search", "url2": "https://www.kounankai.jp/search/detail/25/" }, "geometry": { "type": "Point", "coordinates": [ 133.9335734, 33.5095484 ] } },
{ "type": "Feature", "properties": { "内容": "デイサービスセンターりんどう【地域密着型通所介護】高知県安芸市川北甲3731", "url": "https://www.kaigokensaku.mhlw.go.jp/39/index.php?action_kouhyou_detail_004_kani=true&JigyosyoCd=3990300059-00&ServiceCd=780&Type=search", "url2": "https://www.kounankai.jp/search/detail/25/" }, "geometry": { "type": "Point", "coordinates": [ 133.9335734, 33.5095484 ] } },
{ "type": "Feature", "properties": { "内容": "デイサービス　みそら【地域密着型通所介護】高知県南国市十市１５２４番地２", "url": "https://www.kaigokensaku.mhlw.go.jp/39/index.php?action_kouhyou_detail_004_kani=true&JigyosyoCd=3970400382-00&ServiceCd=780&Type=search", "url2": "https://tn-misora.co.jp/" }, "geometry": { "type": "Point", "coordinates": [ 133.632165371936367, 33.530167156495303 ] } },
{ "type": "Feature", "properties": { "内容": "デイサービス　みそら岡豊【地域密着型通所介護】高知県南国市岡豊町蒲原160-61", "url": "https://www.kaigokensaku.mhlw.go.jp/39/index.php?action_kouhyou_detail_004_kani=true&JigyosyoCd=3970400432-00&ServiceCd=780&Type=search", "url2": "https://tn-misora.co.jp/" }, "geometry": { "type": "Point", "coordinates": [ 133.602868899999976, 33.5913429 ] } },
{ "type": "Feature", "properties": { "内容": "でいホームつぼみ【地域密着型通所介護】高知県南国市堀ノ内４５８番地", "url": "https://www.kaigokensaku.mhlw.go.jp/39/index.php?action_kouhyou_detail_004_kani=true&JigyosyoCd=3970400473-00&ServiceCd=780&Type=search", "url2": "https://www.tsubomi-n.com" }, "geometry": { "type": "Point", "coordinates": [ 133.674454299999979, 33.577013 ] } },
{ "type": "Feature", "properties": { "内容": "デイサービス　ながおか【地域密着型通所介護】高知県南国市上末松9番地8", "url": "https://www.kaigokensaku.mhlw.go.jp/39/index.php?action_kouhyou_detail_004_kani=true&JigyosyoCd=3970400614-00&ServiceCd=780&Type=search", "url2": "http://dayservicenagaoka.web.fc2.com" }, "geometry": { "type": "Point", "coordinates": [ 133.659661908598338, 33.594016273310409 ] } },
{ "type": "Feature", "properties": { "内容": "デイサービスセンターこはる南国【地域密着型通所介護】高知県南国市篠原１７３９－５", "url": "https://www.kaigokensaku.mhlw.go.jp/39/index.php?action_kouhyou_detail_004_kani=true&JigyosyoCd=3970400606-00&ServiceCd=780&Type=search", "url2": null }, "geometry": { "type": "Point", "coordinates": [ 133.635893399999986, 33.5747955 ] } },
{ "type": "Feature", "properties": { "内容": "デイサービス　愛結【地域密着型通所介護】高知県南国市岡豊町蒲原１６０－７８", "url": "https://www.kaigokensaku.mhlw.go.jp/39/index.php?action_kouhyou_detail_004_kani=true&JigyosyoCd=3970400507-00&ServiceCd=780&Type=search", "url2": "http://ameblo.jp/day-ai/" }, "geometry": { "type": "Point", "coordinates": [ 133.602902299999982, 33.5910235 ] } },
{ "type": "Feature", "properties": { "内容": "デイサービス　ときめき【地域密着型通所介護】高知県南国市久枝164-2", "url": "https://www.kaigokensaku.mhlw.go.jp/39/index.php?action_kouhyou_detail_004_kani=true&JigyosyoCd=3970400556-00&ServiceCd=780&Type=search", "url2": "http://fukuunmaru.com/" }, "geometry": { "type": "Point", "coordinates": [ 133.678174099999978, 33.5349986 ] } },
{ "type": "Feature", "properties": { "内容": "デイサービスセンターこはる岡豊【地域密着型通所介護】高知県南国市岡豊町笠ノ川132-1", "url": "https://www.kaigokensaku.mhlw.go.jp/39/index.php?action_kouhyou_detail_004_kani=true&JigyosyoCd=3990400099-00&ServiceCd=780&Type=search", "url2": null }, "geometry": { "type": "Point", "coordinates": [ 133.633286449073779, 33.606269876151565 ] } },
{ "type": "Feature", "properties": { "内容": "でいさーびす　かけはし【地域密着型通所介護】高知県土佐市高岡町乙33番地", "url": "https://www.kaigokensaku.mhlw.go.jp/39/index.php?action_kouhyou_detail_004_kani=true&JigyosyoCd=3970500637-00&ServiceCd=780&Type=search", "url2": null }, "geometry": { "type": "Point", "coordinates": [ 133.420500599999968, 33.4966162 ] } },
{ "type": "Feature", "properties": { "内容": "デイサービス　蓮池【地域密着型通所介護】高知県土佐市蓮池1396-2", "url": "https://www.kaigokensaku.mhlw.go.jp/39/index.php?action_kouhyou_detail_004_kani=true&JigyosyoCd=3970500652-00&ServiceCd=780&Type=search", "url2": null }, "geometry": { "type": "Point", "coordinates": [ 133.4098186, 33.4898921 ] } },
{ "type": "Feature", "properties": { "内容": "デイサービス　ケアビレッジとさ【地域密着型通所介護】高知県土佐市蓮池1231番2", "url": "https://www.kaigokensaku.mhlw.go.jp/39/index.php?action_kouhyou_detail_004_kani=true&JigyosyoCd=3990500088-00&ServiceCd=780&Type=search", "url2": "https://mizuhogroup.jp/" }, "geometry": { "type": "Point", "coordinates": [ 133.413412559524573, 33.492367247888104 ] } },
{ "type": "Feature", "properties": { "内容": "デイサービス清滝【地域密着型通所介護】高知県土佐市高岡町乙1568－１デイサービス清滝", "url": "https://www.kaigokensaku.mhlw.go.jp/39/index.php?action_kouhyou_detail_004_kani=true&JigyosyoCd=3970500710-00&ServiceCd=780&Type=search", "url2": "refine.fem.jp" }, "geometry": { "type": "Point", "coordinates": [ 133.411134899999979, 33.502732 ] } },
{ "type": "Feature", "properties": { "内容": "リハビリデイサービス元気屋本舗【地域密着型通所介護】高知県須崎市吾井郷乙1739-1", "url": "https://www.kaigokensaku.mhlw.go.jp/39/index.php?action_kouhyou_detail_004_kani=true&JigyosyoCd=3970600437-00&ServiceCd=780&Type=search", "url2": null }, "geometry": { "type": "Point", "coordinates": [ 133.293860099999961, 33.4159852 ] } },
{ "type": "Feature", "properties": { "内容": "通所介護事業所楽リハ【地域密着型通所介護】高知県須崎市多ノ郷甲1069-8", "url": "https://www.kaigokensaku.mhlw.go.jp/39/index.php?action_kouhyou_detail_004_kani=true&JigyosyoCd=3970600395-00&ServiceCd=780&Type=search", "url2": null }, "geometry": { "type": "Point", "coordinates": [ 133.28058137050013, 33.41324808939855 ] } },
{ "type": "Feature", "properties": { "内容": "須崎市老人デイサービスセンター山ももの家【地域密着型通所介護】高知県須崎市安和２１６番１", "url": "https://www.kaigokensaku.mhlw.go.jp/39/index.php?action_kouhyou_detail_004_kani=true&JigyosyoCd=3970600155-00&ServiceCd=780&Type=search", "url2": null }, "geometry": { "type": "Point", "coordinates": [ 133.256593201852439, 33.368732579255351 ] } },
{ "type": "Feature", "properties": { "内容": "デイサービス　ひかり【地域密着型通所介護】高知県須崎市大谷551番地", "url": "https://www.kaigokensaku.mhlw.go.jp/39/index.php?action_kouhyou_detail_004_kani=true&JigyosyoCd=3970600361-00&ServiceCd=780&Type=search", "url2": null }, "geometry": { "type": "Point", "coordinates": [ 133.321691677840391, 33.390150925095135 ] } },
{ "type": "Feature", "properties": { "内容": "老人デイサービスセンター清流の家【地域密着型通所介護】高知県須崎市上分丙1758番地８", "url": "https://www.kaigokensaku.mhlw.go.jp/39/index.php?action_kouhyou_detail_004_kani=true&JigyosyoCd=3990600060-00&ServiceCd=780&Type=search", "url2": "http：/ｗｗｗ．ｃａ．ｐｉｋａｒａ．ｎｅ．ｊｐ/ｓｅｉｒｙｕｓｏ" }, "geometry": { "type": "Point", "coordinates": [ 133.236827299999987, 33.3995937 ] } },
{ "type": "Feature", "properties": { "内容": "デイサービスびんび【地域密着型通所介護】高知県須崎市吾井郷乙706番地", "url": "https://www.kaigokensaku.mhlw.go.jp/39/index.php?action_kouhyou_detail_004_kani=true&JigyosyoCd=3970600312-00&ServiceCd=780&Type=search", "url2": null }, "geometry": { "type": "Point", "coordinates": [ 133.290529800000058, 33.4264981 ] } },
{ "type": "Feature", "properties": { "内容": "アピアデイサービス【地域密着型通所介護】高知県四万十市右山五月町８－１３アピアさつき", "url": "https://www.kaigokensaku.mhlw.go.jp/39/index.php?action_kouhyou_detail_004_kani=true&JigyosyoCd=3971000389-00&ServiceCd=780&Type=search", "url2": null }, "geometry": { "type": "Point", "coordinates": [ 132.939299099999971, 32.987109599999989 ] } },
{ "type": "Feature", "properties": { "内容": "デイサービスせいきょう四万十【地域密着型通所介護】高知県四万十市具同3227番地", "url": "https://www.kaigokensaku.mhlw.go.jp/39/index.php?action_kouhyou_detail_004_kani=true&JigyosyoCd=3971000231-00&ServiceCd=780&Type=search", "url2": null }, "geometry": { "type": "Point", "coordinates": [ 132.9150793, 32.9797487 ] } },
{ "type": "Feature", "properties": { "内容": "デイサービスセンターえびす【地域密着型通所介護】高知県　四万十市　国見　929-1", "url": "https://www.kaigokensaku.mhlw.go.jp/39/index.php?action_kouhyou_detail_004_kani=true&JigyosyoCd=3970700070-00&ServiceCd=780&Type=search", "url2": null }, "geometry": { "type": "Point", "coordinates": [ 132.87933750000002, 32.9799706 ] } },
{ "type": "Feature", "properties": { "内容": "ﾃﾞｲｻｰﾋﾞｽｾﾝﾀｰ三宝通所介護事業所【地域密着型通所介護】高知県香南市野市町母代寺188", "url": "https://www.kaigokensaku.mhlw.go.jp/39/index.php?action_kouhyou_detail_004_kani=true&JigyosyoCd=3991100011-00&ServiceCd=780&Type=search", "url2": "http://konan-kami.jp" }, "geometry": { "type": "Point", "coordinates": [ 133.702718499999946, 33.5815344 ] } },
{ "type": "Feature", "properties": { "内容": "デイサービス木苺ＰＬＵＳ【地域密着型通所介護】高知県香南市野市町母代寺62-1", "url": "https://www.kaigokensaku.mhlw.go.jp/39/index.php?action_kouhyou_detail_004_kani=true&JigyosyoCd=3971100130-00&ServiceCd=780&Type=search", "url2": "https：//www.tsubomi-p.com" }, "geometry": { "type": "Point", "coordinates": [ 133.699597579762212, 33.582293345277563 ] } },
{ "type": "Feature", "properties": { "内容": "デイサービスまおり【地域密着型通所介護】高知県香南市野市町みどり野東1丁目２２番地", "url": "https://www.kaigokensaku.mhlw.go.jp/39/index.php?action_kouhyou_detail_004_kani=true&JigyosyoCd=3991100086-00&ServiceCd=780&Type=search", "url2": "https://wwwbig-advance.site/c/168/1533" }, "geometry": { "type": "Point", "coordinates": [ 133.7214531, 33.5656494 ] } },
{ "type": "Feature", "properties": { "内容": "こじゃリハのいち【地域密着型通所介護】野市町西野166-1", "url": "https://www.kaigokensaku.mhlw.go.jp/39/index.php?action_kouhyou_detail_004_kani=true&JigyosyoCd=3971100155-00&ServiceCd=780&Type=search", "url2": "http://homepage3.nifty.com/lisus/" }, "geometry": { "type": "Point", "coordinates": [ 133.695283, 33.5780354 ] } },
{ "type": "Feature", "properties": { "内容": "デイサービス　縁【地域密着型通所介護】高知県香南市野市町東野202-1", "url": "https://www.kaigokensaku.mhlw.go.jp/39/index.php?action_kouhyou_detail_004_kani=true&JigyosyoCd=3971100270-00&ServiceCd=780&Type=search", "url2": "http://www.en-inc.info/" }, "geometry": { "type": "Point", "coordinates": [ 133.705049893701158, 33.561966203048527 ] } },
{ "type": "Feature", "properties": { "内容": "デイサービスむらじ【地域密着型通所介護】高知県香南市香我美町徳王子1942-1デイサービスむらじ", "url": "https://www.kaigokensaku.mhlw.go.jp/39/index.php?action_kouhyou_detail_004_kani=true&JigyosyoCd=3991100029-00&ServiceCd=780&Type=search", "url2": "http://care-net.biz/39/murazi/" }, "geometry": { "type": "Point", "coordinates": [ 133.73404785885873, 33.560614492168725 ] } },
{ "type": "Feature", "properties": { "内容": "古民家でいホームきずな【地域密着型通所介護】高知県香南市野市町本村1450番地", "url": "https://www.kaigokensaku.mhlw.go.jp/39/index.php?action_kouhyou_detail_004_kani=true&JigyosyoCd=3971100247-00&ServiceCd=780&Type=search", "url2": null }, "geometry": { "type": "Point", "coordinates": [ 133.731154699999934, 33.5808518 ] } },
{ "type": "Feature", "properties": { "内容": "デイサービスセンター　かがみ【地域密着型通所介護】高知県香南市香我美町岸本205番地1", "url": "https://www.kaigokensaku.mhlw.go.jp/39/index.php?action_kouhyou_detail_004_kani=true&JigyosyoCd=3971100114-00&ServiceCd=780&Type=search", "url2": "https://www.chisio-group.or.jp/" }, "geometry": { "type": "Point", "coordinates": [ 133.7321028, 33.5393126 ] } },
{ "type": "Feature", "properties": { "内容": "でいさぁびす　はっぴぃ【地域密着型通所介護】高知県香南市野市町深渕179", "url": "https://www.kaigokensaku.mhlw.go.jp/39/index.php?action_kouhyou_detail_004_kani=true&JigyosyoCd=3991100060-00&ServiceCd=780&Type=search", "url2": null }, "geometry": { "type": "Point", "coordinates": [ 133.69072, 33.571613 ] } },
{ "type": "Feature", "properties": { "内容": "デイサービスセンター丹心苑【地域密着型通所介護】高知県香南市吉川町古川340-2総合福祉ゾーンオークの里内", "url": "https://www.kaigokensaku.mhlw.go.jp/39/index.php?action_kouhyou_detail_004_kani=true&JigyosyoCd=3971100122-00&ServiceCd=780&Type=search", "url2": "ｈｔｔ：//www.kounankai.jp" }, "geometry": { "type": "Point", "coordinates": [ 133.714604099999974, 33.5481307 ] } },
{ "type": "Feature", "properties": { "内容": "きとうせや【地域密着型通所介護】高知県香南市野市町中ノ村1421-13", "url": "https://www.kaigokensaku.mhlw.go.jp/39/index.php?action_kouhyou_detail_004_kani=true&JigyosyoCd=3991100052-00&ServiceCd=780&Type=search", "url2": null }, "geometry": { "type": "Point", "coordinates": [ 133.7222688, 33.5617269 ] } },
{ "type": "Feature", "properties": { "内容": "菜園　よりみち【地域密着型通所介護】高知県香南市野市町西野2553番地", "url": "https://www.kaigokensaku.mhlw.go.jp/39/index.php?action_kouhyou_detail_004_kani=true&JigyosyoCd=3991100094-00&ServiceCd=780&Type=search", "url2": "https://saien-yorimichi.wixsite.com/my-site" }, "geometry": { "type": "Point", "coordinates": [ 133.7021382, 33.558393 ] } },
{ "type": "Feature", "properties": { "内容": "デイサービス　ときめき　土佐山田店【地域密着型通所介護】高知県香美市土佐山田町影山168番地", "url": "https://www.kaigokensaku.mhlw.go.jp/39/index.php?action_kouhyou_detail_004_kani=true&JigyosyoCd=3971200153-00&ServiceCd=780&Type=search", "url2": null }, "geometry": { "type": "Point", "coordinates": [ 133.727846199999931, 33.617036 ] } },
{ "type": "Feature", "properties": { "内容": "デイサービスいろは【地域密着型通所介護】高知県香美市土佐山田町宮ノ口88番地14", "url": "https://www.kaigokensaku.mhlw.go.jp/39/index.php?action_kouhyou_detail_004_kani=true&JigyosyoCd=3991200076-00&ServiceCd=780&Type=search", "url2": "https://kabushikigaisha-iroha.amebaownd.com" }, "geometry": { "type": "Point", "coordinates": [ 133.717840799999976, 33.6220486 ] } },
{ "type": "Feature", "properties": { "内容": "ﾃﾞｲｻｰﾋﾞｽいろはの家【地域密着型通所介護】高知県香美市土佐山田町楠目609-1", "url": "https://www.kaigokensaku.mhlw.go.jp/39/index.php?action_kouhyou_detail_004_kani=true&JigyosyoCd=3991200084-00&ServiceCd=780&Type=search", "url2": "kabushikigaisya-iroha.amebaownd.com" }, "geometry": { "type": "Point", "coordinates": [ 133.6942379, 33.6062538 ] } },
{ "type": "Feature", "properties": { "内容": "デイサービス　みそら山田【地域密着型通所介護】高知県香美市土佐山田町秦山町3丁目16-2", "url": "https://www.kaigokensaku.mhlw.go.jp/39/index.php?action_kouhyou_detail_004_kani=true&JigyosyoCd=3971200120-00&ServiceCd=780&Type=search", "url2": "https://tn-misora.co.jp/" }, "geometry": { "type": "Point", "coordinates": [ 133.677167899999972, 33.6073097 ] } },
{ "type": "Feature", "properties": { "内容": "デイサービスセンターえがお【地域密着型通所介護】高知県香美市土佐山田町楠目８６３番地９", "url": "https://www.kaigokensaku.mhlw.go.jp/39/index.php?action_kouhyou_detail_004_kani=true&JigyosyoCd=3971200112-00&ServiceCd=780&Type=search", "url2": null }, "geometry": { "type": "Point", "coordinates": [ 133.697846600000048, 33.6104258 ] } },
{ "type": "Feature", "properties": { "内容": "デイサービスセンター白寿通所介護事業所【地域密着型通所介護】高知県香美市香北町永野2152番地", "url": "https://www.kaigokensaku.mhlw.go.jp/39/index.php?action_kouhyou_detail_004_kani=true&JigyosyoCd=3972100113-00&ServiceCd=780&Type=search", "url2": "https://konan-kami.net" }, "geometry": { "type": "Point", "coordinates": [ 133.817208, 33.665690700000034 ] } },
{ "type": "Feature", "properties": { "内容": "デイサービスたからまち【地域密着型通所介護】高知県香美市土佐山田町宝町4-4-32ＹＳマンション101号室", "url": "https://www.kaigokensaku.mhlw.go.jp/39/index.php?action_kouhyou_detail_004_kani=true&JigyosyoCd=3971200179-00&ServiceCd=780&Type=search", "url2": null }, "geometry": { "type": "Point", "coordinates": [ 133.682161899999983, 33.6012327 ] } },
{ "type": "Feature", "properties": { "内容": "デイホーム　おじま家【地域密着型通所介護】土佐山田町百石町2丁目4-34サクラス101", "url": "https://www.kaigokensaku.mhlw.go.jp/39/index.php?action_kouhyou_detail_004_kani=true&JigyosyoCd=3991200068-00&ServiceCd=780&Type=search", "url2": null }, "geometry": { "type": "Point", "coordinates": [ 133.697289599999976, 33.6086103 ] } },
{ "type": "Feature", "properties": { "内容": "香美市社協デイサービスセンターびらふ【地域密着型通所介護】高知県香美市香北町韮生野336番地1香美市立保健福祉センター香北", "url": "https://www.kaigokensaku.mhlw.go.jp/39/index.php?action_kouhyou_detail_004_kani=true&JigyosyoCd=3991200092-00&ServiceCd=780&Type=search", "url2": "hppt://kami-shakyo.or.jp/" }, "geometry": { "type": "Point", "coordinates": [ 133.784347200000013, 33.6488984 ] } },
{ "type": "Feature", "properties": { "内容": "社会福祉法人ウエルプラザ　高齢者生活福祉センターこづみ　デイサービスセンターこづみ通所介護事業所【地域密着型通所介護】高知県香美市物部町大栃898番地1高齢者生活福祉センターこづみ", "url": "https://www.kaigokensaku.mhlw.go.jp/39/index.php?action_kouhyou_detail_004_kani=true&JigyosyoCd=3971200039-00&ServiceCd=780&Type=search", "url2": "tosakami52@smil.ocn.ne.jp" }, "geometry": { "type": "Point", "coordinates": [ 133.874144399999977, 33.6966121 ] } },
{ "type": "Feature", "properties": { "内容": "デイセンター海援隊【地域密着型通所介護】高知県安芸郡東洋町大字河内字王子田353番地1", "url": "https://www.kaigokensaku.mhlw.go.jp/39/index.php?action_kouhyou_detail_004_kani=true&JigyosyoCd=3972000305-00&ServiceCd=780&Type=search", "url2": "https://www.kenshokai.group/institution/gh/shintaro/index.php" }, "geometry": { "type": "Point", "coordinates": [ 134.293383400000039, 33.547279500000016 ] } },
{ "type": "Feature", "properties": { "内容": "馬路村デイサービスセンター【地域密着型通所介護】高知県安芸郡馬路村大字馬路407番地1", "url": "https://www.kaigokensaku.mhlw.go.jp/39/index.php?action_kouhyou_detail_004_kani=true&JigyosyoCd=3972000149-00&ServiceCd=780&Type=search", "url2": null }, "geometry": { "type": "Point", "coordinates": [ 134.048347199999967, 33.5530806 ] } },
{ "type": "Feature", "properties": { "内容": "デイサービス長老大学【地域密着型通所介護】高知県長岡郡本山町吉野347番１", "url": "https://www.kaigokensaku.mhlw.go.jp/39/index.php?action_kouhyou_detail_004_kani=true&JigyosyoCd=3972200137-00&ServiceCd=780&Type=search", "url2": "https://chouroudaigaku.jp/" }, "geometry": { "type": "Point", "coordinates": [ 133.562029525545654, 33.75292447117085 ] } },
{ "type": "Feature", "properties": { "内容": "通所　よさく【地域密着型通所介護】高知県長岡郡大豊町大滝498-44介護のよさく", "url": "https://www.kaigokensaku.mhlw.go.jp/39/index.php?action_kouhyou_detail_004_kani=true&JigyosyoCd=3992200026-00&ServiceCd=780&Type=search", "url2": null }, "geometry": { "type": "Point", "coordinates": [ 133.780402788195033, 33.791924665482455 ] } },
{ "type": "Feature", "properties": { "内容": "社会福祉法人　大豊町社会福祉協議会デイサービスセンターくろいし【地域密着型通所介護】高知県長岡郡大豊町黒石３４５－７", "url": "https://www.kaigokensaku.mhlw.go.jp/39/index.php?action_kouhyou_detail_004_kani=true&JigyosyoCd=3972200061-00&ServiceCd=780&Type=search", "url2": null }, "geometry": { "type": "Point", "coordinates": [ 133.72638, 33.7860585 ] } },
{ "type": "Feature", "properties": { "内容": "デイサービスセンター　ときわ【地域密着型通所介護】高知県土佐郡土佐町田井1377-29", "url": "https://www.kaigokensaku.mhlw.go.jp/39/index.php?action_kouhyou_detail_004_kani=true&JigyosyoCd=3972300168-00&ServiceCd=780&Type=search", "url2": "www.tokiwaen-k.or.jp" }, "geometry": { "type": "Point", "coordinates": [ 133.557053861698904, 33.746359768965753 ] } },
{ "type": "Feature", "properties": { "内容": "吾北デイサービスセンター「すこやか」【地域密着型通所介護】高知県吾川郡いの町小川東津賀才５３番地１", "url": "https://www.kaigokensaku.mhlw.go.jp/39/index.php?action_kouhyou_detail_004_kani=true&JigyosyoCd=3992400170-00&ServiceCd=780&Type=search", "url2": null }, "geometry": { "type": "Point", "coordinates": [ 133.300251300000014, 33.6268215 ] } },
{ "type": "Feature", "properties": { "内容": "仁淀川町デイサービスセンターひなた荘【地域密着型通所介護】高知県吾川郡仁淀川町森4287番地", "url": "https://www.kaigokensaku.mhlw.go.jp/39/index.php?action_kouhyou_detail_004_kani=true&JigyosyoCd=3972400604-00&ServiceCd=780&Type=search", "url2": null }, "geometry": { "type": "Point", "coordinates": [ 133.113742, 33.5473867 ] } },
{ "type": "Feature", "properties": { "内容": "リハビリデイサービス元気屋本舗【地域密着型通所介護】高知県高岡郡中土佐町久礼6214-1", "url": "https://www.kaigokensaku.mhlw.go.jp/39/index.php?action_kouhyou_detail_004_kani=true&JigyosyoCd=3972501260-00&ServiceCd=780&Type=search", "url2": null }, "geometry": { "type": "Point", "coordinates": [ 133.230060200000025, 33.3300194 ] } },
{ "type": "Feature", "properties": { "内容": "デイサービスセンターのじぎく【地域密着型通所介護】高知県高岡郡中土佐町上ノ加江5163番地4", "url": "https://www.kaigokensaku.mhlw.go.jp/39/index.php?action_kouhyou_detail_004_kani=true&JigyosyoCd=3992500276-00&ServiceCd=780&Type=search", "url2": "https://nakatosa-shakyo.or.jp/" }, "geometry": { "type": "Point", "coordinates": [ 133.240853, 33.3041359 ] } },
{ "type": "Feature", "properties": { "内容": "デイサービス　きららの里【地域密着型通所介護】高知県高岡郡佐川町乙1774-1きららビル４F", "url": "https://www.kaigokensaku.mhlw.go.jp/39/index.php?action_kouhyou_detail_004_kani=true&JigyosyoCd=3972501013-00&ServiceCd=780&Type=search", "url2": "http://www.kirara-harmony.com/staff.html" }, "geometry": { "type": "Point", "coordinates": [ 133.2806597, 33.5062081 ] } },
{ "type": "Feature", "properties": { "内容": "デイサービス　どんこ【地域密着型通所介護】高知県高岡郡佐川町丙4279-1", "url": "https://www.kaigokensaku.mhlw.go.jp/39/index.php?action_kouhyou_detail_004_kani=true&JigyosyoCd=3972501336-00&ServiceCd=780&Type=search", "url2": null }, "geometry": { "type": "Point", "coordinates": [ 133.286213675793903, 33.517077270742902 ] } },
{ "type": "Feature", "properties": { "内容": "みのりのデイ【地域密着型通所介護】高知県高岡郡佐川町乙　２０５０－１０　１F", "url": "https://www.kaigokensaku.mhlw.go.jp/39/index.php?action_kouhyou_detail_004_kani=true&JigyosyoCd=3972501294-00&ServiceCd=780&Type=search", "url2": null }, "geometry": { "type": "Point", "coordinates": [ 133.286404800000014, 33.512937 ] } },
{ "type": "Feature", "properties": { "内容": "山崎病院デイサービスセンター【地域密着型通所介護】高岡郡越知町越知甲２０４１－３", "url": "https://www.kaigokensaku.mhlw.go.jp/39/index.php?action_kouhyou_detail_004_kani=true&JigyosyoCd=3912511502-00&ServiceCd=780&Type=search", "url2": "http://www.yamasaki.or.jp/sub/dayService/dayService.html" }, "geometry": { "type": "Point", "coordinates": [ 133.250954800000045, 33.5327697 ] } },
{ "type": "Feature", "properties": { "内容": "デイサービスおちあゆ【地域密着型通所介護】高知県高岡郡越知町越知甲902番地1", "url": "https://www.kaigokensaku.mhlw.go.jp/39/index.php?action_kouhyou_detail_004_kani=true&JigyosyoCd=3972501195-00&ServiceCd=780&Type=search", "url2": "http://ochiayu.jimdo.com/" }, "geometry": { "type": "Point", "coordinates": [ 133.257499477909846, 33.533568309664261 ] } },
{ "type": "Feature", "properties": { "内容": "指定地域密着型通所介護事業所デイサービスセンター津野ゆの里【地域密着型通所介護】高知県高岡郡津野町姫野々417-1", "url": "https://www.kaigokensaku.mhlw.go.jp/39/index.php?action_kouhyou_detail_004_kani=true&JigyosyoCd=3992500250-00&ServiceCd=780&Type=search", "url2": "https://care-net.biz/39/hayamasou/" }, "geometry": { "type": "Point", "coordinates": [ 133.2143862, 33.4394002 ] } },
{ "type": "Feature", "properties": { "内容": "津野町地域密着型通所介護事業所　高原【地域密着型通所介護】高知県高岡郡津野町力石5082番地", "url": "https://www.kaigokensaku.mhlw.go.jp/39/index.php?action_kouhyou_detail_004_kani=true&JigyosyoCd=3992500243-00&ServiceCd=780&Type=search", "url2": null }, "geometry": { "type": "Point", "coordinates": [ 133.0305061, 33.3945778 ] } },
{ "type": "Feature", "properties": { "内容": "リハ・トレスタジオリブート【地域密着型通所介護】高知県高岡郡四万十町琴平町3番8号", "url": "https://www.kaigokensaku.mhlw.go.jp/39/index.php?action_kouhyou_detail_004_kani=true&JigyosyoCd=3972501112-00&ServiceCd=780&Type=search", "url2": "http://user.j-connect.net/actone/" }, "geometry": { "type": "Point", "coordinates": [ 133.136138846032765, 33.210993225286579 ] } },
{ "type": "Feature", "properties": { "内容": "デイサービスセンターすみれ【地域密着型通所介護】高知県高岡郡四万十町黒石734番地", "url": "https://www.kaigokensaku.mhlw.go.jp/39/index.php?action_kouhyou_detail_004_kani=true&JigyosyoCd=3992500284-00&ServiceCd=780&Type=search", "url2": null }, "geometry": { "type": "Point", "coordinates": [ 133.191661399999987, 33.2242249 ] } },
{ "type": "Feature", "properties": { "内容": "デイサービス大井川【地域密着型通所介護】高知県高岡郡四万十町大井川1462番地1デイサービス大井川", "url": "https://www.kaigokensaku.mhlw.go.jp/39/index.php?action_kouhyou_detail_004_kani=true&JigyosyoCd=3972501328-00&ServiceCd=780&Type=search", "url2": "http://www.koubanfukushikai.or.jp/" }, "geometry": { "type": "Point", "coordinates": [ 132.890944200000035, 33.2196661 ] } },
{ "type": "Feature", "properties": { "内容": "デイサービスセンター　さくら貝【地域密着型通所介護】高知県高岡郡四万十町興津2520-1", "url": "https://www.kaigokensaku.mhlw.go.jp/39/index.php?action_kouhyou_detail_004_kani=true&JigyosyoCd=3972500379-00&ServiceCd=780&Type=search", "url2": "http://www11.ocn.ne.jp/~oikonia/sakurasyoukai.html" }, "geometry": { "type": "Point", "coordinates": [ 133.201601500000038, 33.1768867 ] } },
{ "type": "Feature", "properties": { "内容": "デイサービス結いの里【地域密着型通所介護】高知県高岡郡四万十町影野80番地イ", "url": "https://www.kaigokensaku.mhlw.go.jp/39/index.php?action_kouhyou_detail_004_kani=true&JigyosyoCd=3992500185-00&ServiceCd=780&Type=search", "url2": null }, "geometry": { "type": "Point", "coordinates": [ 133.176982580426056, 33.288213911111363 ] } },
{ "type": "Feature", "properties": { "内容": "デイサービスセンターこいのぼり【地域密着型通所介護】高岡郡四万十町昭和４７０番地６", "url": "https://www.kaigokensaku.mhlw.go.jp/39/index.php?action_kouhyou_detail_004_kani=true&JigyosyoCd=3972500734-00&ServiceCd=780&Type=search", "url2": "http://shimanto-shakyo.jp/" }, "geometry": { "type": "Point", "coordinates": [ 132.896140899999978, 33.2205189 ] } },
{ "type": "Feature", "properties": { "内容": "デイサービスセンター浮鞭【地域密着型通所介護】高知県幡多郡黒潮町浮鞭３９５４－１", "url": "https://www.kaigokensaku.mhlw.go.jp/39/index.php?action_kouhyou_detail_004_kani=true&JigyosyoCd=3972600336-00&ServiceCd=780&Type=search", "url2": null }, "geometry": { "type": "Point", "coordinates": [ 133.0289483, 33.0351311 ] } }
]
}
