{
"type": "FeatureCollection",
"name": "geo_39_特定施設入居者生活介護（有料老人ホーム）",
"crs": { "type": "name", "properties": { "name": "urn:ogc:def:crs:OGC:1.3:CRS84" } },
"features": [
{ "type": "Feature", "properties": { "内容": "よんでんライフケア高知【特定施設入居者生活介護（有料老人ホーム）】高知県高知市愛宕町３丁目１１番３８号", "url": "https://www.kaigokensaku.mhlw.go.jp/39/index.php?action_kouhyou_detail_004_kani=true&JigyosyoCd=3970104893-00&ServiceCd=331&Type=search", "url2": "http://www.yondenlc.co.jp/" }, "geometry": { "type": "Point", "coordinates": [ 133.538536, 33.571155 ] } },
{ "type": "Feature", "properties": { "内容": "バンガード元町【特定施設入居者生活介護（有料老人ホーム）】高知市南元町３－４", "url": "https://www.kaigokensaku.mhlw.go.jp/39/index.php?action_kouhyou_detail_004_kani=true&JigyosyoCd=3970102384-00&ServiceCd=331&Type=search", "url2": null }, "geometry": { "type": "Point", "coordinates": [ 133.508248099999946, 33.5568503 ] } },
{ "type": "Feature", "properties": { "内容": "有料老人ホーム　馴染み横丁【特定施設入居者生活介護（有料老人ホーム）】高知市一宮西町3丁目３１－２５", "url": "https://www.kaigokensaku.mhlw.go.jp/39/index.php?action_kouhyou_detail_004_kani=true&JigyosyoCd=3970102178-00&ServiceCd=331&Type=search", "url2": "https://hata-dialife.jp/najimiyokocho" }, "geometry": { "type": "Point", "coordinates": [ 133.573463400000037, 33.5881757 ] } },
{ "type": "Feature", "properties": { "内容": "有料老人ホーム　とも【特定施設入居者生活介護（有料老人ホーム）】高知県高知市北久保2番39号", "url": "https://www.kaigokensaku.mhlw.go.jp/39/index.php?action_kouhyou_detail_004_kani=true&JigyosyoCd=3970102491-00&ServiceCd=331&Type=search", "url2": "http://www.care-tomo.com" }, "geometry": { "type": "Point", "coordinates": [ 133.564692982278416, 33.569842209826398 ] } },
{ "type": "Feature", "properties": { "内容": "介護付有料老人ホーム　はるか【特定施設入居者生活介護（有料老人ホーム）】高知県高知市大津乙2705-1", "url": "https://www.kaigokensaku.mhlw.go.jp/39/index.php?action_kouhyou_detail_004_kani=true&JigyosyoCd=3970104463-00&ServiceCd=331&Type=search", "url2": "http://www.takasuhp.or.jp/haruka/index.html" }, "geometry": { "type": "Point", "coordinates": [ 133.579640700000027, 33.5665651 ] } },
{ "type": "Feature", "properties": { "内容": "有料老人ホーム千金の一日【特定施設入居者生活介護（有料老人ホーム）】高知県高知市一宮5丁目1-15", "url": "https://www.kaigokensaku.mhlw.go.jp/39/index.php?action_kouhyou_detail_004_kani=true&JigyosyoCd=3970104877-00&ServiceCd=331&Type=search", "url2": "http://hata-dialife.jp" }, "geometry": { "type": "Point", "coordinates": [ 133.577779700000065, 33.5889368 ] } },
{ "type": "Feature", "properties": { "内容": "介護付有料老人ホーム　きずな【特定施設入居者生活介護（有料老人ホーム）】高知県高知市南御座１０番１３号", "url": "https://www.kaigokensaku.mhlw.go.jp/39/index.php?action_kouhyou_detail_004_kani=true&JigyosyoCd=3970101717-00&ServiceCd=331&Type=search", "url2": "http://www.kizuna.or.jp" }, "geometry": { "type": "Point", "coordinates": [ 133.561428500000034, 33.5657286 ] } },
{ "type": "Feature", "properties": { "内容": "IMC介護付き有料老人ホーム若草南【特定施設入居者生活介護（有料老人ホーム）】高知県高知市若草南町6番36号", "url": "https://www.kaigokensaku.mhlw.go.jp/39/index.php?action_kouhyou_detail_004_kani=true&JigyosyoCd=3970107896-00&ServiceCd=331&Type=search", "url2": "wakakusaminami@imc-ls.com" }, "geometry": { "type": "Point", "coordinates": [ 133.4896042, 33.5419475 ] } },
{ "type": "Feature", "properties": { "内容": "有料老人ホームあっとホーム【特定施設入居者生活介護（有料老人ホーム）】高知県高知市神田1068-1有料老人ホーム　あっとホーム", "url": "https://www.kaigokensaku.mhlw.go.jp/39/index.php?action_kouhyou_detail_004_kani=true&JigyosyoCd=3970108183-00&ServiceCd=331&Type=search", "url2": "http://f-shizenmura.or.jp" }, "geometry": { "type": "Point", "coordinates": [ 133.5134376, 33.5432481 ] } },
{ "type": "Feature", "properties": { "内容": "介護型有料老人ホーム神田【特定施設入居者生活介護（有料老人ホーム）】高知県高知市神田2323-1介護型有料老人ホーム神田", "url": "https://www.kaigokensaku.mhlw.go.jp/39/index.php?action_kouhyou_detail_004_kani=true&JigyosyoCd=3970107557-00&ServiceCd=331&Type=search", "url2": "http://www.chisio-group.or.jp" }, "geometry": { "type": "Point", "coordinates": [ 133.518879, 33.5477163 ] } },
{ "type": "Feature", "properties": { "内容": "有料老人ホーム　あったかホーム桂浜【特定施設入居者生活介護（有料老人ホーム）】高知県高知市長浜4444-1", "url": "https://www.kaigokensaku.mhlw.go.jp/39/index.php?action_kouhyou_detail_004_kani=true&JigyosyoCd=3970104281-00&ServiceCd=331&Type=search", "url2": "http://www.fuku-cij.jp/attaka/index.html" }, "geometry": { "type": "Point", "coordinates": [ 133.5462579, 33.4887755 ] } },
{ "type": "Feature", "properties": { "内容": "介護付有料老人ホーム　ケアビレッジたかおか【特定施設入居者生活介護（有料老人ホーム）】高知県土佐市高岡町乙2641", "url": "https://www.kaigokensaku.mhlw.go.jp/39/index.php?action_kouhyou_detail_004_kani=true&JigyosyoCd=3970500694-00&ServiceCd=331&Type=search", "url2": "http://www.mizuho-medicare.com/cv_takaoka/cv_takaoka_0.html" }, "geometry": { "type": "Point", "coordinates": [ 133.423606215452537, 33.501322529001094 ] } },
{ "type": "Feature", "properties": { "内容": "介護付有料老人ホーム　ケアビレッジとさ【特定施設入居者生活介護（有料老人ホーム）】高知県土佐市蓮池1231番2ケアビレッジとさ", "url": "https://www.kaigokensaku.mhlw.go.jp/39/index.php?action_kouhyou_detail_004_kani=true&JigyosyoCd=3970500579-00&ServiceCd=331&Type=search", "url2": null }, "geometry": { "type": "Point", "coordinates": [ 133.413186183467104, 33.492302919227953 ] } },
{ "type": "Feature", "properties": { "内容": "有料老人ホーム　愛夢　しまんと【特定施設入居者生活介護（有料老人ホーム）】高知県四万十市具同田黒3丁目8番10号", "url": "https://www.kaigokensaku.mhlw.go.jp/39/index.php?action_kouhyou_detail_004_kani=true&JigyosyoCd=3971000363-00&ServiceCd=331&Type=search", "url2": null }, "geometry": { "type": "Point", "coordinates": [ 132.920467499999972, 32.9833789 ] } },
{ "type": "Feature", "properties": { "内容": "介護付有料老人ホームウエルリブじんざん【特定施設入居者生活介護（有料老人ホーム）】高知県香美市土佐山田町550番2", "url": "https://www.kaigokensaku.mhlw.go.jp/39/index.php?action_kouhyou_detail_004_kani=true&JigyosyoCd=3971200336-00&ServiceCd=331&Type=search", "url2": "http://www.welplaza.or.jp" }, "geometry": { "type": "Point", "coordinates": [ 133.6756427, 33.6089338 ] } },
{ "type": "Feature", "properties": { "内容": "アローなごみ中芸【特定施設入居者生活介護（有料老人ホーム）】高知県安芸郡田野町１４５６－４５", "url": "https://www.kaigokensaku.mhlw.go.jp/39/index.php?action_kouhyou_detail_004_kani=true&JigyosyoCd=3972000354-00&ServiceCd=331&Type=search", "url2": null }, "geometry": { "type": "Point", "coordinates": [ 134.006865764804047, 33.428988625235625 ] } },
{ "type": "Feature", "properties": { "内容": "有料老人ホームさかわ【特定施設入居者生活介護（有料老人ホーム）】高岡郡佐川町甲1065-33", "url": "https://www.kaigokensaku.mhlw.go.jp/39/index.php?action_kouhyou_detail_004_kani=true&JigyosyoCd=3972501468-00&ServiceCd=331&Type=search", "url2": "http://f-shizenmura.or.jp/" }, "geometry": { "type": "Point", "coordinates": [ 133.293153100000012, 33.5000601 ] } }
]
}
