{
"type": "FeatureCollection",
"name": "geo_39_短期入所生活介護",
"crs": { "type": "name", "properties": { "name": "urn:ogc:def:crs:OGC:1.3:CRS84" } },
"features": [
{ "type": "Feature", "properties": { "内容": "ショートステイはるか【短期入所生活介護】高知県高知市大津乙2705-1", "url": "https://www.kaigokensaku.mhlw.go.jp/39/index.php?action_kouhyou_detail_004_kani=true&JigyosyoCd=3970104463-00&ServiceCd=210&Type=search", "url2": "http://www.takasuhp.or.jp/haruka/" }, "geometry": { "type": "Point", "coordinates": [ 133.579665699999964, 33.5665346 ] } },
{ "type": "Feature", "properties": { "内容": "特別養護老人ホームはるの若菜荘【短期入所生活介護】高知県高知市春野町東諸木3058番地1", "url": "https://www.kaigokensaku.mhlw.go.jp/39/index.php?action_kouhyou_detail_004_kani=true&JigyosyoCd=3970103101-00&ServiceCd=210&Type=search", "url2": "https://takaharufukushikai.com/" }, "geometry": { "type": "Point", "coordinates": [ 133.515550385844449, 33.487763075642128 ] } },
{ "type": "Feature", "properties": { "内容": "短期入所生活介護事業所グランボヌール【短期入所生活介護】高知県高知市布師田字宮ノ辺１３６２", "url": "https://www.kaigokensaku.mhlw.go.jp/39/index.php?action_kouhyou_detail_004_kani=true&JigyosyoCd=3970100131-00&ServiceCd=210&Type=search", "url2": "http//nankai-f.jp/" }, "geometry": { "type": "Point", "coordinates": [ 133.592653299999938, 33.5839213 ] } },
{ "type": "Feature", "properties": { "内容": "高知ケアセンターそよ風【短期入所生活介護】福井町805番地4", "url": "https://www.kaigokensaku.mhlw.go.jp/39/index.php?action_kouhyou_detail_004_kani=true&JigyosyoCd=3970107466-00&ServiceCd=210&Type=search", "url2": "https://www.sykz.co.jp/map/search?pref_name=%E9%AB%98%E7%9F%A5%E7%9C%8C" }, "geometry": { "type": "Point", "coordinates": [ 133.511204745369014, 33.566009029377355 ] } },
{ "type": "Feature", "properties": { "内容": "介護老人福祉施設早蕨【短期入所生活介護】高知県高知市五台山3780-1", "url": "https://www.kaigokensaku.mhlw.go.jp/39/index.php?action_kouhyou_detail_004_kani=true&JigyosyoCd=3970100057-00&ServiceCd=210&Type=search", "url2": "http://www.sawarabikai.net/index.html" }, "geometry": { "type": "Point", "coordinates": [ 133.588254399999983, 33.548514799999985 ] } },
{ "type": "Feature", "properties": { "内容": "短期入所生活介護　うららか春陽荘【短期入所生活介護】高知市春野町西分４６６０番地", "url": "https://www.kaigokensaku.mhlw.go.jp/39/index.php?action_kouhyou_detail_004_kani=true&JigyosyoCd=3970103176-00&ServiceCd=210&Type=search", "url2": "http://www.nagaisakanokai.com/urarakashunyoso/" }, "geometry": { "type": "Point", "coordinates": [ 133.500452, 33.5004506 ] } },
{ "type": "Feature", "properties": { "内容": "特別養護老人ホーム　ふるさとの丘【短期入所生活介護】高知県高知市朝倉己1149番地106", "url": "https://www.kaigokensaku.mhlw.go.jp/39/index.php?action_kouhyou_detail_004_kani=true&JigyosyoCd=3970105072-00&ServiceCd=210&Type=search", "url2": "http://f-shizenmura.or.jp" }, "geometry": { "type": "Point", "coordinates": [ 133.4783655, 33.531474500000016 ] } },
{ "type": "Feature", "properties": { "内容": "特別養護老人ホーム　スウィート・ハート・ホーム【短期入所生活介護】高知市朝倉甲64番地1", "url": "https://www.kaigokensaku.mhlw.go.jp/39/index.php?action_kouhyou_detail_004_kani=true&JigyosyoCd=3970100107-00&ServiceCd=210&Type=search", "url2": "http://www.thc.or.jp/" }, "geometry": { "type": "Point", "coordinates": [ 133.502482399999963, 33.5430629 ] } },
{ "type": "Feature", "properties": { "内容": "ウエルショートしなね　短期入所生活介護事業所【短期入所生活介護】高知県高知市一宮しなね2丁目15番19号", "url": "https://www.kaigokensaku.mhlw.go.jp/39/index.php?action_kouhyou_detail_004_kani=true&JigyosyoCd=3970104448-00&ServiceCd=210&Type=search", "url2": "welplazakochi@oregano.ocn.ne.jp" }, "geometry": { "type": "Point", "coordinates": [ 133.577532499999961, 33.5938527 ] } },
{ "type": "Feature", "properties": { "内容": "短期入所生活介護事業所桂浜【短期入所生活介護】高知市長浜6598-4", "url": "https://www.kaigokensaku.mhlw.go.jp/39/index.php?action_kouhyou_detail_004_kani=true&JigyosyoCd=3970102673-00&ServiceCd=210&Type=search", "url2": "http://www.fuku-cij.jp/seasidehome_katsurahama/" }, "geometry": { "type": "Point", "coordinates": [ 133.547521599999982, 33.490792 ] } },
{ "type": "Feature", "properties": { "内容": "特別養護老人ホームあざみの里【短期入所生活介護】高知市薊野北町2丁目25番8号", "url": "https://www.kaigokensaku.mhlw.go.jp/39/index.php?action_kouhyou_detail_004_kani=true&JigyosyoCd=3970100933-00&ServiceCd=210&Type=search", "url2": "https://hata-dialife.jp" }, "geometry": { "type": "Point", "coordinates": [ 133.556463900000011, 33.5836162 ] } },
{ "type": "Feature", "properties": { "内容": "特別養護老人ホーム　やすらぎの家【短期入所生活介護】高知県高知市針木北一丁目１４番３０号", "url": "https://www.kaigokensaku.mhlw.go.jp/39/index.php?action_kouhyou_detail_004_kani=true&JigyosyoCd=3970100032-00&ServiceCd=210&Type=search", "url2": "www.nagaisakanokai.com" }, "geometry": { "type": "Point", "coordinates": [ 133.474485400000049, 33.5400096 ] } },
{ "type": "Feature", "properties": { "内容": "ユニット型特別養護老人ホーム　もとちか【短期入所生活介護】高知県高知市長浜4975番地", "url": "https://www.kaigokensaku.mhlw.go.jp/39/index.php?action_kouhyou_detail_004_kani=true&JigyosyoCd=3970106831-00&ServiceCd=210&Type=search", "url2": "https://www.kounankai.jp/" }, "geometry": { "type": "Point", "coordinates": [ 133.5512694, 33.500038300000021 ] } },
{ "type": "Feature", "properties": { "内容": "短期入所生活介護　湯の里【短期入所生活介護】高知市円行寺５２番地１０", "url": "https://www.kaigokensaku.mhlw.go.jp/39/index.php?action_kouhyou_detail_004_kani=true&JigyosyoCd=3970100149-00&ServiceCd=210&Type=search", "url2": "http://www.sanjyukai.com/" }, "geometry": { "type": "Point", "coordinates": [ 133.5137, 33.5838861 ] } },
{ "type": "Feature", "properties": { "内容": "特別養護老人ホーム絆の広場【短期入所生活介護】高知県高知市一宮南町1丁目4番75号", "url": "https://www.kaigokensaku.mhlw.go.jp/39/index.php?action_kouhyou_detail_004_kani=true&JigyosyoCd=3970105312-00&ServiceCd=210&Type=search", "url2": "https://hata‐dialife.jp/kizunanohiroba" }, "geometry": { "type": "Point", "coordinates": [ 133.5650253, 33.5779325 ] } },
{ "type": "Feature", "properties": { "内容": "特別養護老人ホーム風花の里【短期入所生活介護】高知県高知市西塚ノ原76番1", "url": "https://www.kaigokensaku.mhlw.go.jp/39/index.php?action_kouhyou_detail_004_kani=true&JigyosyoCd=3970103457-00&ServiceCd=210&Type=search", "url2": "http://furusatokai.or.jp" }, "geometry": { "type": "Point", "coordinates": [ 133.4917558, 33.5664003 ] } },
{ "type": "Feature", "properties": { "内容": "特別養護老人ホーム　ショートステイ森の里【短期入所生活介護】高知市横浜２０番１", "url": "https://www.kaigokensaku.mhlw.go.jp/39/index.php?action_kouhyou_detail_004_kani=true&JigyosyoCd=3970100123-00&ServiceCd=210&Type=search", "url2": "http://shortstay-morinosato.jimdo.com/" }, "geometry": { "type": "Point", "coordinates": [ 133.553691599999979, 33.5286189 ] } },
{ "type": "Feature", "properties": { "内容": "短期入所生活介護事業所　海の里【短期入所生活介護】高知市仁井田１６１８番地１８", "url": "https://www.kaigokensaku.mhlw.go.jp/39/index.php?action_kouhyou_detail_004_kani=true&JigyosyoCd=3970100115-00&ServiceCd=210&Type=search", "url2": "http://uminosato.or.jp/nursinghome/" }, "geometry": { "type": "Point", "coordinates": [ 133.5719937, 33.5131848 ] } },
{ "type": "Feature", "properties": { "内容": "特別養護老人ホームセーラスむろと【短期入所生活介護】高知県室戸市室津1582番地特別養護老人ホームセーラスむろと", "url": "https://www.kaigokensaku.mhlw.go.jp/39/index.php?action_kouhyou_detail_004_kani=true&JigyosyoCd=3970200345-00&ServiceCd=210&Type=search", "url2": "m-chojuen.or.jp" }, "geometry": { "type": "Point", "coordinates": [ 134.164632079042434, 33.295308662784805 ] } },
{ "type": "Feature", "properties": { "内容": "特別養護老人ホーム「つつじの丘」　短期入所生活介護【短期入所生活介護】高知県安芸市川北乙1735番地", "url": "https://www.kaigokensaku.mhlw.go.jp/39/index.php?action_kouhyou_detail_004_kani=true&JigyosyoCd=3970300087-00&ServiceCd=210&Type=search", "url2": "http://tsutsujinooka.jp/" }, "geometry": { "type": "Point", "coordinates": [ 133.913597799999934, 33.5276018 ] } },
{ "type": "Feature", "properties": { "内容": "特別養護老人ホーム八流荘【短期入所生活介護】高知県安芸市赤野甲561番地2", "url": "https://www.kaigokensaku.mhlw.go.jp/39/index.php?action_kouhyou_detail_004_kani=true&JigyosyoCd=3970300012-00&ServiceCd=210&Type=search", "url2": "https://www.tosakouseikai.or.jp/yanagaresou/" }, "geometry": { "type": "Point", "coordinates": [ 133.838184500000011, 33.5127391 ] } },
{ "type": "Feature", "properties": { "内容": "短期入所生活介護事業所　白銀荘【短期入所生活介護】高知県南国市大埇乙1072-1", "url": "https://www.kaigokensaku.mhlw.go.jp/39/index.php?action_kouhyou_detail_004_kani=true&JigyosyoCd=3970400051-00&ServiceCd=210&Type=search", "url2": "http://www.toujukai.jp/" }, "geometry": { "type": "Point", "coordinates": [ 133.650463151589946, 33.565912810684218 ] } },
{ "type": "Feature", "properties": { "内容": "短期入所生活介護事業所　陽だまりの里【短期入所生活介護】高知県南国市中島1535番地", "url": "https://www.kaigokensaku.mhlw.go.jp/39/index.php?action_kouhyou_detail_004_kani=true&JigyosyoCd=3970400150-00&ServiceCd=210&Type=search", "url2": "http://f-shizenmura.or.jp" }, "geometry": { "type": "Point", "coordinates": [ 133.615562100000034, 33.5904046 ] } },
{ "type": "Feature", "properties": { "内容": "特別養護老人ホームたちばなの里【短期入所生活介護】高知県南国市下野田45番地1", "url": "https://www.kaigokensaku.mhlw.go.jp/39/index.php?action_kouhyou_detail_004_kani=true&JigyosyoCd=3970400671-00&ServiceCd=210&Type=search", "url2": null }, "geometry": { "type": "Point", "coordinates": [ 133.650517400000012, 33.5756681 ] } },
{ "type": "Feature", "properties": { "内容": "特別養護老人ホーム土佐清風園【短期入所生活介護】高知県南国市岡豊町小篭３５９－１", "url": "https://www.kaigokensaku.mhlw.go.jp/39/index.php?action_kouhyou_detail_004_kani=true&JigyosyoCd=3970400044-00&ServiceCd=210&Type=search", "url2": "http://www.tosaseifukai.com/" }, "geometry": { "type": "Point", "coordinates": [ 133.6256525, 33.5782671 ] } },
{ "type": "Feature", "properties": { "内容": "短期入所生活介護　あんず【短期入所生活介護】高知県土佐市高岡町甲969番地１", "url": "https://www.kaigokensaku.mhlw.go.jp/39/index.php?action_kouhyou_detail_004_kani=true&JigyosyoCd=3970500660-00&ServiceCd=210&Type=search", "url2": "https://www.sakura-anzu.com/" }, "geometry": { "type": "Point", "coordinates": [ 133.429029200000059, 33.495109700000015 ] } },
{ "type": "Feature", "properties": { "内容": "土佐市老人短期入所施設ほほえみ【短期入所生活介護】土佐市高岡町甲1792番地2", "url": "https://www.kaigokensaku.mhlw.go.jp/39/index.php?action_kouhyou_detail_004_kani=true&JigyosyoCd=3970500603-00&ServiceCd=210&Type=search", "url2": "http://tsjig.com/index.html" }, "geometry": { "type": "Point", "coordinates": [ 133.42317550000007, 33.4919975 ] } },
{ "type": "Feature", "properties": { "内容": "豊寿園ショートステイサービス【短期入所生活介護】高知県宿毛市平田町戸内１８１３番地１", "url": "https://www.kaigokensaku.mhlw.go.jp/39/index.php?action_kouhyou_detail_004_kani=true&JigyosyoCd=3970900035-00&ServiceCd=210&Type=search", "url2": "http://www.gallery.ne.jp/~hojuen/" }, "geometry": { "type": "Point", "coordinates": [ 132.798387100000014, 32.9593056 ] } },
{ "type": "Feature", "properties": { "内容": "宿毛市立特別養護老人ホーム　千寿園【短期入所生活介護】高知県宿毛市小筑紫町福良80番地６", "url": "https://www.kaigokensaku.mhlw.go.jp/39/index.php?action_kouhyou_detail_004_kani=true&JigyosyoCd=3970900357-00&ServiceCd=210&Type=search", "url2": "http://sukumofukushikai.net/" }, "geometry": { "type": "Point", "coordinates": [ 132.7298389, 32.8751616 ] } },
{ "type": "Feature", "properties": { "内容": "特別養護老人ホームしおさい【短期入所生活介護】高知県土佐清水市以布利83番地5", "url": "https://www.kaigokensaku.mhlw.go.jp/39/index.php?action_kouhyou_detail_004_kani=true&JigyosyoCd=3970800029-00&ServiceCd=210&Type=search", "url2": "http://www.city.tosashimizu.kochi.jp" }, "geometry": { "type": "Point", "coordinates": [ 132.961407, 32.8036772 ] } },
{ "type": "Feature", "properties": { "内容": "ショートステイあんき家清水ヶ丘【短期入所生活介護】高知県土佐清水市清水ヶ丘30番2号特別養護老人ホームあんきな家清水ヶ丘", "url": "https://www.kaigokensaku.mhlw.go.jp/39/index.php?action_kouhyou_detail_004_kani=true&JigyosyoCd=3970800219-00&ServiceCd=210&Type=search", "url2": "http://www.fuku-seiwakai.com/" }, "geometry": { "type": "Point", "coordinates": [ 132.957002, 32.786888 ] } },
{ "type": "Feature", "properties": { "内容": "短期入所生活介護事業所　四万十の郷【短期入所生活介護】高知県四万十市安並字東丸5803", "url": "https://www.kaigokensaku.mhlw.go.jp/39/index.php?action_kouhyou_detail_004_kani=true&JigyosyoCd=3970700039-00&ServiceCd=210&Type=search", "url2": "http://nankai-f.jp/" }, "geometry": { "type": "Point", "coordinates": [ 132.940101, 33.002269 ] } },
{ "type": "Feature", "properties": { "内容": "短期入所生活介護事業所　光優【短期入所生活介護】高知県四万十市古津賀３７４２番地１７", "url": "https://www.kaigokensaku.mhlw.go.jp/39/index.php?action_kouhyou_detail_004_kani=true&JigyosyoCd=3971000223-00&ServiceCd=210&Type=search", "url2": "http://www.kuroshiofukushikai.com" }, "geometry": { "type": "Point", "coordinates": [ 132.967377400000032, 32.9873216 ] } },
{ "type": "Feature", "properties": { "内容": "介護老人福祉施設　四万十の郷【短期入所生活介護】高知県四万十市安並字東丸5803", "url": "https://www.kaigokensaku.mhlw.go.jp/39/index.php?action_kouhyou_detail_004_kani=true&JigyosyoCd=3971000322-00&ServiceCd=210&Type=search", "url2": "http://nankai-f.jp/shimanto/index.htm" }, "geometry": { "type": "Point", "coordinates": [ 132.9465635, 33.0159568 ] } },
{ "type": "Feature", "properties": { "内容": "特別養護老人ホーム夢の丘【短期入所生活介護】高知県四万十市右山2041番地18", "url": "https://www.kaigokensaku.mhlw.go.jp/39/index.php?action_kouhyou_detail_004_kani=true&JigyosyoCd=3971000371-00&ServiceCd=210&Type=search", "url2": "http://yusunoki.or.jp" }, "geometry": { "type": "Point", "coordinates": [ 132.946670899999958, 32.9792911 ] } },
{ "type": "Feature", "properties": { "内容": "特別養護老人ホーム　かわせみ【短期入所生活介護】四万十市西土佐用井１１１０番地１", "url": "https://www.kaigokensaku.mhlw.go.jp/39/index.php?action_kouhyou_detail_004_kani=true&JigyosyoCd=3972600047-00&ServiceCd=210&Type=search", "url2": "https://nisitosa-kawasemi.jp/" }, "geometry": { "type": "Point", "coordinates": [ 132.795000800000025, 33.172755 ] } },
{ "type": "Feature", "properties": { "内容": "特別養護老人ホーム　香南赤岡苑【短期入所生活介護】高知県香南市赤岡町１１６０－１", "url": "https://www.kaigokensaku.mhlw.go.jp/39/index.php?action_kouhyou_detail_004_kani=true&JigyosyoCd=3972100071-00&ServiceCd=210&Type=search", "url2": "https://www.kounankai.jp" }, "geometry": { "type": "Point", "coordinates": [ 133.730083299999933, 33.5463756 ] } },
{ "type": "Feature", "properties": { "内容": "特別養護老人ホーム　オーベルジュ【短期入所生活介護】高知県香南市野市町東野354-18", "url": "https://www.kaigokensaku.mhlw.go.jp/39/index.php?action_kouhyou_detail_004_kani=true&JigyosyoCd=3971100064-00&ServiceCd=210&Type=search", "url2": null }, "geometry": { "type": "Point", "coordinates": [ 133.717664600000035, 33.5616124 ] } },
{ "type": "Feature", "properties": { "内容": "三宝荘　短期入所生活介護【短期入所生活介護】香南市野市町母代寺188番地", "url": "https://www.kaigokensaku.mhlw.go.jp/39/index.php?action_kouhyou_detail_004_kani=true&JigyosyoCd=3972100105-00&ServiceCd=210&Type=search", "url2": "https://konan-kami.net" }, "geometry": { "type": "Point", "coordinates": [ 133.703011485319507, 33.581422556314806 ] } },
{ "type": "Feature", "properties": { "内容": "白寿荘短期入所生活介護事業所【短期入所生活介護】高知県香美市香北町永野2152番地", "url": "https://www.kaigokensaku.mhlw.go.jp/39/index.php?action_kouhyou_detail_004_kani=true&JigyosyoCd=3972100113-00&ServiceCd=210&Type=search", "url2": "https://konan-kami.net" }, "geometry": { "type": "Point", "coordinates": [ 133.817208, 33.6656907 ] } },
{ "type": "Feature", "properties": { "内容": "特別養護老人ホーム　ウエルプラザやまだ荘　短期入所生活介護事業所【短期入所生活介護】高知県香美市土佐山田町秦山町3丁目4番20号", "url": "https://www.kaigokensaku.mhlw.go.jp/39/index.php?action_kouhyou_detail_004_kani=true&JigyosyoCd=3971200286-00&ServiceCd=210&Type=search", "url2": "http://www.welplaza.or.jp" }, "geometry": { "type": "Point", "coordinates": [ 133.6765792, 33.6079903 ] } },
{ "type": "Feature", "properties": { "内容": "特別養護老人ホーム　愛光園【短期入所生活介護】高知県安芸郡奈半利町乙４７８番地１", "url": "https://www.kaigokensaku.mhlw.go.jp/39/index.php?action_kouhyou_detail_004_kani=true&JigyosyoCd=3972000032-00&ServiceCd=210&Type=search", "url2": "https://care-net.biz/39/aikouen/" }, "geometry": { "type": "Point", "coordinates": [ 134.02866240000003, 33.4209789 ] } },
{ "type": "Feature", "properties": { "内容": "特別養護老人ホーム　ウエルプラザ洋寿荘【短期入所生活介護】高知県安芸郡芸西村西分乙297番地", "url": "https://www.kaigokensaku.mhlw.go.jp/39/index.php?action_kouhyou_detail_004_kani=true&JigyosyoCd=3972000289-00&ServiceCd=210&Type=search", "url2": "http://www.welplaza.or.jp" }, "geometry": { "type": "Point", "coordinates": [ 133.772079399999939, 33.5157927 ] } },
{ "type": "Feature", "properties": { "内容": "特別養護老人ホーム　そよ風【短期入所生活介護】高知県長岡郡本山町本山978番地2", "url": "https://www.kaigokensaku.mhlw.go.jp/39/index.php?action_kouhyou_detail_004_kani=true&JigyosyoCd=3972200178-00&ServiceCd=210&Type=search", "url2": "https://www.kounankai.jp/" }, "geometry": { "type": "Point", "coordinates": [ 133.574854799379636, 33.754626055544165 ] } },
{ "type": "Feature", "properties": { "内容": "特別養護老人ホーム　トキワ苑【短期入所生活介護】高知県土佐郡土佐町田井１３７７－２９", "url": "https://www.kaigokensaku.mhlw.go.jp/39/index.php?action_kouhyou_detail_004_kani=true&JigyosyoCd=3972300028-00&ServiceCd=210&Type=search", "url2": "http://www.tokiwaen-k.or.jp/" }, "geometry": { "type": "Point", "coordinates": [ 133.5570368, 33.7463659 ] } },
{ "type": "Feature", "properties": { "内容": "特別養護老人ホーム　吾北荘【短期入所生活介護】高知県吾川郡いの町下八川丁１６７６番地", "url": "https://www.kaigokensaku.mhlw.go.jp/39/index.php?action_kouhyou_detail_004_kani=true&JigyosyoCd=3972400760-00&ServiceCd=210&Type=search", "url2": "http://www.gohokuseiwakai.or.jp/" }, "geometry": { "type": "Point", "coordinates": [ 133.30128609999997, 33.5978908 ] } },
{ "type": "Feature", "properties": { "内容": "いの町立特別養護老人ホーム偕楽荘【短期入所生活介護】高知県吾川郡いの町1400番地すこやかセンター伊野2階", "url": "https://www.kaigokensaku.mhlw.go.jp/39/index.php?action_kouhyou_detail_004_kani=true&JigyosyoCd=3972400364-00&ServiceCd=210&Type=search", "url2": "https://www.town.ino.kochi.jp/" }, "geometry": { "type": "Point", "coordinates": [ 133.429045, 33.5476906 ] } },
{ "type": "Feature", "properties": { "内容": "高吾北広域町村事務組合立　特別養護老人ホームあがわ荘【短期入所生活介護】高知県吾川郡仁淀川町本村89-1", "url": "https://www.kaigokensaku.mhlw.go.jp/39/index.php?action_kouhyou_detail_004_kani=true&JigyosyoCd=3972400067-00&ServiceCd=210&Type=search", "url2": "http://www.kogohoku.ochi.kochi.jp" }, "geometry": { "type": "Point", "coordinates": [ 133.160061300000052, 33.5866132 ] } },
{ "type": "Feature", "properties": { "内容": "特別養護老人ホーム　望海の郷【短期入所生活介護】高知県高岡郡中土佐町上ノ加江277番地10", "url": "https://www.kaigokensaku.mhlw.go.jp/39/index.php?action_kouhyou_detail_004_kani=true&JigyosyoCd=3972501153-00&ServiceCd=210&Type=search", "url2": "http://kadofukushikai.com/" }, "geometry": { "type": "Point", "coordinates": [ 133.246309600000018, 33.2742034 ] } },
{ "type": "Feature", "properties": { "内容": "特別養護老人ホーム大野見荘【短期入所生活介護】高知県高岡郡中土佐町大野見吉野１１８番地", "url": "https://www.kaigokensaku.mhlw.go.jp/39/index.php?action_kouhyou_detail_004_kani=true&JigyosyoCd=3972500056-00&ServiceCd=210&Type=search", "url2": null }, "geometry": { "type": "Point", "coordinates": [ 133.141358700000012, 33.3366048 ] } },
{ "type": "Feature", "properties": { "内容": "高吾北広域町村事務組合立　特別養護老人ホーム春日荘【短期入所生活介護】高知県高岡郡佐川町乙2340番地", "url": "https://www.kaigokensaku.mhlw.go.jp/39/index.php?action_kouhyou_detail_004_kani=true&JigyosyoCd=3972500064-00&ServiceCd=210&Type=search", "url2": null }, "geometry": { "type": "Point", "coordinates": [ 133.286677300000065, 33.5046463 ] } },
{ "type": "Feature", "properties": { "内容": "老人短期入所施設　わかきの桜【短期入所生活介護】高知県高岡郡佐川町乙３１２７番地１", "url": "https://www.kaigokensaku.mhlw.go.jp/39/index.php?action_kouhyou_detail_004_kani=true&JigyosyoCd=3972501310-00&ServiceCd=210&Type=search", "url2": "http://www.kitajima-hp.com/fukusikai/index_fukusikai.html" }, "geometry": { "type": "Point", "coordinates": [ 133.298256600000059, 33.512454 ] } },
{ "type": "Feature", "properties": { "内容": "高吾北広域町村事務組合立特別養護老人ホーム五葉荘【短期入所生活介護】高岡郡越知町越知甲９４６番地", "url": "https://www.kaigokensaku.mhlw.go.jp/39/index.php?action_kouhyou_detail_004_kani=true&JigyosyoCd=3972500072-00&ServiceCd=210&Type=search", "url2": null }, "geometry": { "type": "Point", "coordinates": [ 133.258517899999987, 33.5328504 ] } },
{ "type": "Feature", "properties": { "内容": "特別養護老人ホーム　梼原ふじの家【短期入所生活介護】高岡郡梼原町広野６３６番地４", "url": "https://www.kaigokensaku.mhlw.go.jp/39/index.php?action_kouhyou_detail_004_kani=true&JigyosyoCd=3972500049-00&ServiceCd=210&Type=search", "url2": "http://www.karusutokai.or.jp/newpage4.html" }, "geometry": { "type": "Point", "coordinates": [ 132.898132, 33.3991993 ] } },
{ "type": "Feature", "properties": { "内容": "短期入所生活介護　土佐くすのき【短期入所生活介護】高岡郡日高村本村５－５", "url": "https://www.kaigokensaku.mhlw.go.jp/39/index.php?action_kouhyou_detail_004_kani=true&JigyosyoCd=3972500254-00&ServiceCd=210&Type=search", "url2": "http://tosa7411.com/" }, "geometry": { "type": "Point", "coordinates": [ 133.335761100000013, 33.5590434 ] } },
{ "type": "Feature", "properties": { "内容": "特別養護老人ホーム　コスモスの里【短期入所生活介護】高知県高岡郡日高村沖名１番地", "url": "https://www.kaigokensaku.mhlw.go.jp/39/index.php?action_kouhyou_detail_004_kani=true&JigyosyoCd=3972500189-00&ServiceCd=210&Type=search", "url2": "syuoukai.@ninus.or.jp" }, "geometry": { "type": "Point", "coordinates": [ 133.373672299999953, 33.5316137 ] } },
{ "type": "Feature", "properties": { "内容": "指定短期入所生活介護事業所　高陵特別養護老人ホーム　葉山荘【短期入所生活介護】高知県高岡郡津野町姫野々４１７", "url": "https://www.kaigokensaku.mhlw.go.jp/39/index.php?action_kouhyou_detail_004_kani=true&JigyosyoCd=3972500098-00&ServiceCd=210&Type=search", "url2": "http://www.care-net.biz/39/hayamasou/" }, "geometry": { "type": "Point", "coordinates": [ 133.214047400000027, 33.4395141 ] } },
{ "type": "Feature", "properties": { "内容": "短期入所生活介護事業所（併設型）【短期入所生活介護】高岡郡津野町力石５０８２番地", "url": "https://www.kaigokensaku.mhlw.go.jp/39/index.php?action_kouhyou_detail_004_kani=true&JigyosyoCd=3972500080-00&ServiceCd=210&Type=search", "url2": null }, "geometry": { "type": "Point", "coordinates": [ 133.0301687, 33.3942784 ] } },
{ "type": "Feature", "properties": { "内容": "四万十町立特別養護老人ホーム窪川荘【短期入所生活介護】高知県高岡郡四万十町影野640-2四万十町立特別養護老人ホーム窪川荘", "url": "https://www.kaigokensaku.mhlw.go.jp/39/index.php?action_kouhyou_detail_004_kani=true&JigyosyoCd=3972501443-00&ServiceCd=210&Type=search", "url2": null }, "geometry": { "type": "Point", "coordinates": [ 133.1727165, 33.2760025 ] } },
{ "type": "Feature", "properties": { "内容": "四万十町立特別養護老人ホーム四万十荘【短期入所生活介護】高知県高岡郡四万十町大正576", "url": "https://www.kaigokensaku.mhlw.go.jp/39/index.php?action_kouhyou_detail_004_kani=true&JigyosyoCd=3972501450-00&ServiceCd=210&Type=search", "url2": null }, "geometry": { "type": "Point", "coordinates": [ 132.972492100000011, 33.1945679 ] } },
{ "type": "Feature", "properties": { "内容": "ショートステイ大井川【短期入所生活介護】高知県高岡郡四万十町大井川1462番地1ショートステイ大井川", "url": "https://www.kaigokensaku.mhlw.go.jp/39/index.php?action_kouhyou_detail_004_kani=true&JigyosyoCd=3972501328-00&ServiceCd=210&Type=search", "url2": "http://www.koubanfukushikai.or.jp/" }, "geometry": { "type": "Point", "coordinates": [ 132.890944200000035, 33.2196661 ] } },
{ "type": "Feature", "properties": { "内容": "大月町特別養護老人ホーム　大月荘【短期入所生活介護】幡多郡大月町鉾土604-7", "url": "https://www.kaigokensaku.mhlw.go.jp/39/index.php?action_kouhyou_detail_004_kani=true&JigyosyoCd=3972600088-00&ServiceCd=210&Type=search", "url2": null }, "geometry": { "type": "Point", "coordinates": [ 132.707701899999961, 32.8197786 ] } },
{ "type": "Feature", "properties": { "内容": "短期入所生活介護事業所　星ヶ丘【短期入所生活介護】高知県幡多郡三原村宮ノ川1271-10", "url": "https://www.kaigokensaku.mhlw.go.jp/39/index.php?action_kouhyou_detail_004_kani=true&JigyosyoCd=3972600203-00&ServiceCd=210&Type=search", "url2": "http://yusunoki.or.jp/" }, "geometry": { "type": "Point", "coordinates": [ 132.841569899999968, 32.9229387 ] } },
{ "type": "Feature", "properties": { "内容": "短期入所生活介護事業所かしま荘【短期入所生活介護】高知県幡多郡黒潮町佐賀3177", "url": "https://www.kaigokensaku.mhlw.go.jp/39/index.php?action_kouhyou_detail_004_kani=true&JigyosyoCd=3972600039-00&ServiceCd=210&Type=search", "url2": "https://kuroshiofukushikai.com/page-57/page-355/" }, "geometry": { "type": "Point", "coordinates": [ 133.10602629999994, 33.0623628 ] } },
{ "type": "Feature", "properties": { "内容": "短期入所生活介護事業所シーサイド【短期入所生活介護】高知県幡多郡黒潮町有井川１２番地１", "url": "https://www.kaigokensaku.mhlw.go.jp/39/index.php?action_kouhyou_detail_004_kani=true&JigyosyoCd=3972600021-00&ServiceCd=210&Type=search", "url2": "http://kuroshiofukushikai.com/gage-57/page-221/" }, "geometry": { "type": "Point", "coordinates": [ 133.060861599999953, 33.0375107 ] } }
]
}
