{
"type": "FeatureCollection",
"name": "geo_39_4",
"crs": { "type": "name", "properties": { "name": "urn:ogc:def:crs:OGC:1.3:CRS84" } },
"features": [
{ "type": "Feature", "properties": { "ID": 3941730000030, "正式名称": "ゆいま～る", "機関区分": 4, "都道府県コード": 39, "市区町村コード": 211, "所在地": "高知県香南市野市町西野１７３３", "緯度": 33.559206, "経度": 133.691073, "url": "https://www.iryou.teikyouseido.mhlw.go.jp/znk-web/juminkanja/S2430/initialize?prefCd=39&kikanCd=1730000030&kikanKbn=4", "url2": null, "内容": "ゆいま～る【4:助産院】高知県香南市野市町西野１７３３" }, "geometry": { "type": "Point", "coordinates": [ 133.691073, 33.559206 ] } },
{ "type": "Feature", "properties": { "ID": 3944390000001, "正式名称": "アニタ助産院", "機関区分": 4, "都道府県コード": 39, "市区町村コード": 201, "所在地": "高知県高知市長浜３番地", "緯度": 33.501528, "経度": 133.556662, "url": "https://www.iryou.teikyouseido.mhlw.go.jp/znk-web/juminkanja/S2430/initialize?prefCd=39&kikanCd=4390000001&kikanKbn=4", "url2": "http://wwwc.pikara.ne.jp/anita/", "内容": "アニタ助産院【4:助産院】高知県高知市長浜３番地" }, "geometry": { "type": "Point", "coordinates": [ 133.556662, 33.501528 ] } },
{ "type": "Feature", "properties": { "ID": 3944390000003, "正式名称": "貞弘助産所", "機関区分": 4, "都道府県コード": 39, "市区町村コード": 201, "所在地": "高知県高知市桟橋通１丁目１番１０号", "緯度": 33.552717, "経度": 133.545303, "url": "https://www.iryou.teikyouseido.mhlw.go.jp/znk-web/juminkanja/S2430/initialize?prefCd=39&kikanCd=4390000003&kikanKbn=4", "url2": null, "内容": "貞弘助産所【4:助産院】高知県高知市桟橋通１丁目１番１０号" }, "geometry": { "type": "Point", "coordinates": [ 133.545303, 33.552717 ] } },
{ "type": "Feature", "properties": { "ID": 3944390000010, "正式名称": "ｍａｍａサポート　よつば助産院", "機関区分": 4, "都道府県コード": 39, "市区町村コード": 201, "所在地": "高知県高知市朝倉甲", "緯度": 33.539791, "経度": 133.49333, "url": "https://www.iryou.teikyouseido.mhlw.go.jp/znk-web/juminkanja/S2430/initialize?prefCd=39&kikanCd=4390000010&kikanKbn=4", "url2": "http://yotsuba0404.web.fc2.com/", "内容": "ｍａｍａサポート　よつば助産院【4:助産院】高知県高知市朝倉甲" }, "geometry": { "type": "Point", "coordinates": [ 133.49333, 33.539791 ] } },
{ "type": "Feature", "properties": { "ID": 3944390000011, "正式名称": "ひだまり助産院", "機関区分": 4, "都道府県コード": 39, "市区町村コード": 210, "所在地": "高知県四万十市具同７０５８－２４", "緯度": 32.986791, "経度": 132.90039, "url": "https://www.iryou.teikyouseido.mhlw.go.jp/znk-web/juminkanja/S2430/initialize?prefCd=39&kikanCd=4390000011&kikanKbn=4", "url2": "http://blogs.yahoo.co.jp/hidamari_josanin", "内容": "ひだまり助産院【4:助産院】高知県四万十市具同７０５８－２４" }, "geometry": { "type": "Point", "coordinates": [ 132.90039, 32.986791 ] } },
{ "type": "Feature", "properties": { "ID": 3944390000012, "正式名称": "髙橋助産所", "機関区分": 4, "都道府県コード": 39, "市区町村コード": 204, "所在地": "高知県南国市岡豊町八幡９６", "緯度": 33.591383, "経度": 133.630002, "url": "https://www.iryou.teikyouseido.mhlw.go.jp/znk-web/juminkanja/S2430/initialize?prefCd=39&kikanCd=4390000012&kikanKbn=4", "url2": null, "内容": "髙橋助産所【4:助産院】高知県南国市岡豊町八幡９６" }, "geometry": { "type": "Point", "coordinates": [ 133.630002, 33.591383 ] } },
{ "type": "Feature", "properties": { "ID": 3944390000015, "正式名称": "むらた助産院", "機関区分": 4, "都道府県コード": 39, "市区町村コード": 402, "所在地": "高知県高岡郡佐川町中組９０８", "緯度": 33.470022, "経度": 133.285028, "url": "https://www.iryou.teikyouseido.mhlw.go.jp/znk-web/juminkanja/S2430/initialize?prefCd=39&kikanCd=4390000015&kikanKbn=4", "url2": null, "内容": "むらた助産院【4:助産院】高知県高岡郡佐川町中組９０８" }, "geometry": { "type": "Point", "coordinates": [ 133.285028, 33.470022 ] } },
{ "type": "Feature", "properties": { "ID": 3944390000017, "正式名称": "小梅助産院", "機関区分": 4, "都道府県コード": 39, "市区町村コード": 201, "所在地": "高知県高知市春野町南ケ丘５丁目２ー９", "緯度": 33.485406, "経度": 133.49577, "url": "https://www.iryou.teikyouseido.mhlw.go.jp/znk-web/juminkanja/S2430/initialize?prefCd=39&kikanCd=4390000017&kikanKbn=4", "url2": "https://sites.google.com/view/mwkoume", "内容": "小梅助産院【4:助産院】高知県高知市春野町南ケ丘５丁目２ー９" }, "geometry": { "type": "Point", "coordinates": [ 133.49577, 33.485406 ] } },
{ "type": "Feature", "properties": { "ID": 3944390000018, "正式名称": "助産院はぐはぐ", "機関区分": 4, "都道府県コード": 39, "市区町村コード": 205, "所在地": "高知県土佐市高岡町丙", "緯度": 33.497868, "経度": 133.42868, "url": "https://www.iryou.teikyouseido.mhlw.go.jp/znk-web/juminkanja/S2430/initialize?prefCd=39&kikanCd=4390000018&kikanKbn=4", "url2": "https://hughugmombaby.info/", "内容": "助産院はぐはぐ【4:助産院】高知県土佐市高岡町丙" }, "geometry": { "type": "Point", "coordinates": [ 133.42868, 33.497868 ] } },
{ "type": "Feature", "properties": { "ID": 3944390000026, "正式名称": "谷本助産所", "機関区分": 4, "都道府県コード": 39, "市区町村コード": 387, "所在地": "高知県吾川郡仁淀川町竹ノ谷４３２", "緯度": 33.607883, "経度": 133.149703, "url": "https://www.iryou.teikyouseido.mhlw.go.jp/znk-web/juminkanja/S2430/initialize?prefCd=39&kikanCd=4390000026&kikanKbn=4", "url2": null, "内容": "谷本助産所【4:助産院】高知県吾川郡仁淀川町竹ノ谷４３２" }, "geometry": { "type": "Point", "coordinates": [ 133.149703, 33.607883 ] } },
{ "type": "Feature", "properties": { "ID": 3944390000027, "正式名称": "マタニティサポートわかつき", "機関区分": 4, "都道府県コード": 39, "市区町村コード": 403, "所在地": "高知県高岡郡越知町越知甲１７２５番地１", "緯度": 33.532881, "経度": 133.252058, "url": "https://www.iryou.teikyouseido.mhlw.go.jp/znk-web/juminkanja/S2430/initialize?prefCd=39&kikanCd=4390000027&kikanKbn=4", "url2": null, "内容": "マタニティサポートわかつき【4:助産院】高知県高岡郡越知町越知甲１７２５番地１" }, "geometry": { "type": "Point", "coordinates": [ 133.252058, 33.532881 ] } },
{ "type": "Feature", "properties": { "ID": 3944390000028, "正式名称": "助産院ａｓａ", "機関区分": 4, "都道府県コード": 39, "市区町村コード": 204, "所在地": "高知県南国市比江２８２－１２", "緯度": 33.604236, "経度": 133.648472, "url": "https://www.iryou.teikyouseido.mhlw.go.jp/znk-web/juminkanja/S2430/initialize?prefCd=39&kikanCd=4390000028&kikanKbn=4", "url2": null, "内容": "助産院ａｓａ【4:助産院】高知県南国市比江２８２－１２" }, "geometry": { "type": "Point", "coordinates": [ 133.648472, 33.604236 ] } },
{ "type": "Feature", "properties": { "ID": 3944390000029, "正式名称": "真弓助産院", "機関区分": 4, "都道府県コード": 39, "市区町村コード": 386, "所在地": "高知県吾川郡いの町枝川８５８番地１７０", "緯度": 33.550153, "経度": 133.450295, "url": "https://www.iryou.teikyouseido.mhlw.go.jp/znk-web/juminkanja/S2430/initialize?prefCd=39&kikanCd=4390000029&kikanKbn=4", "url2": "https://mayumi-jyosanin.net/", "内容": "真弓助産院【4:助産院】高知県吾川郡いの町枝川８５８番地１７０" }, "geometry": { "type": "Point", "coordinates": [ 133.450295, 33.550153 ] } },
{ "type": "Feature", "properties": { "ID": 3944390000030, "正式名称": "いのちの応援舎おびなずき", "機関区分": 4, "都道府県コード": 39, "市区町村コード": 201, "所在地": "高知県高知市口細山５４－２９", "緯度": 33.570822, "経度": 133.49095, "url": "https://www.iryou.teikyouseido.mhlw.go.jp/znk-web/juminkanja/S2430/initialize?prefCd=39&kikanCd=4390000030&kikanKbn=4", "url2": null, "内容": "いのちの応援舎おびなずき【4:助産院】高知県高知市口細山５４－２９" }, "geometry": { "type": "Point", "coordinates": [ 133.49095, 33.570822 ] } },
{ "type": "Feature", "properties": { "ID": 3944390000050, "正式名称": "母子草助産院", "機関区分": 4, "都道府県コード": 39, "市区町村コード": 204, "所在地": "高知県南国市緑ケ丘３－４０５", "緯度": 33.533742, "経度": 133.606536, "url": "https://www.iryou.teikyouseido.mhlw.go.jp/znk-web/juminkanja/S2430/initialize?prefCd=39&kikanCd=4390000050&kikanKbn=4", "url2": null, "内容": "母子草助産院【4:助産院】高知県南国市緑ケ丘３－４０５" }, "geometry": { "type": "Point", "coordinates": [ 133.606536, 33.533742 ] } },
{ "type": "Feature", "properties": { "ID": 3944393114560, "正式名称": "このは助産院", "機関区分": 4, "都道府県コード": 39, "市区町村コード": 201, "所在地": "高知県高知市一宮東町５丁目６番１９ー３号", "緯度": 33.590099, "経度": 133.579223, "url": "https://www.iryou.teikyouseido.mhlw.go.jp/znk-web/juminkanja/S2430/initialize?prefCd=39&kikanCd=4393114560&kikanKbn=4", "url2": "https://konoha.on.omisenomikata.jp/", "内容": "このは助産院【4:助産院】高知県高知市一宮東町５丁目６番１９ー３号" }, "geometry": { "type": "Point", "coordinates": [ 133.579223, 33.590099 ] } }
]
}
