{
"type": "FeatureCollection",
"name": "geo_39_認知症対応型通所介護",
"crs": { "type": "name", "properties": { "name": "urn:ogc:def:crs:OGC:1.3:CRS84" } },
"features": [
{ "type": "Feature", "properties": { "内容": "デイサービス　ばなな【認知症対応型通所介護】高知市東久万88番地34", "url": "https://www.kaigokensaku.mhlw.go.jp/39/index.php?action_kouhyou_detail_004_kani=true&JigyosyoCd=3970101683-00&ServiceCd=720&Type=search", "url2": null }, "geometry": { "type": "Point", "coordinates": [ 133.529139699999973, 33.5754986 ] } },
{ "type": "Feature", "properties": { "内容": "デイサービスセンター森の里【認知症対応型通所介護】高知県高知市横浜20番1", "url": "https://www.kaigokensaku.mhlw.go.jp/39/index.php?action_kouhyou_detail_004_kani=true&JigyosyoCd=3970100123-00&ServiceCd=720&Type=search", "url2": "http://furusatokai.or.jp" }, "geometry": { "type": "Point", "coordinates": [ 133.553691228836129, 33.528286204933025 ] } },
{ "type": "Feature", "properties": { "内容": "認知症対応型通所介護　のぞみ【認知症対応型通所介護】高知県高知市西塚ノ原131-1", "url": "https://www.kaigokensaku.mhlw.go.jp/39/index.php?action_kouhyou_detail_004_kani=true&JigyosyoCd=3990100111-00&ServiceCd=720&Type=search", "url2": null }, "geometry": { "type": "Point", "coordinates": [ 133.489059099999906, 33.564201600000032 ] } },
{ "type": "Feature", "properties": { "内容": "デイサービス　ひまわり【認知症対応型通所介護】高知県高知市塚ノ原33－1グループホーム　ひまわり", "url": "https://www.kaigokensaku.mhlw.go.jp/39/index.php?action_kouhyou_detail_004_kani=true&JigyosyoCd=3970100560-00&ServiceCd=720&Type=search", "url2": "http://uchida.jyosenkai.jp/" }, "geometry": { "type": "Point", "coordinates": [ 133.4949245, 33.5615485 ] } },
{ "type": "Feature", "properties": { "内容": "アルコあるこ【認知症対応型通所介護】高知県高知市西塚ノ原２９−１", "url": "https://www.kaigokensaku.mhlw.go.jp/39/index.php?action_kouhyou_detail_004_kani=true&JigyosyoCd=3990101416-00&ServiceCd=720&Type=search", "url2": "http://houjin.fuku-no-tane.com/#sdgs" }, "geometry": { "type": "Point", "coordinates": [ 133.4932514, 33.5657413 ] } },
{ "type": "Feature", "properties": { "内容": "デイサービスセンター　さくら【認知症対応型通所介護】高知市朝倉字三月田丙１５９９番１", "url": "https://www.kaigokensaku.mhlw.go.jp/39/index.php?action_kouhyou_detail_004_kani=true&JigyosyoCd=3990100483-00&ServiceCd=720&Type=search", "url2": "http://www.kounankai.jp/asakura_sakura.html" }, "geometry": { "type": "Point", "coordinates": [ 133.4857538, 33.5350077 ] } },
{ "type": "Feature", "properties": { "内容": "デイサービスセンター　かがやき【認知症対応型通所介護】高知市長浜４９７５番地", "url": "https://www.kaigokensaku.mhlw.go.jp/39/index.php?action_kouhyou_detail_004_kani=true&JigyosyoCd=3990100293-00&ServiceCd=720&Type=search", "url2": "http://www.kounankai.jp/" }, "geometry": { "type": "Point", "coordinates": [ 133.545507499999985, 33.5015163 ] } },
{ "type": "Feature", "properties": { "内容": "グループホーム　絆・じょうやま【認知症対応型通所介護】東城山町121-6", "url": "https://www.kaigokensaku.mhlw.go.jp/39/index.php?action_kouhyou_detail_004_kani=true&JigyosyoCd=3990101812-00&ServiceCd=720&Type=search", "url2": "http://unvs.co.jp/" }, "geometry": { "type": "Point", "coordinates": [ 133.5175399, 33.5494058 ] } },
{ "type": "Feature", "properties": { "内容": "グループホーム　絆・きのせ【認知症対応型通所介護】高知県高知市春野町森山3076-3", "url": "https://www.kaigokensaku.mhlw.go.jp/39/index.php?action_kouhyou_detail_004_kani=true&JigyosyoCd=3990101838-00&ServiceCd=720&Type=search", "url2": "http://unvs.co.jp/" }, "geometry": { "type": "Point", "coordinates": [ 133.4696475, 33.4911707 ] } },
{ "type": "Feature", "properties": { "内容": "けあビジョンホーム高知【認知症対応型通所介護】高知県高知市神田２２５７番地１", "url": "https://www.kaigokensaku.mhlw.go.jp/39/index.php?action_kouhyou_detail_004_kani=true&JigyosyoCd=3990101804-00&ServiceCd=720&Type=search", "url2": null }, "geometry": { "type": "Point", "coordinates": [ 133.5204769, 33.5445165 ] } },
{ "type": "Feature", "properties": { "内容": "デイサービスセンターそよかぜ【認知症対応型通所介護】高知県高知市春野町西分4660番地", "url": "https://www.kaigokensaku.mhlw.go.jp/39/index.php?action_kouhyou_detail_004_kani=true&JigyosyoCd=3990100178-00&ServiceCd=720&Type=search", "url2": "http://www.nagaisakanokai.com/about.html" }, "geometry": { "type": "Point", "coordinates": [ 133.500468093254085, 33.500522172592063 ] } },
{ "type": "Feature", "properties": { "内容": "デイサービス　３３番地【認知症対応型通所介護】高知県高知市宝永町１０－２１しもぢ楽舎", "url": "https://www.kaigokensaku.mhlw.go.jp/39/index.php?action_kouhyou_detail_004_kani=true&JigyosyoCd=3990100426-00&ServiceCd=720&Type=search", "url2": "http://www.factory-com.co.jp/" }, "geometry": { "type": "Point", "coordinates": [ 133.555020799999966, 33.5623288 ] } },
{ "type": "Feature", "properties": { "内容": "デイサービス　あさ【認知症対応型通所介護】高知県高知市曙町1丁目16−34", "url": "https://www.kaigokensaku.mhlw.go.jp/39/index.php?action_kouhyou_detail_004_kani=true&JigyosyoCd=3990101671-00&ServiceCd=720&Type=search", "url2": "https://www.big-advance.site/c/168/1531" }, "geometry": { "type": "Point", "coordinates": [ 133.491700500000036, 33.5503048 ] } },
{ "type": "Feature", "properties": { "内容": "デイサービス　さくらんぼ【認知症対応型通所介護】高知県高知市上町3丁目4-24番地", "url": "https://www.kaigokensaku.mhlw.go.jp/39/index.php?action_kouhyou_detail_004_kani=true&JigyosyoCd=3990100616-00&ServiceCd=720&Type=search", "url2": "http://hosogi-hospital.jp/atc000008.htm" }, "geometry": { "type": "Point", "coordinates": [ 133.52149350000002, 33.55787 ] } },
{ "type": "Feature", "properties": { "内容": "デイサービスセンター　わかくさの家【認知症対応型通所介護】高知県高知市若草南町２２番２５号", "url": "https://www.kaigokensaku.mhlw.go.jp/39/index.php?action_kouhyou_detail_004_kani=true&JigyosyoCd=3990100244-00&ServiceCd=720&Type=search", "url2": "http://www.nagaisakanokai.com" }, "geometry": { "type": "Point", "coordinates": [ 133.487342600000034, 33.540035 ] } },
{ "type": "Feature", "properties": { "内容": "認知症デイサービスセンター　いおき【認知症対応型通所介護】高知県安芸市川北甲3634番地", "url": "https://www.kaigokensaku.mhlw.go.jp/39/index.php?action_kouhyou_detail_004_kani=true&JigyosyoCd=3970300111-00&ServiceCd=720&Type=search", "url2": "http://www.kounankai.jp/kiseki_ioki.html" }, "geometry": { "type": "Point", "coordinates": [ 133.93397935284807, 33.509365368108405 ] } },
{ "type": "Feature", "properties": { "内容": "デイサービス　ななくさ【認知症対応型通所介護】高知県　土佐市　蓮池1396-2", "url": "https://www.kaigokensaku.mhlw.go.jp/39/index.php?action_kouhyou_detail_004_kani=true&JigyosyoCd=3970500652-00&ServiceCd=720&Type=search", "url2": null }, "geometry": { "type": "Point", "coordinates": [ 133.409854799999948, 33.4898951 ] } },
{ "type": "Feature", "properties": { "内容": "デイサービスこなつ【認知症対応型通所介護】北地623-1", "url": "https://www.kaigokensaku.mhlw.go.jp/39/index.php?action_kouhyou_detail_004_kani=true&JigyosyoCd=3990500047-00&ServiceCd=720&Type=search", "url2": "http://npo-atom.main.jp/wp/" }, "geometry": { "type": "Point", "coordinates": [ 133.380674677244997, 33.487184075425269 ] } },
{ "type": "Feature", "properties": { "内容": "認知症デイサービスセンターあんきな家清水ヶ丘【認知症対応型通所介護】高知県土佐清水市清水ヶ丘30-2", "url": "https://www.kaigokensaku.mhlw.go.jp/39/index.php?action_kouhyou_detail_004_kani=true&JigyosyoCd=3990800090-00&ServiceCd=720&Type=search", "url2": "https://fuku-seiwakai.com/" }, "geometry": { "type": "Point", "coordinates": [ 132.957218032540851, 32.787053780824309 ] } },
{ "type": "Feature", "properties": { "内容": "デイサービスセンター　あんきな家【認知症対応型通所介護】高知県土佐清水市加久見１４６４－２７９", "url": "https://www.kaigokensaku.mhlw.go.jp/39/index.php?action_kouhyou_detail_004_kani=true&JigyosyoCd=3990800017-00&ServiceCd=720&Type=search", "url2": "fuku-seiwakai.com" }, "geometry": { "type": "Point", "coordinates": [ 132.925936, 32.7851631 ] } },
{ "type": "Feature", "properties": { "内容": "デイサービスセンター　くろしお【認知症対応型通所介護】高知県四万十市中村愛宕町２８番地在宅総合ケアセンター治優園", "url": "https://www.kaigokensaku.mhlw.go.jp/39/index.php?action_kouhyou_detail_004_kani=true&JigyosyoCd=3991000021-00&ServiceCd=720&Type=search", "url2": null }, "geometry": { "type": "Point", "coordinates": [ 132.933257700000013, 32.9938477 ] } },
{ "type": "Feature", "properties": { "内容": "共用型認知症対応型通所介護事業所はまゆう【認知症対応型通所介護】高知県四万十市井沢37-3", "url": "https://www.kaigokensaku.mhlw.go.jp/39/index.php?action_kouhyou_detail_004_kani=true&JigyosyoCd=3970700179-00&ServiceCd=720&Type=search", "url2": "http://yusunoki.or.jp/" }, "geometry": { "type": "Point", "coordinates": [ 132.9648014, 32.9752515 ] } },
{ "type": "Feature", "properties": { "内容": "デイサービスセンター　陽だまり【認知症対応型通所介護】高知県香南市赤岡町1160-1", "url": "https://www.kaigokensaku.mhlw.go.jp/39/index.php?action_kouhyou_detail_004_kani=true&JigyosyoCd=3972100071-00&ServiceCd=720&Type=search", "url2": "https://www.kounankai.jp" }, "geometry": { "type": "Point", "coordinates": [ 133.730083299999933, 33.5463756 ] } },
{ "type": "Feature", "properties": { "内容": "デイサービスセンター愛光【認知症対応型通所介護】高知県安芸郡奈半利町乙478番地1", "url": "https://www.kaigokensaku.mhlw.go.jp/39/index.php?action_kouhyou_detail_004_kani=true&JigyosyoCd=3972000107-00&ServiceCd=720&Type=search", "url2": "https://care-net.biz/39/aikouen/" }, "geometry": { "type": "Point", "coordinates": [ 134.02866240000003, 33.4209789 ] } },
{ "type": "Feature", "properties": { "内容": "認知症対応型デイサービスセンターかわせみ【認知症対応型通所介護】高知県長岡郡本山町本山978番地2総合福祉ゾーン　天空の里", "url": "https://www.kaigokensaku.mhlw.go.jp/39/index.php?action_kouhyou_detail_004_kani=true&JigyosyoCd=3992200034-00&ServiceCd=720&Type=search", "url2": "http://www.kounankai.ｊｐ/" }, "geometry": { "type": "Point", "coordinates": [ 133.575316890754721, 33.754300645349929 ] } },
{ "type": "Feature", "properties": { "内容": "石川記念病院デイサービスセンターあがわ【認知症対応型通所介護】高知県吾川郡いの町波川７７番地", "url": "https://www.kaigokensaku.mhlw.go.jp/39/index.php?action_kouhyou_detail_004_kani=true&JigyosyoCd=3912410861-00&ServiceCd=720&Type=search", "url2": "https://ishikawahp.com/" }, "geometry": { "type": "Point", "coordinates": [ 133.4041382, 33.541890099999989 ] } },
{ "type": "Feature", "properties": { "内容": "通所介護ひまわり【認知症対応型通所介護】高知県高岡郡日高村下分3561-1", "url": "https://www.kaigokensaku.mhlw.go.jp/39/index.php?action_kouhyou_detail_004_kani=true&JigyosyoCd=3972500601-00&ServiceCd=720&Type=search", "url2": "https://hidakaclinic.jinseikai.kochi.jp/" }, "geometry": { "type": "Point", "coordinates": [ 133.378391299999947, 33.5400627 ] } },
{ "type": "Feature", "properties": { "内容": "デイサービスセンター　ひのきの里【認知症対応型通所介護】高知県高岡郡津野町黒川740番地6", "url": "https://www.kaigokensaku.mhlw.go.jp/39/index.php?action_kouhyou_detail_004_kani=true&JigyosyoCd=3972500577-00&ServiceCd=720&Type=search", "url2": "http://www.kounankai.jp/" }, "geometry": { "type": "Point", "coordinates": [ 133.163625700000011, 33.4390321 ] } },
{ "type": "Feature", "properties": { "内容": "デイサービスみうら【認知症対応型通所介護】高知県幡多郡黒潮町出口8番地2", "url": "https://www.kaigokensaku.mhlw.go.jp/39/index.php?action_kouhyou_detail_004_kani=true&JigyosyoCd=3992600076-00&ServiceCd=720&Type=search", "url2": "http://yusunoki.or.jp/publics/index/41/" }, "geometry": { "type": "Point", "coordinates": [ 133.000956677625197, 32.988913266774446 ] } }
]
}
