{
"type": "FeatureCollection",
"name": "geo_39_通所介護",
"crs": { "type": "name", "properties": { "name": "urn:ogc:def:crs:OGC:1.3:CRS84" } },
"features": [
{ "type": "Feature", "properties": { "内容": "デイサービスからふる【通所介護】高知県高知市一ツ橋町二丁目１２７番地－１階", "url": "https://www.kaigokensaku.mhlw.go.jp/39/index.php?action_kouhyou_detail_004_kani=true&JigyosyoCd=3970106161-00&ServiceCd=150&Type=search", "url2": null }, "geometry": { "type": "Point", "coordinates": [ 133.528694678575022, 33.574225208605874 ] } },
{ "type": "Feature", "properties": { "内容": "デイサービスセンター　よこはま【通所介護】高知県高知市横浜東町10番2号", "url": "https://www.kaigokensaku.mhlw.go.jp/39/index.php?action_kouhyou_detail_004_kani=true&JigyosyoCd=3970104778-00&ServiceCd=150&Type=search", "url2": "http://www.rp-yokohama.com/" }, "geometry": { "type": "Point", "coordinates": [ 133.548731399999951, 33.5202586 ] } },
{ "type": "Feature", "properties": { "内容": "デイステーション　りんくす　せかんど【通所介護】大津乙892-1", "url": "https://www.kaigokensaku.mhlw.go.jp/39/index.php?action_kouhyou_detail_004_kani=true&JigyosyoCd=3970107284-00&ServiceCd=150&Type=search", "url2": "https://ambition-links.co.jp/" }, "geometry": { "type": "Point", "coordinates": [ 133.5960452, 33.5707198 ] } },
{ "type": "Feature", "properties": { "内容": "アルコ潮見台【通所介護】高知県高知市潮見台１丁目2603", "url": "https://www.kaigokensaku.mhlw.go.jp/39/index.php?action_kouhyou_detail_004_kani=true&JigyosyoCd=3970107714-00&ServiceCd=150&Type=search", "url2": "http://houjin.fuku-no-tane.com/" }, "geometry": { "type": "Point", "coordinates": [ 133.620996100000013, 33.5623629 ] } },
{ "type": "Feature", "properties": { "内容": "ツクイ高知東雲【通所介護】高知県高知市東雲町8-43", "url": "https://www.kaigokensaku.mhlw.go.jp/39/index.php?action_kouhyou_detail_004_kani=true&JigyosyoCd=3970107334-00&ServiceCd=150&Type=search", "url2": null }, "geometry": { "type": "Point", "coordinates": [ 133.5645556, 33.5586224 ] } },
{ "type": "Feature", "properties": { "内容": "リハビリ型デイサービス「めりふる」【通所介護】高知県高知市梅ノ辻2-6", "url": "https://www.kaigokensaku.mhlw.go.jp/39/index.php?action_kouhyou_detail_004_kani=true&JigyosyoCd=3970104810-00&ServiceCd=150&Type=search", "url2": "https://murumu.net/merihuru/" }, "geometry": { "type": "Point", "coordinates": [ 133.544144199999977, 33.555628099999986 ] } },
{ "type": "Feature", "properties": { "内容": "デイサービスセンターしのはら神田【通所介護】高知県高知市神田1071-1", "url": "https://www.kaigokensaku.mhlw.go.jp/39/index.php?action_kouhyou_detail_004_kani=true&JigyosyoCd=3970105593-00&ServiceCd=150&Type=search", "url2": null }, "geometry": { "type": "Point", "coordinates": [ 133.513715134096799, 33.543640433270873 ] } },
{ "type": "Feature", "properties": { "内容": "デイサービス　むすび葉ｐｌｕｓ【通所介護】高知県高知市中水道8－6", "url": "https://www.kaigokensaku.mhlw.go.jp/39/index.php?action_kouhyou_detail_004_kani=true&JigyosyoCd=3970107185-00&ServiceCd=150&Type=search", "url2": null }, "geometry": { "type": "Point", "coordinates": [ 133.535606699999988, 33.5686884 ] } },
{ "type": "Feature", "properties": { "内容": "デイサービス　おとも【通所介護】高知県高知市秦南町1丁目7-17", "url": "https://www.kaigokensaku.mhlw.go.jp/39/index.php?action_kouhyou_detail_004_kani=true&JigyosyoCd=3970106492-00&ServiceCd=150&Type=search", "url2": null }, "geometry": { "type": "Point", "coordinates": [ 133.544421599999964, 33.5738992 ] } },
{ "type": "Feature", "properties": { "内容": "デイサービスセンター森の里【通所介護】高知市横浜20番1", "url": "https://www.kaigokensaku.mhlw.go.jp/39/index.php?action_kouhyou_detail_004_kani=true&JigyosyoCd=3970100123-00&ServiceCd=150&Type=search", "url2": "http://furusatokai.or.jp" }, "geometry": { "type": "Point", "coordinates": [ 133.553680500000041, 33.5285411 ] } },
{ "type": "Feature", "properties": { "内容": "老人デイサービスセンターもろぎ【通所介護】高知県高知市春野町東諸木3058番地1", "url": "https://www.kaigokensaku.mhlw.go.jp/39/index.php?action_kouhyou_detail_004_kani=true&JigyosyoCd=3970103101-00&ServiceCd=150&Type=search", "url2": "http://takaharufukushikai.com" }, "geometry": { "type": "Point", "coordinates": [ 133.515539657008389, 33.487812289016318 ] } },
{ "type": "Feature", "properties": { "内容": "デイサービス　あさひの里【通所介護】高知県高知市南元町８５番住宅型有料老人ホームあさひの里", "url": "https://www.kaigokensaku.mhlw.go.jp/39/index.php?action_kouhyou_detail_004_kani=true&JigyosyoCd=3970106419-00&ServiceCd=150&Type=search", "url2": null }, "geometry": { "type": "Point", "coordinates": [ 133.507576, 33.5571891 ] } },
{ "type": "Feature", "properties": { "内容": "デイサービスセンター　おらんくの縁側【通所介護】東秦泉寺75-1", "url": "https://www.kaigokensaku.mhlw.go.jp/39/index.php?action_kouhyou_detail_004_kani=true&JigyosyoCd=3970104729-00&ServiceCd=150&Type=search", "url2": "https://www.fukudacl.or.jp" }, "geometry": { "type": "Point", "coordinates": [ 133.546011499999963, 33.5778642 ] } },
{ "type": "Feature", "properties": { "内容": "デイサービス　やわらぎ【通所介護】高知県高知市朝倉西町2丁目5番2号", "url": "https://www.kaigokensaku.mhlw.go.jp/39/index.php?action_kouhyou_detail_004_kani=true&JigyosyoCd=3970106716-00&ServiceCd=150&Type=search", "url2": null }, "geometry": { "type": "Point", "coordinates": [ 133.480412600000022, 33.5403292 ] } },
{ "type": "Feature", "properties": { "内容": "デイサービスセンター介良・なの花【通所介護】高知県高知市介良乙3137番地5", "url": "https://www.kaigokensaku.mhlw.go.jp/39/index.php?action_kouhyou_detail_004_kani=true&JigyosyoCd=3970102392-00&ServiceCd=150&Type=search", "url2": "http://www.nanohanaplan.co.jp" }, "geometry": { "type": "Point", "coordinates": [ 133.598658399999977, 33.5582471 ] } },
{ "type": "Feature", "properties": { "内容": "ツクイ高知神田【通所介護】高知県高知市神田1404-1", "url": "https://www.kaigokensaku.mhlw.go.jp/39/index.php?action_kouhyou_detail_004_kani=true&JigyosyoCd=3970107326-00&ServiceCd=150&Type=search", "url2": null }, "geometry": { "type": "Point", "coordinates": [ 133.51779830000001, 33.5410963 ] } },
{ "type": "Feature", "properties": { "内容": "デイサービスセンター　リハライフ【通所介護】高知県高知市仲田町７－１１", "url": "https://www.kaigokensaku.mhlw.go.jp/39/index.php?action_kouhyou_detail_004_kani=true&JigyosyoCd=3970104992-00&ServiceCd=150&Type=search", "url2": "www.rehalife-kochi.com" }, "geometry": { "type": "Point", "coordinates": [ 133.553192612091578, 33.548773336330818 ] } },
{ "type": "Feature", "properties": { "内容": "デイサービスセンター　リハライフプラス【通所介護】高知県高知市仲田町6-24", "url": "https://www.kaigokensaku.mhlw.go.jp/39/index.php?action_kouhyou_detail_004_kani=true&JigyosyoCd=3970106237-00&ServiceCd=150&Type=search", "url2": "www.rehalife-kochi.com" }, "geometry": { "type": "Point", "coordinates": [ 133.553024199999982, 33.5495275 ] } },
{ "type": "Feature", "properties": { "内容": "デイサービスセンター　リハライフ高須【通所介護】高知県高知市高須新町2丁目1-40", "url": "https://www.kaigokensaku.mhlw.go.jp/39/index.php?action_kouhyou_detail_004_kani=true&JigyosyoCd=3970106799-00&ServiceCd=150&Type=search", "url2": "www.rehalife-kochi.com" }, "geometry": { "type": "Point", "coordinates": [ 133.579633599999966, 33.5570837 ] } },
{ "type": "Feature", "properties": { "内容": "デイサービスセンター　リハライフ新屋敷【通所介護】高知県高知市新屋敷1丁目7-7", "url": "https://www.kaigokensaku.mhlw.go.jp/39/index.php?action_kouhyou_detail_004_kani=true&JigyosyoCd=3970106922-00&ServiceCd=150&Type=search", "url2": "www.rehalife-kochi.com" }, "geometry": { "type": "Point", "coordinates": [ 133.522320032545053, 33.564476645955075 ] } },
{ "type": "Feature", "properties": { "内容": "デイサービスセンターリハライフ卸団地【通所介護】高知県高知市南久保14-17", "url": "https://www.kaigokensaku.mhlw.go.jp/39/index.php?action_kouhyou_detail_004_kani=true&JigyosyoCd=3970107268-00&ServiceCd=150&Type=search", "url2": "www.rehalife-kochi.com" }, "geometry": { "type": "Point", "coordinates": [ 133.5654629, 33.5677109 ] } },
{ "type": "Feature", "properties": { "内容": "デイサービス　スタイル高須【通所介護】高知県高知市高須2丁目13-1", "url": "https://www.kaigokensaku.mhlw.go.jp/39/index.php?action_kouhyou_detail_004_kani=true&JigyosyoCd=3970104422-00&ServiceCd=150&Type=search", "url2": "s-kyotaku@style-carewave.jp" }, "geometry": { "type": "Point", "coordinates": [ 133.584687600000052, 33.5610743 ] } },
{ "type": "Feature", "properties": { "内容": "デイサービス絆・わかくさ【通所介護】若草町1-24サービス付き高齢者向け住宅　絆・わかくさ", "url": "https://www.kaigokensaku.mhlw.go.jp/39/index.php?action_kouhyou_detail_004_kani=true&JigyosyoCd=3970105528-00&ServiceCd=150&Type=search", "url2": "http://www.unvs.co.jp" }, "geometry": { "type": "Point", "coordinates": [ 133.489840549348372, 33.543999405049249 ] } },
{ "type": "Feature", "properties": { "内容": "デイサービスセンターあったかケアみずき【通所介護】高知県高知市一宮中町2丁目９－４", "url": "https://www.kaigokensaku.mhlw.go.jp/39/index.php?action_kouhyou_detail_004_kani=true&JigyosyoCd=3950180061-00&ServiceCd=150&Type=search", "url2": "http://www.attakacaremizuki.jp" }, "geometry": { "type": "Point", "coordinates": [ 133.572749599999952, 33.5820905 ] } },
{ "type": "Feature", "properties": { "内容": "ジョイリハSPA土佐道路【通所介護】高知県高知市鴨部3-24-26", "url": "https://www.kaigokensaku.mhlw.go.jp/39/index.php?action_kouhyou_detail_004_kani=true&JigyosyoCd=3970107722-00&ServiceCd=150&Type=search", "url2": "https://joyreha.co.jp/" }, "geometry": { "type": "Point", "coordinates": [ 133.5010261, 33.5452917 ] } },
{ "type": "Feature", "properties": { "内容": "アシストジャパンデイサービスセンター7号館【通所介護】高知県高知市北新田町18-30", "url": "https://www.kaigokensaku.mhlw.go.jp/39/index.php?action_kouhyou_detail_004_kani=true&JigyosyoCd=3970104802-00&ServiceCd=150&Type=search", "url2": "http://www.assistjapan.com/division/day7.htm" }, "geometry": { "type": "Point", "coordinates": [ 133.553404600000022, 33.5514606 ] } },
{ "type": "Feature", "properties": { "内容": "デイサービス伊勢崎町【通所介護】高知県高知市伊勢崎町１５－２２", "url": "https://www.kaigokensaku.mhlw.go.jp/39/index.php?action_kouhyou_detail_004_kani=true&JigyosyoCd=3970102616-00&ServiceCd=150&Type=search", "url2": "http://care-net.biz/39/care-isezaki/" }, "geometry": { "type": "Point", "coordinates": [ 133.531556099999989, 33.570952 ] } },
{ "type": "Feature", "properties": { "内容": "ウィークリハビリテーションデイセンター高知【通所介護】高知県高知市南はりまや町二丁目7番8号ウィークスビル1F", "url": "https://www.kaigokensaku.mhlw.go.jp/39/index.php?action_kouhyou_detail_004_kani=true&JigyosyoCd=3970107573-00&ServiceCd=150&Type=search", "url2": "https://kochi-weeks.co.jp" }, "geometry": { "type": "Point", "coordinates": [ 133.5454086, 33.557265300000019 ] } },
{ "type": "Feature", "properties": { "内容": "通所介護　いとう【通所介護】高知県高知市介良乙1049高知東メディカルスクエア1F", "url": "https://www.kaigokensaku.mhlw.go.jp/39/index.php?action_kouhyou_detail_004_kani=true&JigyosyoCd=3910115306-00&ServiceCd=150&Type=search", "url2": "http://www.itoseikei.net" }, "geometry": { "type": "Point", "coordinates": [ 133.596300299999939, 33.5617938 ] } },
{ "type": "Feature", "properties": { "内容": "デイサービスせいきょうぬくぬく【通所介護】高知県高知市口細山２０６－９", "url": "https://www.kaigokensaku.mhlw.go.jp/39/index.php?action_kouhyou_detail_004_kani=true&JigyosyoCd=3970104265-00&ServiceCd=150&Type=search", "url2": "http://www.kochi-hco-op.or.jp/3kaigo/kaigo-day.html" }, "geometry": { "type": "Point", "coordinates": [ 133.490054950262447, 33.566975312616563 ] } },
{ "type": "Feature", "properties": { "内容": "ジョイリハ高須【通所介護】高知県高知市高須新町３丁目1-20パルグランディ1F", "url": "https://www.kaigokensaku.mhlw.go.jp/39/index.php?action_kouhyou_detail_004_kani=true&JigyosyoCd=3970107532-00&ServiceCd=150&Type=search", "url2": null }, "geometry": { "type": "Point", "coordinates": [ 133.5773427, 33.5564393 ] } },
{ "type": "Feature", "properties": { "内容": "デイ・サービス　リーズ【通所介護】高知市大津乙７１９", "url": "https://www.kaigokensaku.mhlw.go.jp/39/index.php?action_kouhyou_detail_004_kani=true&JigyosyoCd=3910113483-00&ServiceCd=150&Type=search", "url2": "http://www.kochijoto.or.jp/" }, "geometry": { "type": "Point", "coordinates": [ 133.597236100000032, 33.5678569 ] } },
{ "type": "Feature", "properties": { "内容": "デイサービス虹の夢桟橋【通所介護】高知県高知市桟橋通1丁目12-17", "url": "https://www.kaigokensaku.mhlw.go.jp/39/index.php?action_kouhyou_detail_004_kani=true&JigyosyoCd=3970103598-00&ServiceCd=150&Type=search", "url2": null }, "geometry": { "type": "Point", "coordinates": [ 133.5449999, 33.5509132 ] } },
{ "type": "Feature", "properties": { "内容": "デイサービスセンター　はるかぜ【通所介護】高知県高知市春野町西分４６６０番地", "url": "https://www.kaigokensaku.mhlw.go.jp/39/index.php?action_kouhyou_detail_004_kani=true&JigyosyoCd=3970103028-00&ServiceCd=150&Type=search", "url2": "http://www.nagaisakanokai.com/about.html" }, "geometry": { "type": "Point", "coordinates": [ 133.500449371885594, 33.500537279538023 ] } },
{ "type": "Feature", "properties": { "内容": "デイサービスせいきょうやまもも【通所介護】北本町4丁目5-25はるる１階", "url": "https://www.kaigokensaku.mhlw.go.jp/39/index.php?action_kouhyou_detail_004_kani=true&JigyosyoCd=3970108241-00&ServiceCd=150&Type=search", "url2": "http://www.kochi-hco-op.or.jp" }, "geometry": { "type": "Point", "coordinates": [ 133.554191893254085, 33.566129190325469 ] } },
{ "type": "Feature", "properties": { "内容": "デイサービスセンター　梅一輪【通所介護】高知市梅ノ辻8-7梅ノ辻クリニック内3階", "url": "https://www.kaigokensaku.mhlw.go.jp/39/index.php?action_kouhyou_detail_004_kani=true&JigyosyoCd=3910117294-00&ServiceCd=150&Type=search", "url2": "http://www.umenotsuji-cl.jp/attach/dayservice.html" }, "geometry": { "type": "Point", "coordinates": [ 133.54344709999998, 33.5536656 ] } },
{ "type": "Feature", "properties": { "内容": "デイサービスセンターあおぞら【通所介護】高知市本町3丁目6-19", "url": "https://www.kaigokensaku.mhlw.go.jp/39/index.php?action_kouhyou_detail_004_kani=true&JigyosyoCd=3970100883-00&ServiceCd=150&Type=search", "url2": "http://www.excel-m.co.jp" }, "geometry": { "type": "Point", "coordinates": [ 133.535421079762273, 33.556897844481 ] } },
{ "type": "Feature", "properties": { "内容": "デイサービスセンター　サムフォット【通所介護】高知市朝倉甲６４－１", "url": "https://www.kaigokensaku.mhlw.go.jp/39/index.php?action_kouhyou_detail_004_kani=true&JigyosyoCd=3970100107-00&ServiceCd=150&Type=search", "url2": "http://www.thc.or.jp" }, "geometry": { "type": "Point", "coordinates": [ 133.502482399999963, 33.5430629 ] } },
{ "type": "Feature", "properties": { "内容": "通所介護　あゆみ道場【通所介護】高知県高知市鳥越1-1", "url": "https://www.kaigokensaku.mhlw.go.jp/39/index.php?action_kouhyou_detail_004_kani=true&JigyosyoCd=3970105130-00&ServiceCd=150&Type=search", "url2": "http://www3.ocn.ne.jp/~josenkai/uchida/ayumi.html" }, "geometry": { "type": "Point", "coordinates": [ 133.492613476304626, 33.5615263411824 ] } },
{ "type": "Feature", "properties": { "内容": "通所介護事業所　ポットラック【通所介護】高知県高知市福井町８２４番地５", "url": "https://www.kaigokensaku.mhlw.go.jp/39/index.php?action_kouhyou_detail_004_kani=true&JigyosyoCd=3970105452-00&ServiceCd=150&Type=search", "url2": null }, "geometry": { "type": "Point", "coordinates": [ 133.510033799999974, 33.5665575 ] } },
{ "type": "Feature", "properties": { "内容": "デイサービス　いろは【通所介護】高知市一宮西町１丁目５番１７号", "url": "https://www.kaigokensaku.mhlw.go.jp/39/index.php?action_kouhyou_detail_004_kani=true&JigyosyoCd=3970102772-00&ServiceCd=150&Type=search", "url2": "http://www.sanai-hospital.jp/top/facility/iroha.html" }, "geometry": { "type": "Point", "coordinates": [ 133.566333500000042, 33.5834845 ] } },
{ "type": "Feature", "properties": { "内容": "デイサービスセンター　トマトの樹【通所介護】高知県高知市介良乙８８３番地２", "url": "https://www.kaigokensaku.mhlw.go.jp/39/index.php?action_kouhyou_detail_004_kani=true&JigyosyoCd=3970102152-00&ServiceCd=150&Type=search", "url2": "http://www.netfamily.jp" }, "geometry": { "type": "Point", "coordinates": [ 133.598072199999933, 33.5643129 ] } },
{ "type": "Feature", "properties": { "内容": "ニチイケアセンター高知【通所介護】高知市杉井流１－２", "url": "https://www.kaigokensaku.mhlw.go.jp/39/index.php?action_kouhyou_detail_004_kani=true&JigyosyoCd=3970100677-00&ServiceCd=150&Type=search", "url2": "http:/www.nichiigakkann.co.jp" }, "geometry": { "type": "Point", "coordinates": [ 133.554731800000013, 33.5677365 ] } },
{ "type": "Feature", "properties": { "内容": "通所介護事業所　桂浜【通所介護】高知県高知市長浜４４４４番地１", "url": "https://www.kaigokensaku.mhlw.go.jp/39/index.php?action_kouhyou_detail_004_kani=true&JigyosyoCd=3970103648-00&ServiceCd=150&Type=search", "url2": "http://www.fuku-cij.jp/other/index.html" }, "geometry": { "type": "Point", "coordinates": [ 133.5462579, 33.4887755 ] } },
{ "type": "Feature", "properties": { "内容": "南部障害者福祉センター　指定共生型通所介護事業所【通所介護】高知県高知市百石町3丁目1-30高知県高知市南部健康福祉センター", "url": "https://www.kaigokensaku.mhlw.go.jp/39/index.php?action_kouhyou_detail_004_kani=true&JigyosyoCd=3970107151-00&ServiceCd=150&Type=search", "url2": "https://www.kochi-csw.or.jp/" }, "geometry": { "type": "Point", "coordinates": [ 133.5481623, 33.5450419 ] } },
{ "type": "Feature", "properties": { "内容": "通所介護事業所　グランボヌール【通所介護】高知市布師田字宮ノ辺1362", "url": "https://www.kaigokensaku.mhlw.go.jp/39/index.php?action_kouhyou_detail_004_kani=true&JigyosyoCd=3970100131-00&ServiceCd=150&Type=search", "url2": "https://www.nankai-f.jp/" }, "geometry": { "type": "Point", "coordinates": [ 133.592653299999938, 33.5839213 ] } },
{ "type": "Feature", "properties": { "内容": "デイサービスセンターイロアイ【通所介護】高知市朝倉甲273デイサービスセンターイロアイ", "url": "https://www.kaigokensaku.mhlw.go.jp/39/index.php?action_kouhyou_detail_004_kani=true&JigyosyoCd=3970107011-00&ServiceCd=150&Type=search", "url2": "http://iroai-kochi.com" }, "geometry": { "type": "Point", "coordinates": [ 133.499595399999947, 33.5384961 ] } },
{ "type": "Feature", "properties": { "内容": "高知ケアセンターそよ風【通所介護】高知県高知市福井町805番地4", "url": "https://www.kaigokensaku.mhlw.go.jp/39/index.php?action_kouhyou_detail_004_kani=true&JigyosyoCd=3970107466-00&ServiceCd=150&Type=search", "url2": "https://www.sykz.co.jp/map/search?pref_name=%E9%AB%98%E7%9F%A5%E7%9C%8C" }, "geometry": { "type": "Point", "coordinates": [ 133.511204745369014, 33.566192295004285 ] } },
{ "type": "Feature", "properties": { "内容": "リハビリデイサービスポラリス【通所介護】高知県高知市若草町15-38", "url": "https://www.kaigokensaku.mhlw.go.jp/39/index.php?action_kouhyou_detail_004_kani=true&JigyosyoCd=3970107441-00&ServiceCd=150&Type=search", "url2": "https://rihabiripolaris.wixsite.com/polaris" }, "geometry": { "type": "Point", "coordinates": [ 133.4861259, 33.54281 ] } },
{ "type": "Feature", "properties": { "内容": "デイサービスセンター　ゆづき【通所介護】高知市円行寺５２－１０", "url": "https://www.kaigokensaku.mhlw.go.jp/39/index.php?action_kouhyou_detail_004_kani=true&JigyosyoCd=3970100149-00&ServiceCd=150&Type=search", "url2": "http://www.sanjyukai.com/" }, "geometry": { "type": "Point", "coordinates": [ 133.5137, 33.5838861 ] } },
{ "type": "Feature", "properties": { "内容": "デイサービス瀬戸虹の夢【通所介護】高知県高知市長浜1440-1", "url": "https://www.kaigokensaku.mhlw.go.jp/39/index.php?action_kouhyou_detail_004_kani=true&JigyosyoCd=3970103044-00&ServiceCd=150&Type=search", "url2": null }, "geometry": { "type": "Point", "coordinates": [ 133.538071, 33.5063612 ] } },
{ "type": "Feature", "properties": { "内容": "デイサービスむすび葉3プラス【通所介護】東秦泉寺211", "url": "https://www.kaigokensaku.mhlw.go.jp/39/index.php?action_kouhyou_detail_004_kani=true&JigyosyoCd=3970108209-00&ServiceCd=150&Type=search", "url2": null }, "geometry": { "type": "Point", "coordinates": [ 133.546321299999988, 33.580345 ] } },
{ "type": "Feature", "properties": { "内容": "ＩＭＣデイサービス若草南【通所介護】高知県高知市若草南町6-36", "url": "https://www.kaigokensaku.mhlw.go.jp/39/index.php?action_kouhyou_detail_004_kani=true&JigyosyoCd=3970107896-00&ServiceCd=150&Type=search", "url2": null }, "geometry": { "type": "Point", "coordinates": [ 133.4896042, 33.5419475 ] } },
{ "type": "Feature", "properties": { "内容": "リハデイ　ソレイユ【通所介護】高知県高知市東城山町163-1", "url": "https://www.kaigokensaku.mhlw.go.jp/39/index.php?action_kouhyou_detail_004_kani=true&JigyosyoCd=3970105734-00&ServiceCd=150&Type=search", "url2": "http://www.okabayashi-hp.jp/soleil-rihadei.html" }, "geometry": { "type": "Point", "coordinates": [ 133.517151687696838, 33.547203709156889 ] } },
{ "type": "Feature", "properties": { "内容": "デイサービス長瀬【通所介護】高知県高知市中万々167番地1", "url": "https://www.kaigokensaku.mhlw.go.jp/39/index.php?action_kouhyou_detail_004_kani=true&JigyosyoCd=3970103580-00&ServiceCd=150&Type=search", "url2": null }, "geometry": { "type": "Point", "coordinates": [ 133.514949699999988, 33.568668500000015 ] } },
{ "type": "Feature", "properties": { "内容": "こじゃリハこうち【通所介護】高知県高知市一宮南町１丁目１５−１３マルナカ高知インター店２階", "url": "https://www.kaigokensaku.mhlw.go.jp/39/index.php?action_kouhyou_detail_004_kani=true&JigyosyoCd=3970108118-00&ServiceCd=150&Type=search", "url2": "https://rsb14267.wixsite.com/lisus/blank-21" }, "geometry": { "type": "Point", "coordinates": [ 133.56575380000001, 33.580664 ] } },
{ "type": "Feature", "properties": { "内容": "社会福祉法人高知市社会福祉協議会　介護センターあじさい会館指定通所介護事業所【通所介護】高知県高知市春野町西分1番地1", "url": "https://www.kaigokensaku.mhlw.go.jp/39/index.php?action_kouhyou_detail_004_kani=true&JigyosyoCd=3970103069-00&ServiceCd=150&Type=search", "url2": "http://www.kochi-csw.or.jp/document/?group=a1040" }, "geometry": { "type": "Point", "coordinates": [ 133.4878417, 33.4978337 ] } },
{ "type": "Feature", "properties": { "内容": "デイサービスセンター　くつろぎの家【通所介護】高知市若草南町２２－２５", "url": "https://www.kaigokensaku.mhlw.go.jp/39/index.php?action_kouhyou_detail_004_kani=true&JigyosyoCd=3970103473-00&ServiceCd=150&Type=search", "url2": "http://www.nagaisakanokai.com/wakakusa/kutsurogi.html" }, "geometry": { "type": "Point", "coordinates": [ 133.487342600000034, 33.540035 ] } },
{ "type": "Feature", "properties": { "内容": "デイサービスセンターライラック【通所介護】高知県高知市本町3丁目6-27サウスヴィラ本町2階", "url": "https://www.kaigokensaku.mhlw.go.jp/39/index.php?action_kouhyou_detail_004_kani=true&JigyosyoCd=3970105767-00&ServiceCd=150&Type=search", "url2": "http://excel-m.co.jp/" }, "geometry": { "type": "Point", "coordinates": [ 133.535178499336183, 33.557109888925154 ] } },
{ "type": "Feature", "properties": { "内容": "デイサービス・アートケア仁井田【通所介護】仁井田4639-1", "url": "https://www.kaigokensaku.mhlw.go.jp/39/index.php?action_kouhyou_detail_004_kani=true&JigyosyoCd=3970105726-00&ServiceCd=150&Type=search", "url2": null }, "geometry": { "type": "Point", "coordinates": [ 133.567405399999984, 33.5100713 ] } },
{ "type": "Feature", "properties": { "内容": "デイサービスセンター　サイタ【通所介護】高知県高知市朝倉甲２５－１在宅介護支援事業所　サイタ", "url": "https://www.kaigokensaku.mhlw.go.jp/39/index.php?action_kouhyou_detail_004_kani=true&JigyosyoCd=3970105817-00&ServiceCd=150&Type=search", "url2": "http://www.thc.or.jp/" }, "geometry": { "type": "Point", "coordinates": [ 133.50138601866297, 33.544172812187114 ] } },
{ "type": "Feature", "properties": { "内容": "IMCデイサービス北新田【通所介護】高知県高知市北新田町17-3コーポマルベリ北新田1F", "url": "https://www.kaigokensaku.mhlw.go.jp/39/index.php?action_kouhyou_detail_004_kani=true&JigyosyoCd=3970108076-00&ServiceCd=150&Type=search", "url2": "https://imc-ls.com/" }, "geometry": { "type": "Point", "coordinates": [ 133.5529015, 33.552172 ] } },
{ "type": "Feature", "properties": { "内容": "通所介護事業所　なぎさ【通所介護】高知市仁井田１６１８番地１８", "url": "https://www.kaigokensaku.mhlw.go.jp/39/index.php?action_kouhyou_detail_004_kani=true&JigyosyoCd=3970100115-00&ServiceCd=150&Type=search", "url2": "http://uminosato.or.jp/" }, "geometry": { "type": "Point", "coordinates": [ 133.572027, 33.5131904 ] } },
{ "type": "Feature", "properties": { "内容": "ウエルデイしなね通所介護事業所【通所介護】高知県高知市一宮しなね２丁目１５番１９号", "url": "https://www.kaigokensaku.mhlw.go.jp/39/index.php?action_kouhyou_detail_004_kani=true&JigyosyoCd=3970104455-00&ServiceCd=150&Type=search", "url2": "http://www.welplaza.or.jp/index.php" }, "geometry": { "type": "Point", "coordinates": [ 133.577532499999961, 33.5938527 ] } },
{ "type": "Feature", "properties": { "内容": "ニチイケアセンター愛宕【通所介護】高知県高知市愛宕町４丁目17-7", "url": "https://www.kaigokensaku.mhlw.go.jp/39/index.php?action_kouhyou_detail_004_kani=true&JigyosyoCd=3970100362-00&ServiceCd=150&Type=search", "url2": "http://www.nichiigakkan.co.jp" }, "geometry": { "type": "Point", "coordinates": [ 133.536936200000014, 33.5748628 ] } },
{ "type": "Feature", "properties": { "内容": "デイサービスセンター　樹蔭【通所介護】高知県高知市五台山3780-1", "url": "https://www.kaigokensaku.mhlw.go.jp/39/index.php?action_kouhyou_detail_004_kani=true&JigyosyoCd=3970100057-00&ServiceCd=150&Type=search", "url2": "http://www.sawarabikai.net/konure.html" }, "geometry": { "type": "Point", "coordinates": [ 133.588254399999983, 33.548514799999985 ] } },
{ "type": "Feature", "properties": { "内容": "デイサービスセンター　ひまわり【通所介護】高知県室戸市室津１７７５－８", "url": "https://www.kaigokensaku.mhlw.go.jp/39/index.php?action_kouhyou_detail_004_kani=true&JigyosyoCd=3970200287-00&ServiceCd=150&Type=search", "url2": null }, "geometry": { "type": "Point", "coordinates": [ 134.159194599999978, 33.2931646 ] } },
{ "type": "Feature", "properties": { "内容": "デイサービスあすなろ【通所介護】高知県室戸市吉良川町乙2004番地1", "url": "https://www.kaigokensaku.mhlw.go.jp/39/index.php?action_kouhyou_detail_004_kani=true&JigyosyoCd=3970200279-00&ServiceCd=150&Type=search", "url2": null }, "geometry": { "type": "Point", "coordinates": [ 134.094208500000036, 33.3362241 ] } },
{ "type": "Feature", "properties": { "内容": "室戸市デイサービスセンター【通所介護】高知県室戸市領家８７番地", "url": "https://www.kaigokensaku.mhlw.go.jp/39/index.php?action_kouhyou_detail_004_kani=true&JigyosyoCd=3970200204-00&ServiceCd=150&Type=search", "url2": "https://murosya.or.jp/" }, "geometry": { "type": "Point", "coordinates": [ 134.157237588299495, 33.290842246662457 ] } },
{ "type": "Feature", "properties": { "内容": "デイサービスセンター　はまちどり【通所介護】安芸市寿町２－３", "url": "https://www.kaigokensaku.mhlw.go.jp/39/index.php?action_kouhyou_detail_004_kani=true&JigyosyoCd=3970300095-00&ServiceCd=150&Type=search", "url2": "http://www.aki-wel.or.jp/businessplace/dayservice/dayservice.html" }, "geometry": { "type": "Point", "coordinates": [ 133.904127499999959, 33.4988467 ] } },
{ "type": "Feature", "properties": { "内容": "老人デイサービスセンター　「いのくち」【通所介護】高知県安芸市川北乙１７３５番地", "url": "https://www.kaigokensaku.mhlw.go.jp/39/index.php?action_kouhyou_detail_004_kani=true&JigyosyoCd=3970300087-00&ServiceCd=150&Type=search", "url2": "http://tsutsujinooka.jp/" }, "geometry": { "type": "Point", "coordinates": [ 133.913597799999934, 33.5276018 ] } },
{ "type": "Feature", "properties": { "内容": "デイサービスセンター安芸【通所介護】安芸市川北甲1812－15", "url": "https://www.kaigokensaku.mhlw.go.jp/39/index.php?action_kouhyou_detail_004_kani=true&JigyosyoCd=3970300145-00&ServiceCd=150&Type=search", "url2": "http://f-shizenmura.or.jp" }, "geometry": { "type": "Point", "coordinates": [ 133.915295600000036, 33.498 ] } },
{ "type": "Feature", "properties": { "内容": "通所介護みずぐるま【通所介護】高知県安芸市井ノ口甲２１２２－３", "url": "https://www.kaigokensaku.mhlw.go.jp/39/index.php?action_kouhyou_detail_004_kani=true&JigyosyoCd=3970300327-00&ServiceCd=150&Type=search", "url2": "https://mizuguruma.net" }, "geometry": { "type": "Point", "coordinates": [ 133.898896499999978, 33.5273875 ] } },
{ "type": "Feature", "properties": { "内容": "デイサービスセンターあったか【通所介護】安芸市庄之芝町3-3鯨ビル", "url": "https://www.kaigokensaku.mhlw.go.jp/39/index.php?action_kouhyou_detail_004_kani=true&JigyosyoCd=3970300103-00&ServiceCd=150&Type=search", "url2": null }, "geometry": { "type": "Point", "coordinates": [ 133.902202799999941, 33.501774 ] } },
{ "type": "Feature", "properties": { "内容": "デイサービスきさらぎ【通所介護】高知県南国市大埇甲1716番地1", "url": "https://www.kaigokensaku.mhlw.go.jp/39/index.php?action_kouhyou_detail_004_kani=true&JigyosyoCd=3970400747-00&ServiceCd=150&Type=search", "url2": null }, "geometry": { "type": "Point", "coordinates": [ 133.646387399999981, 33.5736759 ] } },
{ "type": "Feature", "properties": { "内容": "でいさーびすうちんく和なんごく【通所介護】高知県南国市篠原706番地1", "url": "https://www.kaigokensaku.mhlw.go.jp/39/index.php?action_kouhyou_detail_004_kani=true&JigyosyoCd=3970400713-00&ServiceCd=150&Type=search", "url2": "https://nodoka-kochi.jp" }, "geometry": { "type": "Point", "coordinates": [ 133.628491100000019, 33.5744009 ] } },
{ "type": "Feature", "properties": { "内容": "でいさーびす　ファミリー【通所介護】高知県南国市浜改田1277番地1", "url": "https://www.kaigokensaku.mhlw.go.jp/39/index.php?action_kouhyou_detail_004_kani=true&JigyosyoCd=3970400804-00&ServiceCd=150&Type=search", "url2": null }, "geometry": { "type": "Point", "coordinates": [ 133.6414203, 33.575688 ] } },
{ "type": "Feature", "properties": { "内容": "デイサービスセンターせいふう【通所介護】高知県南国市岡豊町小篭３５９番地１", "url": "https://www.kaigokensaku.mhlw.go.jp/39/index.php?action_kouhyou_detail_004_kani=true&JigyosyoCd=3970400044-00&ServiceCd=150&Type=search", "url2": "https://tosaseifukai.com/" }, "geometry": { "type": "Point", "coordinates": [ 133.6256525, 33.5782671 ] } },
{ "type": "Feature", "properties": { "内容": "デイサービスセンターたくさん【通所介護】高知県南国市明見883－5デイサービスセンターたくさん", "url": "https://www.kaigokensaku.mhlw.go.jp/39/index.php?action_kouhyou_detail_004_kani=true&JigyosyoCd=3970400689-00&ServiceCd=150&Type=search", "url2": "https://dayservice.tosakibi.com/" }, "geometry": { "type": "Point", "coordinates": [ 133.630115899999964, 33.567651699999985 ] } },
{ "type": "Feature", "properties": { "内容": "デイサービスセンター野いちご南国【通所介護】高知県南国市篠原1954-1", "url": "https://www.kaigokensaku.mhlw.go.jp/39/index.php?action_kouhyou_detail_004_kani=true&JigyosyoCd=3970400457-00&ServiceCd=150&Type=search", "url2": "http://noichigo-odani.com/" }, "geometry": { "type": "Point", "coordinates": [ 133.637540599999966, 33.5790452 ] } },
{ "type": "Feature", "properties": { "内容": "デイサービスセンターぬくもり【通所介護】南国市岡豊町中島1535番地", "url": "https://www.kaigokensaku.mhlw.go.jp/39/index.php?action_kouhyou_detail_004_kani=true&JigyosyoCd=3970400143-00&ServiceCd=150&Type=search", "url2": "http://f-shizenmura.or.jp" }, "geometry": { "type": "Point", "coordinates": [ 133.615562100000034, 33.5904046 ] } },
{ "type": "Feature", "properties": { "内容": "西田順天堂　デイサービスセンター【通所介護】南国市大そね乙１２４９－４", "url": "https://www.kaigokensaku.mhlw.go.jp/39/index.php?action_kouhyou_detail_004_kani=true&JigyosyoCd=3970400291-00&ServiceCd=150&Type=search", "url2": "www.nishida-ph.net" }, "geometry": { "type": "Point", "coordinates": [ 133.646727113491806, 33.565818609725106 ] } },
{ "type": "Feature", "properties": { "内容": "デイサービスセンター野いちごみつばち【通所介護】高知県南国市小籠941-20", "url": "https://www.kaigokensaku.mhlw.go.jp/39/index.php?action_kouhyou_detail_004_kani=true&JigyosyoCd=3970400648-00&ServiceCd=150&Type=search", "url2": "http://noichigo-odani.com/" }, "geometry": { "type": "Point", "coordinates": [ 133.631649299999907, 33.5788145 ] } },
{ "type": "Feature", "properties": { "内容": "白山荘デイサービスセンター【通所介護】高知県南国市稲生１３０６－１", "url": "https://www.kaigokensaku.mhlw.go.jp/39/index.php?action_kouhyou_detail_004_kani=true&JigyosyoCd=3970400838-00&ServiceCd=150&Type=search", "url2": "https://www.wakokai.net/" }, "geometry": { "type": "Point", "coordinates": [ 133.6126705, 33.5449016 ] } },
{ "type": "Feature", "properties": { "内容": "いこいの里「さくら貝」デイサービスセンター　はまゆう【通所介護】土佐市宇佐町宇佐2841", "url": "https://www.kaigokensaku.mhlw.go.jp/39/index.php?action_kouhyou_detail_004_kani=true&JigyosyoCd=3970500314-00&ServiceCd=150&Type=search", "url2": "http://www.ikoi-kochi.jp/" }, "geometry": { "type": "Point", "coordinates": [ 133.434695499999947, 33.4381046 ] } },
{ "type": "Feature", "properties": { "内容": "有限会社四国総合介護システム　戸波デイサービスセンター【通所介護】高知県土佐市家俊１０８１－１", "url": "https://www.kaigokensaku.mhlw.go.jp/39/index.php?action_kouhyou_detail_004_kani=true&JigyosyoCd=3970500199-00&ServiceCd=150&Type=search", "url2": null }, "geometry": { "type": "Point", "coordinates": [ 133.348027499999944, 33.4631865 ] } },
{ "type": "Feature", "properties": { "内容": "土佐市デイサービスセンター陽だまり【通所介護】土佐市高岡町甲１７９２－２", "url": "https://www.kaigokensaku.mhlw.go.jp/39/index.php?action_kouhyou_detail_004_kani=true&JigyosyoCd=3970500595-00&ServiceCd=150&Type=search", "url2": "https://tsjig.com/" }, "geometry": { "type": "Point", "coordinates": [ 133.42317550000007, 33.4919975 ] } },
{ "type": "Feature", "properties": { "内容": "土佐市宇佐デイサービスセンター龍宮【通所介護】高知県土佐市宇佐町宇佐８５８－２", "url": "https://www.kaigokensaku.mhlw.go.jp/39/index.php?action_kouhyou_detail_004_kani=true&JigyosyoCd=3970500439-00&ServiceCd=150&Type=search", "url2": null }, "geometry": { "type": "Point", "coordinates": [ 133.436528299999964, 33.4490422 ] } },
{ "type": "Feature", "properties": { "内容": "デイサービス　なごみ館【通所介護】高知県土佐市高岡町甲２１９０－７", "url": "https://www.kaigokensaku.mhlw.go.jp/39/index.php?action_kouhyou_detail_004_kani=true&JigyosyoCd=3970500470-00&ServiceCd=150&Type=search", "url2": null }, "geometry": { "type": "Point", "coordinates": [ 133.42069790000005, 33.4957552 ] } },
{ "type": "Feature", "properties": { "内容": "デイサービス高岡【通所介護】高知県土佐市高岡町乙3234-1", "url": "https://www.kaigokensaku.mhlw.go.jp/39/index.php?action_kouhyou_detail_004_kani=true&JigyosyoCd=3970500629-00&ServiceCd=150&Type=search", "url2": null }, "geometry": { "type": "Point", "coordinates": [ 133.42701798531948, 33.50487644823577 ] } },
{ "type": "Feature", "properties": { "内容": "デイサービス　しいの実【通所介護】高知県須崎市大間本町16-30", "url": "https://www.kaigokensaku.mhlw.go.jp/39/index.php?action_kouhyou_detail_004_kani=true&JigyosyoCd=3970600478-00&ServiceCd=150&Type=search", "url2": null }, "geometry": { "type": "Point", "coordinates": [ 133.2852169, 33.406853900000016 ] } },
{ "type": "Feature", "properties": { "内容": "須崎市老人デイサービスセンター　ばんだ湯の香荘【通所介護】高知県須崎市桑田山１１７３番地1", "url": "https://www.kaigokensaku.mhlw.go.jp/39/index.php?action_kouhyou_detail_004_kani=true&JigyosyoCd=3970600072-00&ServiceCd=150&Type=search", "url2": null }, "geometry": { "type": "Point", "coordinates": [ 133.285224699999958, 33.4283229 ] } },
{ "type": "Feature", "properties": { "内容": "老人デイサービスセンターしろやま【通所介護】高知県須崎市鍛冶町２番１０号", "url": "https://www.kaigokensaku.mhlw.go.jp/39/index.php?action_kouhyou_detail_004_kani=true&JigyosyoCd=3970600304-00&ServiceCd=150&Type=search", "url2": "http://www.ca.pikara.ne.jp/seiryuso/" }, "geometry": { "type": "Point", "coordinates": [ 133.288682198455859, 33.39150549839745 ] } },
{ "type": "Feature", "properties": { "内容": "デイサービスどんぐりの里２【通所介護】須崎市吾井郷乙1909番地３", "url": "https://www.kaigokensaku.mhlw.go.jp/39/index.php?action_kouhyou_detail_004_kani=true&JigyosyoCd=3970600320-00&ServiceCd=150&Type=search", "url2": null }, "geometry": { "type": "Point", "coordinates": [ 133.293027879762263, 33.418428657345437 ] } },
{ "type": "Feature", "properties": { "内容": "ベテルホームすさき　デイサービスセンター【通所介護】高知県須崎市桐間南15番地", "url": "https://www.kaigokensaku.mhlw.go.jp/39/index.php?action_kouhyou_detail_004_kani=true&JigyosyoCd=3970600296-00&ServiceCd=150&Type=search", "url2": null }, "geometry": { "type": "Point", "coordinates": [ 133.293594044791917, 33.407217720665059 ] } },
{ "type": "Feature", "properties": { "内容": "オリーブホーム　デイサービスセンター【通所介護】高知県須崎市桐間南33番地", "url": "https://www.kaigokensaku.mhlw.go.jp/39/index.php?action_kouhyou_detail_004_kani=true&JigyosyoCd=3970600403-00&ServiceCd=150&Type=search", "url2": "olivehome.net" }, "geometry": { "type": "Point", "coordinates": [ 133.294310985458424, 33.407270433534741 ] } },
{ "type": "Feature", "properties": { "内容": "デイサービスハレ【通所介護】高知県須崎市大間本町7-10", "url": "https://www.kaigokensaku.mhlw.go.jp/39/index.php?action_kouhyou_detail_004_kani=true&JigyosyoCd=3970600494-00&ServiceCd=150&Type=search", "url2": "https://isana.life/" }, "geometry": { "type": "Point", "coordinates": [ 133.285346349073762, 33.40514422376927 ] } },
{ "type": "Feature", "properties": { "内容": "デイサービスくりの木【通所介護】高知県須崎市安和1201番地54", "url": "https://www.kaigokensaku.mhlw.go.jp/39/index.php?action_kouhyou_detail_004_kani=true&JigyosyoCd=3970600486-00&ServiceCd=150&Type=search", "url2": null }, "geometry": { "type": "Point", "coordinates": [ 133.262998343551317, 33.358125698373435 ] } },
{ "type": "Feature", "properties": { "内容": "デイサービス　さくらんぼ【通所介護】高知県宿毛市片島５番２０号", "url": "https://www.kaigokensaku.mhlw.go.jp/39/index.php?action_kouhyou_detail_004_kani=true&JigyosyoCd=3970900308-00&ServiceCd=150&Type=search", "url2": "sakuranho@wankara.jp" }, "geometry": { "type": "Point", "coordinates": [ 132.701578435057058, 32.920578373190416 ] } },
{ "type": "Feature", "properties": { "内容": "デイサービスセンター　たんぽぽ【通所介護】高知県宿毛市橋上町平野２２８", "url": "https://www.kaigokensaku.mhlw.go.jp/39/index.php?action_kouhyou_detail_004_kani=true&JigyosyoCd=3970900191-00&ServiceCd=150&Type=search", "url2": null }, "geometry": { "type": "Point", "coordinates": [ 132.759899099999984, 32.9684532 ] } },
{ "type": "Feature", "properties": { "内容": "宿毛中央　デイサービスセンター【通所介護】高知県宿毛市中央７丁目５番４４号", "url": "https://www.kaigokensaku.mhlw.go.jp/39/index.php?action_kouhyou_detail_004_kani=true&JigyosyoCd=3970900027-00&ServiceCd=150&Type=search", "url2": "http://sukumofukushikai.net/" }, "geometry": { "type": "Point", "coordinates": [ 132.724913499999957, 32.9358977 ] } },
{ "type": "Feature", "properties": { "内容": "デイサービスセンター　つどいの家【通所介護】高知県宿毛市平田町戸内１８１３番地１", "url": "https://www.kaigokensaku.mhlw.go.jp/39/index.php?action_kouhyou_detail_004_kani=true&JigyosyoCd=3970900035-00&ServiceCd=150&Type=search", "url2": null }, "geometry": { "type": "Point", "coordinates": [ 132.798387100000014, 32.9593056 ] } },
{ "type": "Feature", "properties": { "内容": "デイサービスセンターあんきな家清水ヶ丘【通所介護】高知県土佐清水市清水ヶ丘30番2号デイサービスセンターあんきな家清水ヶ丘", "url": "https://www.kaigokensaku.mhlw.go.jp/39/index.php?action_kouhyou_detail_004_kani=true&JigyosyoCd=3970800219-00&ServiceCd=150&Type=search", "url2": "http://www.fuku-seiwakai.com/" }, "geometry": { "type": "Point", "coordinates": [ 132.957002, 32.786888 ] } },
{ "type": "Feature", "properties": { "内容": "デイサービスセンター　にしとさ【通所介護】四万十市西土佐用井１１１０番地１", "url": "https://www.kaigokensaku.mhlw.go.jp/39/index.php?action_kouhyou_detail_004_kani=true&JigyosyoCd=3972600047-00&ServiceCd=150&Type=search", "url2": "https://nishitosa-kawasemi.jp/" }, "geometry": { "type": "Point", "coordinates": [ 132.795020199999954, 33.1724967 ] } },
{ "type": "Feature", "properties": { "内容": "デイサービスセンターライフケア光【通所介護】高知県四万十市西土佐西ヶ方603-1", "url": "https://www.kaigokensaku.mhlw.go.jp/39/index.php?action_kouhyou_detail_004_kani=true&JigyosyoCd=3971000256-00&ServiceCd=150&Type=search", "url2": null }, "geometry": { "type": "Point", "coordinates": [ 132.766886399999947, 33.1874002 ] } },
{ "type": "Feature", "properties": { "内容": "共生型デイサービス介援隊【通所介護】高知県四万十市具同字六反田3239番地29", "url": "https://www.kaigokensaku.mhlw.go.jp/39/index.php?action_kouhyou_detail_004_kani=true&JigyosyoCd=3971000280-00&ServiceCd=150&Type=search", "url2": null }, "geometry": { "type": "Point", "coordinates": [ 132.9100612, 32.9832228 ] } },
{ "type": "Feature", "properties": { "内容": "通所介護事業所　四万十の郷【通所介護】高知県四万十市安並字東丸5803", "url": "https://www.kaigokensaku.mhlw.go.jp/39/index.php?action_kouhyou_detail_004_kani=true&JigyosyoCd=3970700039-00&ServiceCd=150&Type=search", "url2": "https://www.nankai-f.jp" }, "geometry": { "type": "Point", "coordinates": [ 132.9354045, 33.002197 ] } },
{ "type": "Feature", "properties": { "内容": "でいさーびすうちんくのどか　のいち【通所介護】高知県香南市野市町西野2558番地1", "url": "https://www.kaigokensaku.mhlw.go.jp/39/index.php?action_kouhyou_detail_004_kani=true&JigyosyoCd=3971100312-00&ServiceCd=150&Type=search", "url2": "https://nodoka-kochi.jp" }, "geometry": { "type": "Point", "coordinates": [ 133.69268390000002, 33.5671072 ] } },
{ "type": "Feature", "properties": { "内容": "デイサービスセンター　あぐり【通所介護】高知県香南市野市町東野３５４－１８", "url": "https://www.kaigokensaku.mhlw.go.jp/39/index.php?action_kouhyou_detail_004_kani=true&JigyosyoCd=3971100064-00&ServiceCd=150&Type=search", "url2": null }, "geometry": { "type": "Point", "coordinates": [ 133.717664600000035, 33.5616124 ] } },
{ "type": "Feature", "properties": { "内容": "通所介護事業所　みかんの里【通所介護】高知県香南市香我美町下分２６４５－１", "url": "https://www.kaigokensaku.mhlw.go.jp/39/index.php?action_kouhyou_detail_004_kani=true&JigyosyoCd=3971100031-00&ServiceCd=150&Type=search", "url2": "http://konanshi-shakyo.or.jp/" }, "geometry": { "type": "Point", "coordinates": [ 133.741003800000044, 33.5720617 ] } },
{ "type": "Feature", "properties": { "内容": "デイサービスセンターふじかわ【通所介護】高知県香南市野市町西野1888番地4", "url": "https://www.kaigokensaku.mhlw.go.jp/39/index.php?action_kouhyou_detail_004_kani=true&JigyosyoCd=3971100387-00&ServiceCd=150&Type=search", "url2": null }, "geometry": { "type": "Point", "coordinates": [ 133.6935451, 33.5593943 ] } },
{ "type": "Feature", "properties": { "内容": "デイサービスセンター白岩【通所介護】香南市野市町東佐古727-2", "url": "https://www.kaigokensaku.mhlw.go.jp/39/index.php?action_kouhyou_detail_004_kani=true&JigyosyoCd=3971100171-00&ServiceCd=150&Type=search", "url2": "http://www.nishida-ph.net/dayservice/index.html#shiroiwa" }, "geometry": { "type": "Point", "coordinates": [ 133.711026, 33.584684399999986 ] } },
{ "type": "Feature", "properties": { "内容": "香美市社協デイサービスセンター　八王子【通所介護】高知県香美市土佐山田町262番地１", "url": "https://www.kaigokensaku.mhlw.go.jp/39/index.php?action_kouhyou_detail_004_kani=true&JigyosyoCd=3971200021-00&ServiceCd=150&Type=search", "url2": "http://kami-shakyo.or.jp/" }, "geometry": { "type": "Point", "coordinates": [ 133.687628099999984, 33.6106788 ] } },
{ "type": "Feature", "properties": { "内容": "かみ介護サービス（株）デイサービス太陽【通所介護】高知県香美市土佐山田町旭町4－2－30かみ介護サービス（株）サービス付き高齢者向け住宅あさひ", "url": "https://www.kaigokensaku.mhlw.go.jp/39/index.php?action_kouhyou_detail_004_kani=true&JigyosyoCd=3971200211-00&ServiceCd=150&Type=search", "url2": null }, "geometry": { "type": "Point", "coordinates": [ 133.691058399999946, 33.6059293 ] } },
{ "type": "Feature", "properties": { "内容": "デイサービスセンター　あさひ【通所介護】高知県香美市土佐山田町旭町4丁目２－６", "url": "https://www.kaigokensaku.mhlw.go.jp/39/index.php?action_kouhyou_detail_004_kani=true&JigyosyoCd=3971200096-00&ServiceCd=150&Type=search", "url2": null }, "geometry": { "type": "Point", "coordinates": [ 133.690597300000036, 33.6059987 ] } },
{ "type": "Feature", "properties": { "内容": "こじゃリハみらい【通所介護】高知県香美市土佐山田町東本町４丁目１−４５クラウド・ハウス１階", "url": "https://www.kaigokensaku.mhlw.go.jp/39/index.php?action_kouhyou_detail_004_kani=true&JigyosyoCd=3971200344-00&ServiceCd=150&Type=search", "url2": "https://rsb14267.wixsite.com/lisus" }, "geometry": { "type": "Point", "coordinates": [ 133.64561040000001, 33.5704332 ] } },
{ "type": "Feature", "properties": { "内容": "デイサービスセンターなはり【通所介護】高知県安芸郡奈半利町乙４５９７番１", "url": "https://www.kaigokensaku.mhlw.go.jp/39/index.php?action_kouhyou_detail_004_kani=true&JigyosyoCd=3972000388-00&ServiceCd=150&Type=search", "url2": "http://www.chisio-group.or.jp/" }, "geometry": { "type": "Point", "coordinates": [ 134.028856959910627, 33.416334728002241 ] } },
{ "type": "Feature", "properties": { "内容": "デイサービスたの【通所介護】高知県安芸郡田野町636-1在宅ケアセンター", "url": "https://www.kaigokensaku.mhlw.go.jp/39/index.php?action_kouhyou_detail_004_kani=true&JigyosyoCd=3972000412-00&ServiceCd=150&Type=search", "url2": "usui-kai.com" }, "geometry": { "type": "Point", "coordinates": [ 134.015261079020661, 33.428594650252698 ] } },
{ "type": "Feature", "properties": { "内容": "デイサービスセンターたいよう【通所介護】高知県安芸郡安田町西島７２－１", "url": "https://www.kaigokensaku.mhlw.go.jp/39/index.php?action_kouhyou_detail_004_kani=true&JigyosyoCd=3972000362-00&ServiceCd=150&Type=search", "url2": null }, "geometry": { "type": "Point", "coordinates": [ 133.985095799999954, 33.443053 ] } },
{ "type": "Feature", "properties": { "内容": "デイサービスセンター　柚子の郷【通所介護】高知県安芸郡北川村野友甲７１０－２", "url": "https://www.kaigokensaku.mhlw.go.jp/39/index.php?action_kouhyou_detail_004_kani=true&JigyosyoCd=3972000396-00&ServiceCd=150&Type=search", "url2": null }, "geometry": { "type": "Point", "coordinates": [ 134.0371007, 33.4466252 ] } },
{ "type": "Feature", "properties": { "内容": "デイサービスセンター洋寿【通所介護】高知県安芸郡芸西村西分乙２９７番地", "url": "https://www.kaigokensaku.mhlw.go.jp/39/index.php?action_kouhyou_detail_004_kani=true&JigyosyoCd=3972000297-00&ServiceCd=150&Type=search", "url2": "http://www.welplaza.or.jp/" }, "geometry": { "type": "Point", "coordinates": [ 133.772079399999939, 33.5157927 ] } },
{ "type": "Feature", "properties": { "内容": "デイサービスセンターこまどり【通所介護】高知県長岡郡本山町本山978番地2", "url": "https://www.kaigokensaku.mhlw.go.jp/39/index.php?action_kouhyou_detail_004_kani=true&JigyosyoCd=3972200160-00&ServiceCd=150&Type=search", "url2": "http://www.kounankai.jp/" }, "geometry": { "type": "Point", "coordinates": [ 133.59104, 33.7566734 ] } },
{ "type": "Feature", "properties": { "内容": "デイサービスたい【通所介護】土佐郡土佐町田井１４５６－１", "url": "https://www.kaigokensaku.mhlw.go.jp/39/index.php?action_kouhyou_detail_004_kani=true&JigyosyoCd=3912310277-00&ServiceCd=150&Type=search", "url2": null }, "geometry": { "type": "Point", "coordinates": [ 133.55534214877548, 33.748674483725246 ] } },
{ "type": "Feature", "properties": { "内容": "デイサービス　ゆとりあ【通所介護】吾川郡いの町天王南１－６－３", "url": "https://www.kaigokensaku.mhlw.go.jp/39/index.php?action_kouhyou_detail_004_kani=true&JigyosyoCd=3972400257-00&ServiceCd=150&Type=search", "url2": "http://www.machidaseikei.com/yutoria.html" }, "geometry": { "type": "Point", "coordinates": [ 133.440729899999951, 33.5279184 ] } },
{ "type": "Feature", "properties": { "内容": "デイサービスセンター「あいの」【通所介護】高知県吾川郡いの町１４００「すこやかセンター伊野」内", "url": "https://www.kaigokensaku.mhlw.go.jp/39/index.php?action_kouhyou_detail_004_kani=true&JigyosyoCd=3972400141-00&ServiceCd=150&Type=search", "url2": null }, "geometry": { "type": "Point", "coordinates": [ 133.431710382833899, 33.546478737373555 ] } },
{ "type": "Feature", "properties": { "内容": "デイサービスセンター　壽幸園【通所介護】高知県吾川郡いの町天王南五丁目2-14", "url": "https://www.kaigokensaku.mhlw.go.jp/39/index.php?action_kouhyou_detail_004_kani=true&JigyosyoCd=3972400869-00&ServiceCd=150&Type=search", "url2": "https://www.inofukushikai.com/" }, "geometry": { "type": "Point", "coordinates": [ 133.449631899999986, 33.5315015 ] } },
{ "type": "Feature", "properties": { "内容": "デイサービスかわうち【通所介護】高知県吾川郡いの町波川664－1", "url": "https://www.kaigokensaku.mhlw.go.jp/39/index.php?action_kouhyou_detail_004_kani=true&JigyosyoCd=3972400927-00&ServiceCd=150&Type=search", "url2": null }, "geometry": { "type": "Point", "coordinates": [ 133.4127679, 33.5469388 ] } },
{ "type": "Feature", "properties": { "内容": "デイサービスセンターせいらん荘【通所介護】高知県吾川郡仁淀川町長者乙２４３５", "url": "https://www.kaigokensaku.mhlw.go.jp/39/index.php?action_kouhyou_detail_004_kani=true&JigyosyoCd=3972400661-00&ServiceCd=150&Type=search", "url2": null }, "geometry": { "type": "Point", "coordinates": [ 133.13493840000001, 33.5001683 ] } },
{ "type": "Feature", "properties": { "内容": "デイサービスセンター「とちの木園」【通所介護】高知県吾川郡仁淀川町大崎264-8", "url": "https://www.kaigokensaku.mhlw.go.jp/39/index.php?action_kouhyou_detail_004_kani=true&JigyosyoCd=3972400679-00&ServiceCd=150&Type=search", "url2": null }, "geometry": { "type": "Point", "coordinates": [ 133.172607278851302, 33.575097142714043 ] } },
{ "type": "Feature", "properties": { "内容": "デイサービスセンター　池川【通所介護】高知県吾川郡仁淀川町土居甲921-1", "url": "https://www.kaigokensaku.mhlw.go.jp/39/index.php?action_kouhyou_detail_004_kani=true&JigyosyoCd=3972400687-00&ServiceCd=150&Type=search", "url2": null }, "geometry": { "type": "Point", "coordinates": [ 133.170237499999985, 33.608266600000022 ] } },
{ "type": "Feature", "properties": { "内容": "デイサービスセンター上ノ加江【通所介護】高知県高岡郡中土佐町上ノ加江277番地10", "url": "https://www.kaigokensaku.mhlw.go.jp/39/index.php?action_kouhyou_detail_004_kani=true&JigyosyoCd=3972501153-00&ServiceCd=150&Type=search", "url2": "http://kadofukushikai.com/" }, "geometry": { "type": "Point", "coordinates": [ 133.246309600000018, 33.2742034 ] } },
{ "type": "Feature", "properties": { "内容": "デイサービスセンター　やまもも【通所介護】高岡郡佐川町丙３６２０－１", "url": "https://www.kaigokensaku.mhlw.go.jp/39/index.php?action_kouhyou_detail_004_kani=true&JigyosyoCd=3972501203-00&ServiceCd=150&Type=search", "url2": "http://www.ikoi-kochi.jp/" }, "geometry": { "type": "Point", "coordinates": [ 133.279091699999981, 33.5089039 ] } },
{ "type": "Feature", "properties": { "内容": "佐川町デイサービスセンター　斗賀野荘【通所介護】高知県高岡郡佐川町中組５０－１", "url": "https://www.kaigokensaku.mhlw.go.jp/39/index.php?action_kouhyou_detail_004_kani=true&JigyosyoCd=3972500999-00&ServiceCd=150&Type=search", "url2": "https://www.town.sakawa.lg.jp/kouhoku_hospital/" }, "geometry": { "type": "Point", "coordinates": [ 133.284760799999958, 33.4752506 ] } },
{ "type": "Feature", "properties": { "内容": "デイサービス　なごみ【通所介護】高知県高岡郡越知町越知甲１５８０－１", "url": "https://www.kaigokensaku.mhlw.go.jp/39/index.php?action_kouhyou_detail_004_kani=true&JigyosyoCd=3972501054-00&ServiceCd=150&Type=search", "url2": null }, "geometry": { "type": "Point", "coordinates": [ 133.254121199999986, 33.5292618 ] } },
{ "type": "Feature", "properties": { "内容": "デイサービスゆるり【通所介護】高知県高岡郡梼原町梼原1212番地2", "url": "https://www.kaigokensaku.mhlw.go.jp/39/index.php?action_kouhyou_detail_004_kani=true&JigyosyoCd=3972501369-00&ServiceCd=150&Type=search", "url2": "http://www.town.yusuhara.kochi.jp/yururi-yusuhara/" }, "geometry": { "type": "Point", "coordinates": [ 132.928105269353409, 33.394307622051855 ] } },
{ "type": "Feature", "properties": { "内容": "デイサービスセンター能津喜楽園【通所介護】高知県高岡郡日高村本村５－５", "url": "https://www.kaigokensaku.mhlw.go.jp/39/index.php?action_kouhyou_detail_004_kani=true&JigyosyoCd=3972500254-00&ServiceCd=150&Type=search", "url2": "http://tosa7411.com/b03_dayservice.html" }, "geometry": { "type": "Point", "coordinates": [ 133.335761100000013, 33.5590434 ] } },
{ "type": "Feature", "properties": { "内容": "デイサービスセンター　ひだか【通所介護】高知県高岡郡日高村沖名１番地", "url": "https://www.kaigokensaku.mhlw.go.jp/39/index.php?action_kouhyou_detail_004_kani=true&JigyosyoCd=3972500189-00&ServiceCd=150&Type=search", "url2": "http://syuoukai.jp/syuoukai" }, "geometry": { "type": "Point", "coordinates": [ 133.373672299999953, 33.5316137 ] } },
{ "type": "Feature", "properties": { "内容": "リハデイサービス　フィット【通所介護】高知県高岡郡四万十町琴平町3番8号", "url": "https://www.kaigokensaku.mhlw.go.jp/39/index.php?action_kouhyou_detail_004_kani=true&JigyosyoCd=3972501070-00&ServiceCd=150&Type=search", "url2": "https://actone-kochi.com/" }, "geometry": { "type": "Point", "coordinates": [ 133.136099596850613, 33.210957849324039 ] } },
{ "type": "Feature", "properties": { "内容": "デイサービスセンター緑林荘【通所介護】高岡郡四万十町仕出原４９６番地１", "url": "https://www.kaigokensaku.mhlw.go.jp/39/index.php?action_kouhyou_detail_004_kani=true&JigyosyoCd=3972500387-00&ServiceCd=150&Type=search", "url2": "http://www11.ocn.ne.jp/~oikonia/" }, "geometry": { "type": "Point", "coordinates": [ 133.1252111, 33.2224263 ] } },
{ "type": "Feature", "properties": { "内容": "デイサービスセンター　百年荘【通所介護】高知県高岡郡四万十町大正３２番地１", "url": "https://www.kaigokensaku.mhlw.go.jp/39/index.php?action_kouhyou_detail_004_kani=true&JigyosyoCd=3972500783-00&ServiceCd=150&Type=search", "url2": "http://shimanto-shakyo.jp/" }, "geometry": { "type": "Point", "coordinates": [ 132.972393499999953, 33.1836554 ] } },
{ "type": "Feature", "properties": { "内容": "大月町指定通所介護事業所「さんご」【通所介護】高知県幡多郡大月町鉾土604-5", "url": "https://www.kaigokensaku.mhlw.go.jp/39/index.php?action_kouhyou_detail_004_kani=true&JigyosyoCd=3972600153-00&ServiceCd=150&Type=search", "url2": "http://www.otsukicho-shakyo.jp/" }, "geometry": { "type": "Point", "coordinates": [ 132.708426799999984, 32.8203896 ] } },
{ "type": "Feature", "properties": { "内容": "通所介護事業所しおかぜ【通所介護】高知県幡多郡黒潮町有井川１２番地１", "url": "https://www.kaigokensaku.mhlw.go.jp/39/index.php?action_kouhyou_detail_004_kani=true&JigyosyoCd=3972600021-00&ServiceCd=150&Type=search", "url2": "www.kuroshiofukushikai.com/doc/office.html" }, "geometry": { "type": "Point", "coordinates": [ 133.060861599999953, 33.0375107 ] } }
]
}
